Address,ID(Google),Latitude,Longitude,Name,Price_Level(Google),Rating(Google),Zip
"1931 E Ben White Blvd #300, Austin, TX 78741, USA",b9eb17dab1edbc2b1a046a224789b1330e44554c,30.2153724,-97.74480340000001,Asia,2.0,3.8,78741
"2712 Bee Caves Rd, Austin, TX 78746, USA",bdefc39e9e72060c0c3f8552220f8ea2ca60d20b,30.2718138,-97.78653829999999,Chinatown,2.0,4.1,78746
"212 E Oltorf St, Austin, TX 78704, USA",b75b51402eec73943491ad3847b6b1c46d7a0ad8,30.2383368,-97.7517201,New Mandarin,2.0,3.5,78704
"3601, 6605 Airport Blvd, Austin, TX 78752, United States",aeca550acd577ada947d15388018945bbcd9b492,30.33069709999999,-97.7153094,China Palace,2.0,3.9,78752
"625 W Ben White Blvd, Austin, TX 78704, USA",ec2339d24cecd5986b306474bb427557f034a055,30.2257869,-97.7711758,Bamboo Garden Chinese Restaurant,2.0,4.0,78704
"10901 N Lamar Blvd, Austin, TX 78753, USA",f7ba6a5b04d098b3265bd2dbb954b1495292b8dc,30.3778041,-97.68781150000001,New Fortune Chinese Seafood Restaurant,2.0,4.3,78753
"4815 W Braker Ln, Austin, TX 78759, USA",b065f06f65bee85cb70cf65ddad37e86d41a8ab6,30.4001528,-97.74802299999999,Twin Lion,2.0,4.3,78759
"603 W Stassney Ln, Austin, TX 78745, USA",ae9093c0f3fc4e3e1b64476a888b716a68390ad3,30.20789499999999,-97.78097600000001,1st Wok,2.0,4.4,78745
"107 W 5th St, Austin, TX 78701, USA",e259af5fd78a9780e9ca0ac710946b8ad1bd0638,30.2672283,-97.7441874,Chinatown,2.0,3.9,78701
"3407 Greystone Dr, Austin, TX 78731, USA",9d64be01b91f73c8eca5c26bea3a3bff79404ffb,30.3565863,-97.74750870000001,Chinatown,2.0,4.0,78731
"6718 Middle Fiskville Rd, Austin, TX 78752, USA",2366e76abd78f4f137ea841b5699672381eb7996,30.3293008,-97.7067817,Shanghai,0.0,3.9,78752
"2800 W William Cannon Dr, Austin, TX 78745, USA",1b9da838439a94590699ca37397e435e34ba0775,30.2083348,-97.81732369999999,China Hill,2.0,3.9,78745
"801 E William Cannon Dr, Austin, TX 78745, USA",687006aedfe3251391c8e909d6c21213b2fd022e,30.1901117,-97.7742277,China Harbor,2.0,3.3,78745
"1000 E 11th St, Austin, TX 78702, USA",16e0adc337729528dc766fa0acc1160809c816a2,30.26961009999999,-97.7297763,Old Thousand,2.0,4.5,78702
"4534 West Gate Blvd, Austin, TX 78745, USA",0a8f28a7edac8268ea58c47098d85438af744c8c,30.23071,-97.80254,Sichuan River,2.0,4.1,78745
"500 W William Cannon Dr #420, Austin, TX 78745, USA",4f300f2056a77ce0e36bfb108ea2f9f2af60612e,30.196564,-97.7852367,Taiwan Restaurant,2.0,3.3,78745
"4006 S Lamar Blvd, Austin, TX 78704, USA",e971a74a49cdb9ed50373800537b2e7bdbd24157,30.2372562,-97.7938039,Hunan Lion,2.0,4.0,78704
"1901 W William Cannon Dr #115, Austin, TX 78745, USA",e8ab1d95da16b3fcd746e6fd6987d9a37eef657a,30.2013612,-97.8056249,Hao Hao Restaurant,2.0,4.1,78745
"IBC Bank Plaza, 500 W 5th St #168, Austin, TX 78701, USA",a7ab15bcdaf437a5e31f3cd509b78b2a9137ec9a,30.268841,-97.7481634,Wu Chow,2.0,4.3,78701
"4200 S Lamar Blvd, Austin, TX 78704, USA",477a9d263adc722c6477946f94a56750f46d73d3,30.235924,-97.795227,Pei Wei,1.0,3.6,78704
"201 San Jacinto Blvd, Austin, TX 78701, USA",7c34c2814c66dc33534adbeb4e64ae7117ec7501,30.263855,-97.7415953,P.F. Chang's,2.0,4.0,78701
"8650 Spicewood Springs Rd #109, Austin, TX 78759, USA",84d30dc8f1a53794922a4927af806a4400b2ea46,30.432805,-97.771553,Dynasty Chinese Restaurant,2.0,4.0,78759
"6818 West Gate Blvd, Austin, TX 78745, USA",9d56fdc337e2c101df72b7b41095b725ca8f0c77,30.2076956,-97.81562559999999,Bamboo Bistro Westgate,0.0,4.0,78745
"13729 US-183 Suite 695, Austin, TX 78750, USA",5c740c8358c893a0d8ede4b696d686d98fdeb0da,30.4588371,-97.7910387,China Cafe,2.0,3.8,78750
"9600 S I-35 Suite C-100, Austin, TX 78748, USA",51368733a0b637ec42512c3eefa611cff32dedfb,30.161394,-97.79199899999999,Mama Fu's Asian House,2.0,3.4,78748
"719 W William Cannon Dr, Austin, TX 78745, USA",45bd9478d1fa37344dcf4659d810a3ac5c5d78d1,30.196489,-97.78876699999999,Super Bowl Restaurant,2.0,3.8,78745
"10114 Jollyville Rd, Austin, TX 78759, USA",0f847de055cbdd06c0835266316f1951b2d123f1,30.395525,-97.75034749999999,P.F. Chang's,2.0,4.1,78759
"3201 Bee Caves Rd, Austin, TX 78746, USA",8344380b557848421e0e0204b244f3970a95cb86,30.2727948,-97.7994767,Lotus Hunan,2.0,4.1,78746
"2110 W Slaughter Ln, Austin, TX 78748, USA",ba10b66213fc2a8871246fd352f294775cdedebf,30.1748349,-97.8269746,China Dynasty,2.0,4.2,78748
"11101 Burnet Rd, Austin, TX 78758, USA",04f3e1eb684ba408303670f79662f72077507e5e,30.3958391,-97.7196452,Bamboo Bistro,2.0,3.8,78758
"5607, 1914 Guadalupe St #A, Austin, TX 78705, United States",bbeedc2e08cb24603522652454a0c0d8903fb7b2,30.282628,-97.742317,Look Noodles & More,0.0,3.9,78705
"8557 Research Blvd #116, Austin, TX 78758, USA",7f03c9570ff5ab647752bd0e3f924335bc2a2eb5,30.361008,-97.7156394,Din Ho Chinese BBQ,2.0,4.2,78758
"9900 S Interstate 35 Frontage Rd O500, Austin, TX 78748, USA",a93f24149d861b36be57bd7e008cb73e7c90f89a,30.153972,-97.793617,Chi Chinese Buffet,2.0,2.7,78748
"1332, 1913 E Riverside Dr, Austin, TX 78741, United States",74126c3ee327733a94b2b10003894e75eb3f813c,30.2420496,-97.7299158,China Express,2.0,3.8,78741
"#180, 7112 Ed Bluestein Blvd, Austin, TX 78723, United States",5e6587663e15ed9fe348906223b3570b025cedd2,30.313637,-97.66410599999999,China Kitchen,2.0,2.6,78723
"11657 Research Blvd, Austin, TX 78759, USA",eb471d4e1d5f74de6c2e99744348080e5ab5d1a9,30.4175597,-97.74561709999999,Super China Restaurant,2.0,3.5,78759
"6206, 3706 Jefferson St, Austin, TX 78731, United States",236df1cb68fed5b83948b1b7fc6f2f9df8f143c5,30.308641,-97.7516519,Spicy Szechuan Restaurant,2.0,3.8,78731
"3909 N Interstate Hwy 35 Ste E-5, Austin, TX 78722, USA",5a51db03a9759dd95f9fa17a8a5995b5e551ccda,30.295621,-97.71727299999999,Tso Chinese Delivery,0.0,4.7,78722
"309 W Slaughter Ln, Austin, TX 78748, USA",bcb5d183a5d76fac954e92cc438d74866f06a0f4,30.1678492,-97.7948356,Panda Express,1.0,3.6,78748
"2901 S Capital of Texas Hwy, Austin, TX 78746, USA",a514b7e6cf14beefafc016b988acf116ac7b24da,30.2575151,-97.8078515,Panda Express,1.0,3.8,78746
"Guadalupe St, Austin, TX 78712, USA",b58e04456438ef6a55ce5d0b6c41c1796fd3d5f9,30.2871231,-97.7411171,Panda Express,1.0,3.1,78712
"3505 N Interstate 35 Frontage Rd, Austin, TX 78722, USA",b7813e83af8f8b797e4ad9591f2782afa68c08ae,30.293008,-97.7201331,DFG Noodles,0.0,4.5,78722
"4301 W William Cannon Dr, Austin, TX 78749, USA",5cd3fcb9c27c2fa4461bfa191e6b4440146d50e4,30.22240439999999,-97.84060389999999,Panda Express,1.0,3.4,78749
"8106 Brodie Ln # 109, Austin, TX 78745, USA",f57e35f209250e9197c6527431cda56a527bd37b,30.20222,-97.8387077,Beijing Wok,2.0,3.0,78745
"7517 Cameron Rd, Austin, TX 78752, USA",0fd1e9f10db8f0a081b7fdd2679f693d252c2c82,30.3298217,-97.6883651,Oriental Express,2.0,3.4,78752
"7858 Shoal Creek Blvd, Austin, TX 78757, USA",34c434b9790dcb7ae0ab0fbcc0628195480bacaa,30.360677,-97.74139199999999,Suzi's China Grill,2.0,3.9,78757
"2237 East Riverside Dr 101A, Austin, TX 78741, United States",682f41df22dcd5ee551ca7e077113e08975a8ff9,30.2384179,-97.72716419999999,Kim Phung Restaurant - Riverside,1.0,4.4,78741
"1921 Cedar Bend Dr, Austin, TX 78758, USA",24e859da4594f3333b010200129aab9b6d4d8365,30.4074492,-97.6976122,Little China Restaurant,0.0,4.2,78758
"9306 N Lamar Blvd, Austin, TX 78753, USA",d2e9dd757611a5fd0dfea273278976d84c27d57b,30.3621522,-97.69862380000001,Hunan,2.0,3.1,78753
"100 Colorado St, Austin, TX 78701, USA",cf9782de34e8b8be142cd541adb4508c400b9167,30.263938,-97.745965,Mama Fu's Asian House,2.0,3.5,78701
"6156 US-290, Austin, TX 78749, USA",8166718e30258a4f1180276ceeaf87c44f405ffe,30.235699,-97.8557596,Sesame Hill,0.0,3.9,78749
"11220 N Lamar Blvd, Austin, TX 78753, USA",bba64249e8bbb978472b717f2ac7601db84d4ec2,30.382457,-97.68851599999999,Rice Bowl Cafe,2.0,4.2,78753
"13000 I-35, Austin, TX 78753, USA",5f73caa8bfcefd717471f52bdcd007e69ea39965,30.41030409999999,-97.6758309,Ho Ho Chinese B.B.Q.,2.0,4.1,78753
"9901 Brodie Ln, Austin, TX 78748, USA",0c6cbbbff49301e98a5789db54ec468e1503ff9d,30.1851624,-97.8472192,Wok On Fire,2.0,2.7,78748
"1910 Guadalupe St, Austin, TX 78705, USA",89a5ba2d37a414a3799ae3940ccaf51b87778387,30.282553,-97.742229,CoCo's Cafe,2.0,4.2,78705
"9505 Burnet Rd A, Austin, TX 78758, USA",7f8f652ba6d87fd306f11776dbde1dcf3c3af44e,30.378533,-97.72465,China House Restaurant,2.0,2.7,78758
"5764 Airport Blvd, Austin, TX 78752, USA",32d440df10065a0e25f6222c403841f36a79cc3f,30.3215029,-97.7143389,Panda Express,1.0,3.8,78752
"#110, 8557 Research Blvd, Austin, TX 78758, United States",769e95aeef4beff4cd733ae3818dae850aaeb1f3,30.360989,-97.715733,Julie's Noodles,0.0,4.3,78758
"8709 N Interstate Hwy 35, Austin, TX 78753, USA",33c1a68eef1bdad0c2c4b91cfd5d5eb6bdca44be,30.350357,-97.69198899999999,Fujian Grand China Buffet,1.0,3.6,78753
"2400 E Oltorf St #14, Austin, TX 78741, USA",254b72fcd852c415050671429ef86db44ae7e5e6,30.229395,-97.729272,Java Noodles Restaurant,2.0,3.9,78741
"2410 E Riverside Dr, Austin, TX 78741, USA",0978a532562e3e28da328c76414d3ca248bd9a57,30.2371973,-97.72369309999999,Joy East,1.0,3.4,78741
"11005 Burnet Rd, Austin, TX 78758, USA",fedcf07067c548f4663b355860888ba6a118283d,30.393991,-97.720297,Szechuan House,0.0,3.5,78758
"13450 Research Blvd #118, Austin, TX 78750, USA",9fd227999a229638edb3a33fe57f69a377186ddc,30.4469987,-97.7914325,Nanking Restaurant,2.0,4.2,78750
"2025 Guadalupe St, Austin, TX 78705, USA",64a7ecc49bb4d7b69ef58e8bfec7dd03cacc78ec,30.283362,-97.74130799999999,Hoa-Hoa,2.0,3.8,78705
"Spicewood/183 Center, 8650 Spicewood Springs Rd #114a, Austin, TX 78759, United States",129470543519677b0f235f3e6a6b177b99eb6ef9,30.4324727,-97.7713984,Asia Cafe,1.0,4.3,78759
"#100 13376, Research Blvd, Austin, TX 78750, United States",142e79c57a61c1d83d109a9eddcf5178126fbcd8,30.4446245,-97.7889744,A+A Sichuan China,0.0,4.0,78750
"13000 N Interstate Hwy 35 Suite 102, Austin, TX 78753, USA",dbc639f981b99631f9e57282cd86fd34b786b2e3,30.4109182,-97.6759994,Cyclo Vietnamese & Chinese,2.0,4.0,78753
"6705 U.S. 290, Austin, TX 78735, USA",d6360e5c9fa8b3cf9efb3718343f41f1a71efab0,30.2333362,-97.86587759999999,Chen Z Noodle House,2.0,4.3,78735
"4413 Guadalupe St, Austin, TX 78751, USA",b7c6616c2e553cf9c72ee6e2553dce0c77335aeb,30.310525,-97.73268,Wok 'N Express,0.0,4.2,78751
"3742 Far West Blvd, Austin, TX 78731, USA",3cff52e227e26e10537f085ad28e7e098667b65d,30.3564148,-97.758414,Hao-Q Asian Kitchen,0.0,4.0,78731
"10601 Ranch Rd 2222, Austin, TX 78730, USA",66b078c196b3605338c3da5f1421a02745aacd0d,30.3928483,-97.84484979999999,Hunan Riverplace Restaurant,2.0,4.2,78730
"8303 Burnet Rd 1, Austin, TX 78757, United States",9e64452ef92e33ab42a0365ef56153e24d49a3a0,30.363247,-97.7285682,Shu Shu's Asian Cuisine,2.0,4.3,78757
"310 Colorado St, Austin, TX 78701, USA",b6d39db9e002284b9ab1e352dc619b9cb4220da0,30.266234,-97.74517499999999,Papadom,0.0,4.0,78701
"14735 Bratton Ln, Austin, TX 78728, USA",4a6390f25341ab7f6eb7f6304cb131b342956d52,30.4460515,-97.68536300000001,Four Seasons Chinese Restaurant,2.0,3.8,78728
"4211 S Lamar Blvd # E1, Austin, TX 78704, USA",5a90c0c4b01a128fcdf377d5abe0e0b3437b661b,30.2337277,-97.7930832,Dong Nai,2.0,4.1,78704
"5451 I-35, Austin, TX 78723, USA",f3c671171b0791ab8a0325e91443ac366c0f2667,30.315221,-97.704858,Buffet King,2.0,3.7,78723
"1000 W Lynn St, Austin, TX 78703, USA",62b83987eb0f7dd7b728188a2998d7b11db72cbd,30.2793876,-97.7600875,Galaxy Cafe,1.0,4.2,78703
"7718 Burnet Rd, Austin, TX 78703, USA",1cf91c6f40589bbac64940f5141f03e18e1ca2f5,30.3540689,-97.7325329,Panda Express,1.0,3.1,78703
"1014 N Lamar Blvd, Austin, TX 78703, USA",7f1ae4798e54595a4dd1cc20e9c5baa1a544b1eb,30.2757662,-97.7524833,Wink,3.0,4.3,78703
"2608 W 7th St, Austin, TX 78703, USA",5cbbcd9851f7021c65f23e10800f07d4e91e6d1a,30.2828118,-97.77566790000002,Maudie's Cafe,2.0,4.0,78703
"600 N Lamar Blvd, Austin, TX 78703, USA",f437bc994aebf94277cab3ca0c57c50dec90c632,30.271964,-97.75426,24 Diner,2.0,4.3,78703
"1611 W 5th St #105, Austin, TX 78703, USA",f6efc97842e7a6d61cb198f0122ebf265710a4e0,30.2744935,-97.764645,Sushi Zushi,0.0,4.1,78703
"1014 W 6th St, Austin, TX 78703, USA",8a9b040aa7ede60dad42aec0b2477ccc65a3bb18,30.271917,-97.754565,Snap Kitchen,2.0,4.2,78703
"507 Pressler St, Austin, TX 78703, USA",a522576d0abce0195adecb5413b16fd246f8c4c1,30.2728079,-97.7606053,TNT Tacos and Tequila,0.0,4.1,78703
"817 W 5th St, Austin, TX 78703, USA",b02c02026510255d803e425da0ecbac27bfdf5df,30.26950149999999,-97.7529228,Austin's Habibi,1.0,4.0,78703
"2304 Lake Austin Blvd, Austin, TX 78703, USA",e20cd08b659050cfe07943b4792422483730c3e3,30.2780074,-97.7716588,Magnolia Cafe,2.0,4.3,78703
"1213 W Lynn St, Austin, TX 78703, USA",9127aa83a1083fa33cb3bffc8301ad0e5fb5466a,30.2805885,-97.7585196,Cipollina,2.0,4.2,78703
"509 Hearn St, Austin, TX 78703, USA",543c7c7714b982c9933ba52bdaf265077870f3e8,30.2789376,-97.7726218,Fabi + Rosi,2.0,4.7,78703
"1200 W 6th St, Austin, TX 78703, USA",d3fa84be5e4f1aac69ff4da1019f759731492549,30.27321,-97.7572679,Café Josie,3.0,4.4,78703
"1611 W 5th St, Austin, TX 78703, USA",071e7f6c6949b97034915e0eefcfaf8e370484b8,30.2741135,-97.7644761,Veggie Heaven,1.0,4.1,78703
"1204 W Lynn St, Austin, TX 78703, USA",c788965846671011efb94c299626b90e2b1ba256,30.280423,-97.75911459999999,Jeffrey's,3.0,4.3,78703
"1110 W 6th St, Austin, TX 78703, USA",34ff2538385f0def97a86cf4f1d8643dc5b9fac2,30.2726058,-97.7560511,Z'Tejas,0.0,4.0,78703
"1608 W 35th St, Austin, TX 78703, USA",4d10b3a567dadc36cfdc8274f57c1575d286f79d,30.3075825,-97.7509608,Brick Oven on 35th,2.0,4.1,78703
"1611 W 5th St #175, Austin, TX 78703, USA",010590c588869cddaf189d8b943e4965ff94b2b3,30.2736923,-97.763685,Lucky's Puccias,1.0,4.7,78703
"1115 W Lynn St, Austin, TX 78703, USA",bd8b5b332c0870eac7fd1d77571d233d7ad276e8,30.279978,-97.759069,Nau's Enfield Drug,1.0,4.2,78703
"3110 Windsor Rd, Austin, TX 78703, USA",ebbed199c917a2799ab49d9d448bc0bc575c6596,30.2967355,-97.767646,The Beer Plant,2.0,4.6,78703
"1503 W 35th St, Austin, TX 78703, USA",f7792ad624498e68ff649fd5c1d21d48c72b5c5a,30.30606449999999,-97.7497685,Tiny Boxwoods Austin,2.0,4.4,78703
"3411 Glenview Ave, Austin, TX 78703, USA",b52b01a26371565dd3c1b6471bd75e9d0018fda0,30.307261,-97.751117,Olive & June,0.0,4.3,78703
"1717 W 6th St, Austin, TX 78703, USA",f139ef5bd22a4bbd7e3c695752438a7e8d8eca8e,30.2761097,-97.7656598,COVER 3 Downtown ATX,2.0,4.4,78703
"900 W 12th St, Austin, TX 78703, USA",eb5280c413d4342749494e7096b69731c3e02f92,30.2767868,-97.750453,House Park Bar-B-Que,1.0,4.1,78703
"2727 Exposition Blvd #112, Austin, TX 78703, USA",6e4665ffd66e5e8a91cafdd4201b5e2dd9067f09,30.304173,-97.76391939999999,Food Food,0.0,4.0,78703
"1624 W 5th St, Austin, TX 78703, USA",5463e62622f8625946cd4bc1ce01ad75ada409c8,30.2749658,-97.76460200000001,El Arroyo,2.0,3.8,78703
"2401 Lake Austin Blvd, Austin, TX 78703, USA",6205787f842849458894efdfb03c2fa408de4d33,30.27788439999999,-97.7729907,68 Degrees Kitchen,2.0,4.2,78703
"3825 Lake Austin Blvd, Austin, TX 78703, USA",089c479b0873d939fccceb07479af54e6816e7b6,30.2946928,-97.7844186,Hula Hut,2.0,4.1,78703
"903 W 12th St, Austin, TX 78703, USA",b4c1620deef80270d92a7676833297035c08346b,30.276374,-97.75046859999999,ThunderCloud Subs,2.0,4.3,78703
"1621 W 5th St, Austin, TX 78703, USA",63973c13a1300a6e5459a35a2ddf89f86b3c645f,30.27450199999999,-97.765019,Mean Eyed Cat,0.0,4.4,78703
"922 W 12th St, Austin, TX 78703, USA",8aabed1b172b82bbcf1a906f04d3d0791698e7de,30.277075,-97.7511169,The Tavern,2.0,3.9,78703
"1401 W 6th St, Austin, TX 78703, USA",a9c294ff31699c1a78526692bad8ee8fe5d8b579,30.2738148,-97.760419,Nightcap,3.0,4.4,78703
"807 W 6th St, Austin, TX 78703, USA",3ece3985268975052c6ce7ba4261f4271ef795b5,30.27029,-97.75117949999999,Hut's Hamburgers,1.0,4.2,78703
"909 N Lamar Blvd, Austin, TX 78703, USA",57be21a7b9a9f1592c25af614d7367e7723f479b,30.2742337,-97.75231509999999,Shoal Creek Saloon,2.0,4.2,78703
"3510, 3825 Lake Austin Blvd, Austin, TX 78703, United States",8e464dab32dc8aa9d026acee7f456ccc38315aba,30.2950323,-97.7843841,Abel's on the Lake,1.0,3.4,78703
"1315 W 6th St, Austin, TX 78703, USA",48fd9842094f6cf24b7498f93a62ee1484691c05,30.2735587,-97.7600047,Winflo Osteria,1.0,4.2,78703
"1205 N Lamar Blvd, Austin, TX 78703, USA",621c6f8d7943b9c80d80122a3342a8624a724aca,30.2775569,-97.7508295,ALC Steaks,2.0,4.2,78703
"915 N Lamar Blvd, Austin, TX 78703, USA",2c9851e2e5a3c072bf454f29813d56682f7a05b2,30.2744739,-97.7522235,Fresa's - 9th & Lamar,1.0,4.1,78703
"525 N Lamar Blvd, Austin, TX 78703, USA",9d91de4926dcf1c74b1818397fed18bf5ce69240,30.2706676,-97.7532464,Red Okra,3.0,0.0,78703
"626 N Lamar Blvd, Austin, TX 78703, USA",b493e30ecf74b8e2e27cfbed0893f9c5fd776b80,30.2725823,-97.7536696,Counter Cafe,2.0,4.4,78703
"500 E Ben White Blvd # 200, Austin, TX 78704, USA",814a74b1277b9841ddcaad8eb578c7f53b93e2c6,30.2210713,-97.756844,Hea Cafe,2.0,3.8,78704
"2310 S Lamar Blvd #101, Austin, TX 78704, USA",fcf5aea6236a6d40251c5ae8ddd92c76f0fcd9ac,30.247515,-97.77475799999999,East Side King,1.0,4.4,78704
"909 W Mary St, Austin, TX 78704, USA",3cf015f2193ed21ab11abeab7e488c25121004a4,30.247849,-97.761729,Thai Fresh,1.0,4.1,78704
"801 South Lamar￼ ￼Boulevard, Austin, TX 78704, USA",d406336bcb87fa68ff9203fcda2821759b1ead61,30.2575138,-97.75977130000001,Uchi,3.0,4.6,78704
"5607, 1914 Guadalupe St suite b, Austin, TX 78705, United States",913a605286f9023d82b47108938945c9c7fd5dc5,30.28264,-97.742464,China's family restaurant,1.0,4.7,78705
"2400 Seton Ave, Austin, TX 78705, USA",47456e45b3d0555926e8e9c137b56bdc5e1e12d9,30.2880745,-97.7440939,Little Sheep Mongolian Hot Pot,0.0,4.2,78705
"3706 Guadalupe St b, Austin, TX 78705, USA",368c240f1f39c242155ada280e096b447ebc97ec,30.3026165,-97.7385436,YaYa Cafe,1.0,4.1,78705
"500 W Canyon Ridge Dr, Austin, TX 78753, USA",ebfed2698b22f27a2f6eb0ca3d7fe098f5765f62,30.4068474,-97.67260050000002,Panda Express,1.0,3.3,78753
"2501 W Parmer Ln, Austin, TX 78727, USA",191aa8ce8a731e1022774978e7637b2c30351cc3,30.4184052,-97.70200009999999,Panda Express,1.0,3.7,78727
"4700 W Guadalupe St Ste A5, Austin, TX 78751, USA",7963a2facfcec94dce7df5334395b03bac1ce2d3,30.315319,-97.73293199999999,Mama Fu's Asian House,2.0,3.4,78751
"2700 W Pecan St Suite 600, Pflugerville, TX 78660, USA",c0391e1d5f4a8a29d2f842d45496506c1db284f3,30.4503644,-97.65713430000001,China Dragon Chinese Restaurant,2.0,4.2,78660
"1000 E 41st St.Suite L-100, Austin, TX 78751, United States",0c230f17823c5665824f5da55463b08343edb218,30.298553,-97.719121,Pei Wei,1.0,3.7,78751
"11808 Ring Rd, Manor, TX 78653, USA",a05eff099fe4d8acbb22e0b4bd1d86d7598bd69f,30.348622,-97.5418277,Panda Express,1.0,3.4,78653
"12901 N I-35 Service Rd. NB Bldg. 15, Suite 1540, Austin, TX 78753, United States",acc44738520d6394d25c8bfe3c6d1d96ee650861,30.41613199999999,-97.67182299999999,Pei Wei,1.0,3.7,78753
"3107 S Interstate 35 #760, Round Rock, TX 78664, USA",107be506e5f4b64b0b670375227f3a9f4ddc49fc,30.4776175,-97.67157309999999,Inchin's Bamboo Garden,0.0,3.8,78664
"7601 N Lamar Blvd, Austin, TX 78752, USA",58d43db7d1c7b0a09ea8595bfdb24f30de547514,30.3438029,-97.71410279999999,Kim Phung,1.0,4.1,78752
"10710 Research Blvd Ste 328, Austin, TX 78759, USA",13034ea845ab93d5e8ebac74520ce22906ed48f1,30.398284,-97.74932799999999,Mama Fu's Asian House,0.0,3.1,78759
"Student Activities Center (SAC), 2201 Speedway, Austin, TX 78712, United States",da357db1e01446c7c9d598a037cba749bebcfb11,30.28495,-97.736797,Chick-fil-A,1.0,4.2,78712
"2108 Robert Dedman Dr, Austin, TX 78712, USA",01faca1c6c53fc305e264cf963c3becc26a830a2,30.2838721,-97.7313092,The University of Texas Club,0.0,4.5,78712
"5400 Brodie Ln Ste 1200, Austin, TX 78745, USA",93007705b0e7cb93f5f0750328157d40d807c2bf,30.229215,-97.821167,Mama Fu's Asian House,2.0,3.4,78745
"14900 Avery Ranch Blvd, Austin, TX 78717, USA",470161798fd1c42c858b1bea683011c0850e2291,30.49912,-97.7775441,Hunan Ranch,2.0,4.2,78717
"9231 W Parmer Ln #101, Austin, TX 78717, USA",5ec09d5f308bb441aabf8ec4da286c566a6b7819,30.4786123,-97.7666886,Twin Panda,0.0,4.6,78717
"14028 US-183 #170, Austin, TX 78717, USA",bdaca5ef78d1b42f90d05668161748a70dc519a6,30.476049,-97.802241,Snow Pea Asian Bistro,2.0,4.3,78717
"4898, 10001 W Parmer Ln, Austin, TX 78717, United States",d98fc500e29895d9bf480771a868155221acb6fd,30.4881541,-97.77214219999999,P King,0.0,4.0,78717
"13201 Ranch Rd 620 N U208, Austin, TX 78717, USA",8794c2f9df3d059b837617d4c0d1879399ad60f5,30.4671765,-97.7947219,Xian Sushi and Noodle,0.0,4.3,78717
"11301 Lakeline Blvd Ste 300, Austin, TX 78717, USA",a936c289e83e9866d24c2a693f5db08a4fad16b4,30.477946,-97.800331,Mama Fu's Asian House,2.0,3.4,78717
"6301 W Parmer Ln #202, Austin, TX 78729, USA",7d4ecb2044984b22c80b540b777c9dcecd3349ce,30.44563,-97.74405399999999,Eggroll Express,2.0,4.0,78729
"13201 Pond Springs Rd, Austin, TX 78729, USA",24e2d5f835359a429ff264f1743b2f982f01b221,30.4456018,-97.77830449999999,DR WOK,0.0,3.4,78729
"12300 Ranch Road 620 N, Austin, TX 78750, USA",4a7300b89e7fdc612193d21a722d5d2bc0bccd03,30.4632505,-97.8149619,Jenna's Asian Kitchen,2.0,4.3,78750
"150 11301 Lakeline Blvd, Austin, TX 78717, USA",100586a3d1741e8960f59ecfbb00342f7ea8bd2e,30.4794575,-97.7991347,Lai Lai Chinese Restaurant,0.0,3.0,78717
"8650 Spicewood Springs Rd #127, Austin, TX 78759, USA",889f430d89a722d2192481ba4f5b6313ac4a9235,30.432262,-97.770968,Chen's Noodle House,2.0,4.2,78759
"107 Ranch Rd 620 S #107, Austin, TX 78734, USA",0ed967e0f6a93a70477cdd21bc8cfda024e880b6,30.3653041,-97.9507103,China Pacific Restaurant,2.0,3.8,78734
"ste 105 10700, Anderson Mill Rd, Austin, TX 78750, United States",f1739a273f73f77e250ce69ad8aa5db6dce9c8b9,30.447567,-97.810198,Hunan Bistro,0.0,4.4,78750
"3600 Presidential Blvd, Austin, TX 78719, USA",f40674f73f6cfda9cca1443c4febb98809298e8f,30.201817,-97.6678979,Salt Lick,2.0,4.0,78719
"3600 Presidential Blvd #204, Austin, TX 78719, USA",3850fec50f216e2268968eedbe0565672a2c4d9c,30.2020924,-97.66598809999999,Auntie Anne's,1.0,3.7,78719
"14300 FM 969, Austin, TX 78724, USA",710f2d1e625e2153c07100b2d21d66159ec90bba,30.2482461,-97.58359899999999,Dragon Express,2.0,4.1,78724
"3600 Presidential Blvd, Austin, TX 78719, USA",22ff50fad7f9a8a65b24c1aa867a8ccb63e41c33,30.2020456,-97.6679293,Maudie's,0.0,1.7,78719
"3600 Presidential Blvd, Austin, TX 78719, USA",630f79fa905f341293b7110fb363864bc1548799,30.2020765,-97.66644199999999,Wok & Roll,2.0,3.6,78719
"12221 Riata Trace Pkwy, Austin, TX 78727, USA",ce613408e88adedae6e885a72bf0b7a5d4eac20c,30.428659,-97.750265,Minh's Cafe,2.0,3.9,78727
"2000 N Interstate 35 Frontage Rd G4, Round Rock, TX 78681, USA",750c5df19dc8f3e673a995cb68ebdaabe542f045,30.48988799999999,-97.680381,China Wall Restaurant,2.0,3.7,78681
"1205 Round Rock Ave #135, Round Rock, TX 78681, USA",62233c70aff8a01cf125723b3fe25d7a2435b047,30.5103266,-97.69447579999999,Hao Hao Vietnamese & Chinese Restaurant,2.0,4.3,78681
"1208 N Interstate Hwy 35, Round Rock, TX 78681, USA",3e9007cb281a10c12596444f34070a99dd506947,30.5194455,-97.689681,Hunan Lion,2.0,3.8,78681
"4140 E 12th St, Austin, TX 78721, USA",8b83f519d865b54f13b24a70b94f0beb5075be7d,30.279217,-97.687117,Country Boyz Fixins LLC,1.0,4.5,78721
"3210 E Martin Luther King Jr Blvd, Austin, TX 78721, USA",b891b5326b9aaef3f1ab2202fe3440ab96c9966b,30.28310189999999,-97.7029395,Whataburger,1.0,3.8,78721
"1005 Springdale Rd, Austin, TX 78721, USA",3116119047882fd4f3063a06494742366bc9ea6b,30.2659903,-97.69544409999999,Taqueria La China,0.0,3.0,78721
"13717 Burnet Rd, Austin, TX 78727, USA",947f364916db2a10ceb557bb8911ffe8f3cc2589,30.437675,-97.69758,Wanfu III Asian Diner,0.0,3.5,78727
"C370, 1801 E 51st St, Austin, TX 78723, USA",bd19c269f274a358e652a98e240be0c0d1736a58,30.302907,-97.69915750000001,Xian Sushi and Noodle,1.0,4.3,78723
"18600 Limestone Commercial Dr, Pflugerville, TX 78660, USA",74857eb305e2253f034ce9ceb88132253540d41c,30.4655242,-97.5980045,Panda Express,1.0,3.6,78660
"120 Louis Henna Blvd, Round Rock, TX 78664, USA",c0e9e4cefa696e0d75aa1f862ff44e1c49093d22,30.4815156,-97.6714411,Panda Express,1.0,3.6,78664
"11521 N FM 620, Austin, TX 78726, USA",faa1be5336758689a714703b8f7eaa1ebdb8f614,30.45332459999999,-97.8273193,Panda Express,1.0,3.5,78726
"2121 W Parmer Ln, Austin, TX 78727, USA",1e719b2db1daa03698f2eedce0d3277168d119f6,30.4162598,-97.69776279999999,Pok-E-Jo's Smokehouse Inc,0.0,4.2,78727
"1100 Center Ridge Dr #300, Austin, TX 78753, USA",729690b70eacbce1475858594d943cc74c48341c,30.4181428,-97.6702622,Masala Wok Tech Ridge,2.0,4.1,78753
"11200 Lakeline Mall Dr, Cedar Park, TX 78613, USA",a92d8990a83d942deab6c6855f7881a7d1ec41eb,30.4708139,-97.8070474,Panda Express,1.0,2.9,78613
"13429 N Hwy 183, Austin, TX 78750, United States",86d6bfbd5bda3151f4ec8346e03a56c915383b92,30.447352,-97.788888,Pei Wei,1.0,3.6,78750
"4101 W Parmer Ln F, Austin, TX 78727, USA",c780b6e883d1f82679f654c8bc5c454e1b84075c,30.4254971,-97.7169728,Thai Cuisine,2.0,4.4,78727
"1700 E Palm Valley Blvd, Round Rock, TX 78664, USA",897a79dd1b5a4913c8017f0b536a3e3fc48781e2,30.5177704,-97.6605969,Panda Express,1.0,3.5,78664
"1700 W Parmer Ln, Austin, TX 78727, USA",64a8f27c7ae2cf1fbfdefdd00371c21416fad5de,30.4143861,-97.6891045,Domino's Pizza,1.0,4.2,78727
"2711 La Frontera Blvd #260, Round Rock, TX 78681, USA",e7127559e0954f032069783f4a466c6c69290d74,30.4804514,-97.68397039999999,BO ASIAN BISTRO,2.0,4.0,78681
"2121 W Parmer Ln Suite 114, Austin, TX 78727, USA",23ae2435b4006a0ad7922807eaa2884e4bb0c9b7,30.4158267,-97.69779199999999,Chutney,1.0,3.7,78727
"401 W Whitestone Blvd, Cedar Park, TX 78613, USA",5611ceddec132eb8f5d46fab58cfadc4ec667d1c,30.5202026,-97.8339386,Panda Express,1.0,3.4,78613
"111 University Oaks Blvd, Round Rock, TX 78664, USA",f10d4eeb6b3916eb938a538cc0b9eeffae697994,30.5551321,-97.6905443,Panda Express,1.0,4.0,78664
"1701 W Parmer Ln #104, Austin, TX 78727, USA",fa3167f810d37172e00942409fed775b08acbb81,30.4121087,-97.68993130000001,Wingstop,1.0,3.5,78727
"1700 W Parmer Ln #650, Austin, TX 78727, USA",c530ce52242fc6c4795612da4972d1b42774a826,30.4144742,-97.6892577,The Original Pancake House,0.0,4.1,78727
"4101 W Parmer Ln, Austin, TX 78727, USA",8b51703228c1e45143dc884c91b48ca1fb19ec28,30.4254697,-97.7169199,Tomodachi Sushi,2.0,4.5,78727
"12501 N Mopac Expy, Austin, TX 78727, USA",f37ca8fc18b275d7f27a365c42c535eb3308c96a,30.4190184,-97.70333269999999,Chick-fil-A,1.0,4.3,78727
"6001 West Parmer Lane Suite 360, Austin, TX 78727, United States",82dc68ef1ce6379b7bdd69e7b996e66587cb9410,30.4417921,-97.7448249,Smokey MO's BBQ,2.0,4.1,78727
"1700 W Parmer Ln, Austin, TX 78727, USA",b0ae6cd73e9c1fe1bc0307e362c477d380079df8,30.41335699999999,-97.6895913,KFC,1.0,3.7,78727
"10300 Anderson Mill Rd Suite A, Austin, TX 78750, USA",c9ce4c42ad54105312ebd31142b3cb89bd720e0e,30.4475578,-97.80434199999999,Shanghai Noodle House,0.0,4.5,78750
"2900 N Quinlan Park Rd, Austin, TX 78732, USA",af8f7efddcd91529184a9cde3fb9d8ae789e7714,30.369676,-97.892944,Kawa Asian Kitchen,0.0,4.0,78732
"3407 Greystone Dr, Austin, TX 78731, USA",72576d5763e7b1e745bd0760089ebfe3551bed99,30.3565863,-97.74750870000001,Street Restaurant,2.0,4.5,78731
"10901 N Lamar Blvd, Austin, TX 78753, USA",a21ca305d1b42370dc2757ad58da456210dde761,30.3788571,-97.686452,First Chinese BBQ,2.0,4.3,78753
"10901 N Lamar Blvd, Austin, TX 78753, USA",989029e84f950d89b493087c03f5c6659fc00488,30.3791457,-97.6869864,TC Noodle House Restaurant,2.0,4.2,78753
"101, 5019, 3421 W William Cannon Dr, Austin, TX 78745, United States",c37bafc106fbc0ba980ca09ee886aa25d7aedac7,30.2127429,-97.8298519,Me Con Bistro,0.0,4.4,78745
"10901 N Lamar Blvd Suite A101, Austin, TX 78753, USA",12ebc63c248b5616fbf5d31ef482affc6ab56f87,30.3781355,-97.6877186,Duy Vietnamese Restaurant,0.0,4.3,78753
"205 N Commons Ford Rd #2, Austin, TX 78733, USA",c09ccde3e39b2be3a2c34c9e71e2cd8d90261833,30.332983,-97.88502199999999,Ronnie's Real Food Bistro,0.0,4.7,78733
"3801 N Capital of Texas Hwy C-200, Austin, TX 78746, USA",f38be5ac709c22369bb8e87587a7f0e258f4dbb0,30.3352979,-97.804464,Jade Restaurant,2.0,4.5,78746
"12913 Galleria Cir Suite 101, Bee Cave, TX 78738, USA",448bd139d7d1094c348b7ecdbea07718454f094c,30.308593,-97.94303099999999,Pei Wei,1.0,3.0,78738
"1705 Cuernavaca Dr N, Austin, TX 78733, USA",23fc6ea8222c72136da4c0aed994c0d409bfb7ad,30.340278,-97.863083,Austin's Pizza - Cuernavaca,0.0,4.1,78733
"1803 Cuernavaca Dr N, Austin, TX 78733, USA",54a75b1d2869b6cb90a7c3ad1023baa53539885a,30.3406585,-97.86328979999999,M&H Music Cafe,0.0,5.0,78733
"2121 Lohmans Crossing Rd, Austin, TX 78734, USA",3f12b80541fcd93be20760879e794ea60bc26343,30.3425354,-97.97065289999999,Thai Spice Restaurant,0.0,4.2,78734
"2300 Lohmans Spur, Austin, TX 78734, USA",d354fcc1d272a15f4d577f53971ad45effeaa01c,30.33802,-97.971696,Pao's Mandarin House,2.0,3.9,78734
"7010 TX-71 #180, Austin, TX 78735, USA",b6f6e0ff0f3cad33e2d5fc2f1069d4cdc9d8974c,30.2359212,-97.8754795,Thai Taste,2.0,4.1,78735
"6705 US-290, Austin, TX 78735, USA",da7ba729174e8383c121f784a4e456b3001248d7,30.2330776,-97.8654272,Lavon Chinese,0.0,0.0,78735
"7101 TX-71 C13, Austin, TX 78735, USA",fc32d025aeb09d3d3248f78ed757921501fb430d,30.2347673,-97.8782007,Eurasia Sushi Bar & Seafood,2.0,4.5,78735
"7720 TX-71, Austin, TX 78735, USA",987448870b1321e83c201d092556ab3329af624a,30.2435375,-97.88276619999999,Jack Allen's Kitchen Oak Hill,2.0,4.6,78735
"6705 US-290, Austin, TX 78735, USA",2108f6e89f7aa770db0ede5934d5c0f47ce2e489,30.2328145,-97.8656356,Via 313 Pizza,1.0,4.6,78735
"Austin, TX 78735, USA",9e9f323cc4ea022f344a4dac644b7683b30a9f71,30.2342837,-97.87640139999999,Jim's,2.0,4.2,78735
"4970 W US Hwy 290 Service Rd, Austin, TX 78735, USA",d6745fd1d8a29ad4fb415f488e8a4220d830bf54,30.235192,-97.819604,Craig O's Pizza & Pastaria,2.0,4.1,78735
"6116 W US Hwy 290 Service Rd, Austin, TX 78735, USA",3658538b8afb8a4b37215c4e8ec1c829f1c12e22,30.2357979,-97.8553766,Taqueria Chapala 3,2.0,4.4,78735
"5010 W US Hwy 290 Service Rd, Austin, TX 78735, USA",ca9404c0319cca3eca8f744a9c8a722a48852ba1,30.2350319,-97.8210709,Applebee’s Grill + Bar,2.0,3.6,78735
"4608 West Gate Blvd, Austin, TX 78745, USA",5668036ab51f77288730eb2398704744f39c7d78,30.2303078,-97.8011729,Buffet Palace,2.0,4.1,78745
"4625 W William Cannon Dr, Austin, TX 78749, USA",bcda2b1e288cc7be84b8f0c1a9a36afbca9b250d,30.2230705,-97.8427979,Flores Mexican Restaurant,0.0,4.2,78749
"6266 US-290, Austin, TX 78735, USA",ae368d9bdea8dadd9fedc4c8003e13da718ee1fa,30.2356151,-97.85904520000001,Austin Pizza Garden,0.0,4.3,78735
"9900 I-35, Austin, TX 78748, USA",8dcf6fd4e9b20ed343a4f6ec3567b76a8584e4cc,30.154681,-97.7944287,The Green Mesquite BBQ,2.0,3.6,78748
"5030 W US Hwy 290 Service Rd, Austin, TX 78735, USA",b068962ef6b281e0a3b92649d4590e54d646a49b,30.236147,-97.821823,Serranos Cocina y Cantina - Mopac,2.0,4.3,78735
"4601 Southwest Pkwy, Austin, TX 78735, USA",65dcc71599187d02d071889312fcdcf5bde39373,30.23941099999999,-97.831761,Milano Cafe,2.0,4.4,78735
"6705 W US Hwy 290 Service Rd Ste 608, Austin, TX 78735, USA",7d43b094fc67fc35a4b8953476f671641e86c525,30.2333705,-97.8659431,Chinos Banditos,0.0,4.7,78735
"7101 State Hwy 71 W., Austin, TX 78736, United States",3171ce26e3bb9e5c0ef113528787386e65c3bb7c,30.234565,-97.876774,Golden Chick,0.0,4.0,78736
"3420-B FM 967 B110, Buda, TX 78610, United States",963e863fa6cc9b1d1248582c2a669f3153a07c9c,30.0970981,-97.8786081,Beijing Bistro - Buda,0.0,3.8,78610
"Ceres Park Ranch, 13187 Fitzhugh Rd, Austin, TX 78736, United States",5ea81b451bdfd9a62344145c0a604b54ef2a0fcf,30.230347,-97.9995902,Stanley's Farmhouse Pizza,0.0,4.6,78736
"13059 Four Star Blvd, Austin, TX 78737, USA",dfe5f97c74e8fe13adefebfeaea7552caf61227e,30.2044448,-97.98427810000001,Trudy's Four Star,2.0,3.7,78737
"9521 US-290 #100, Austin, TX 78737, USA",38ee230c09bfcc8149c70f2839e59a4bf2c93879,30.230309,-97.93404100000001,"Lox, Box & Barrel",1.0,4.5,78737
"12024 US-290, Austin, TX 78737, USA",8e6cbc153d0c34783f634e7de59004c1dc1ff2dd,30.2085593,-97.9746862,Aroi Thai Cuisine,0.0,4.4,78737
"11601 Us Highway 290, Unit B 100, Austin, TX 78737, United States",f574663b8bfeab0aafdaba47ff0abf643c041acc,30.21347979999999,-97.96561179999999,Papa John's Pizza,0.0,2.7,78737
"12005 US-290, Austin, TX 78737, USA",62d69128ef439b5c4b1db54aa91c21987350d564,30.21068439999999,-97.96824749999999,Pieous,1.0,4.7,78737
"151 Evans Dr Ste 111, Kyle, TX 78640, USA",eee32f797dd4a7bfd2ec9639cd8abb69e82d935e,30.0129045,-97.86237659999999,Mama Fu's Asian House,0.0,2.6,78640
"5261 Kyle Center Dr, Kyle, TX 78640, USA",4ed7340d304cafcb533e03bb7c3f0b8fc61f2d9d,30.0121085,-97.8622403,Panda Express,1.0,3.8,78640
"7800 S 1st St, Austin, TX 78745, USA",0e6c8cf96175f11aeeed6d44bf7b9aed52256dc1,30.185247,-97.79214499999999,Dragon Delights,1.0,4.5,78745
"5601 Brodie Ln # 550, Sunset Valley, TX 78745, USA",d729b62b942dc59c1064a94633e3ef75b09f1618,30.2262351,-97.81948179999999,Fire Bowl Cafe,2.0,3.9,78745
"7101 TX-71, Austin, TX 78735, USA",ed51584137227d0ba4271ede16abfa0c7c8ddc44,30.2346999,-97.8775009,Dynasty Buffet Oakhill,0.0,2.0,78735
"3107, 13614 TX-71, Austin, TX 78738, United States",e629ac785814f961f7aa34a91cf935870f4d363e,30.3087025,-97.9531119,The Emerald Restaurant,3.0,4.4,78738
"3001 Ranch Rd 620 S, Austin, TX 78738, USA",b600ed5a298d264c386d357bf75e61543cc9f220,30.333942,-97.96775799999999,The Grove Wine Bar & Kitchen - Lakeway,2.0,4.4,78738
"12506 Shops Pkwy, Austin, TX 78738, USA",0919e5b08fe4baebc306d4a1ffef4c173d5b9753,30.3047144,-97.93737560000001,Maudie's Hill Country,2.0,3.9,78738
"3929 Market St, Bee Cave, TX 78738, USA",f4ccc1e8ffc47be0f372b74ae831df24b8d9de8f,30.3071331,-97.9359114,Madam Mam's,1.0,3.9,78738
"12918 Shops Pkwy, Austin, TX 78738, USA",11d628a5ffe7f5fe14f76b3e1651b6efba3646d3,30.30735,-97.94502,Simply Pho House,0.0,3.8,78738
"3600 Ranch Rd 620 S C, Austin, TX 78738, USA",09a53099e2b48e9c71eb0440a0250e49fa5b930e,30.3190266,-97.9525908,Chick-fil-A,1.0,4.5,78738
"12713 Galleria Cir, Bee Cave, TX 78738, USA",f1b9adf83ba98fe0d5bc2f3d30be9cda0a0b3869,30.3071922,-97.939336,Chili's Grill & Bar,1.0,4.0,78738
"12901 Hill Country Blvd, Bee Cave, TX 78738, USA",79c915d2af1ea6ae67c9e0b8cf7f0f0420175d60,30.3091863,-97.9418944,Panera Bread,1.0,3.5,78738
"12800 Hill Country Blvd. Suite G-115, Bee Cave, TX 78738, United States",fcd18068ed57d0341f64162d14dd095ca23310ff,30.3093628,-97.94013939999999,Cafe Blue at Hill Country Galleria,2.0,4.1,78738
"12823 Shops Pkwy, Austin, TX 78738, USA",7fa730e26931364b7f6ed09f7a1f2af441b0f8ab,30.305506,-97.9433555,Plate By Dzintra,0.0,4.7,78738
"4005 Market St #140, Bee Cave, TX 78738, USA",c1bd71b7750d44227e2a86e870ee7a502446d418,30.3067117,-97.93583009999999,Jersey Mike's Subs,1.0,4.0,78738
"12815 Shops Pkwy #400, Bee Cave, TX 78738, USA",1375db4b04835cd9c5e3e88532bc981f0e31f145,30.3051393,-97.9418841,Mandola's Italian,2.0,4.3,78738
"2422 Ranch Rd 620 S, Austin, TX 78738, USA",db89407f94ebd8a6cc528f1e4d4f2d2578905498,30.3402801,-97.9705974,Cho Sushi Japanese Fusion,0.0,4.7,78738
"12700 Hill Country Blvd S - 100, Bee Cave, TX 78738, USA",b18398ad4f01d24c62515df458be9f0bdbdabb92,30.3084754,-97.9381906,Chisos Grill,0.0,4.1,78738
"12815 Shops Pkwy Ste. 100, Bee Cave, TX 78738, USA",741be5e7b3a26cb677f2d80889f4ce41ad7da0cc,30.305307,-97.942298,Fuddruckers,2.0,4.0,78738
"11905 Bee Caves Rd #11, Austin, TX 78738, USA",7cdada7ad65590716d586bc8961d86902e86d15e,30.307985,-97.923824,Napoli's Craft & Kitchen,0.0,4.0,78738
"2422 Ranch Rd 620 S, Austin, TX 78738, USA",f1ad4f40ca908db17ee4ecc9d5ebb948695ea633,30.340535,-97.97046739999999,Little Greek,0.0,4.3,78738
"16018 Hamilton Pool Rd, Austin, TX 78738, USA",642cff1b202f67a8afe4681916ee627f773abb36,30.2980919,-98.0075888,Verde's Mexican Parrilla,2.0,4.4,78738
"2422 Ranch Rd 620 S, Austin, TX 78738, USA",5a556055344472d78389b93c9b74353d4377ffc9,30.3406487,-97.9704387,Papa John's Pizza,1.0,4.1,78738
"12432 Bee Caves Rd, Bee Cave, TX 78738, USA",d51a72f86fd286a5e118de2de3ad1663e0cb0530,30.305878,-97.933441,Rocco's Grill,3.0,4.3,78738
"12613 Galleria Pkwy, Bee Cave, TX 78738, USA",d3a09429e9ef88ebbb677de409cbe0cb3e4553fe,30.306859,-97.9382097,Mimi's Cafe,2.0,3.6,78738
"12532 Farm to Market 2244, Bee Cave, TX 78738, USA",69a9af9316fb519b492466fcd99b4a6bcbe5589e,30.3058413,-97.93579439999999,Schmidt Family Barbecue,2.0,4.0,78738
"12532 FM 2244 Rd Bldg 2, Bee Cave, TX 78738, United States",a66348ffe1208d49998ce058a631a7cfc394aa31,30.3058732,-97.9363051,Einstein Bros. Bagels,1.0,3.7,78738
"12820 Hill Country Blvd E-105, Bee Cave, TX 78738, USA",c996108461678ca600dd89871398c0050458e95a,30.3094623,-97.9410927,Tadashi,0.0,4.0,78738
"18710 Hamilton Pool Rd, Austin, TX 78738, USA",22725472f41b06ebda1d1492a0ad166c5a641c72,30.286802,-98.06461700000001,Proof & Cooper,2.0,3.9,78738
"5701 W Slaughter Ln A160, Austin, TX 78749, USA",488c57b48fbbe5fcd00beefaed1afc56c81e4894,30.2004696,-97.86987440000001,zpizza,0.0,3.7,78749
"2400 E Oltorf St #1A, Austin, TX 78741, USA",719d915dd6356b49631121bdc822df1f02b29013,30.2296531,-97.7301121,888 Pan Asian Restaurant,1.0,4.5,78741
"621 E 7th St, Austin, TX 78701, USA",d479959d6701de2bd04e296fdad9741c36579340,30.2670064,-97.7359845,Koriente,1.0,4.4,78701
"5701 W Slaughter Ln D, Austin, TX 78749, USA",fb33090c1984bf02e8de1b2276a21bc94050a112,30.2000418,-97.86794669999999,North by Northwest Restaurant & Brewery - Slaughter,0.0,4.2,78749
"6001 W William Cannon Dr # 301, Austin, TX 78749, USA",5cd3f438aef14347555c0c01037291d2f881d40a,30.2284462,-97.86329909999999,Hecho En Mexico,2.0,4.4,78749
"4301 W William Cannon Dr, Austin, TX 78749, USA",f14e5d754c47399635bfa56310d2eeeee33b5e27,30.2177657,-97.8415066,Chuy's,0.0,4.4,78749
"4301 W. William Cannon Dr, G-400, Austin, TX 78749, United States",ab3dde3cc3aa1cbfbfffd57a9b97bde129d629c8,30.2223221,-97.8404295,Torchy's Tacos,1.0,4.4,78749
"4301 W. William Cannon Dr., Bldg. D, Austin, TX 78749, United States",8e05bd70a2a45f73242fc8b9b17b941d1ceb2069,30.219811,-97.838561,Cheddar's Scratch Kitchen,2.0,3.9,78749
"4301 W William Cannon Dr, Austin, TX 78749, USA",3033b648b855e91e4d07489239f15bbb3921fa20,30.2226219,-97.8413968,Kerbey Lane Cafe,1.0,4.3,78749
"6611 S Mo Pac Expy, Bldg B, Austin, TX 78749, United States",50c961c7e199620febcf944870705954bc1dc68d,30.2202258,-97.8352261,Whataburger,1.0,4.1,78749
"4301 W William Cannon Dr #180, Austin, TX 78749, USA",194ac91311720bea4271af2b18c1ac01099385fc,30.2215437,-97.8409731,Firehouse Subs,1.0,4.0,78749
"4301 W William Cannon Dr, Austin, TX 78749, USA",6588f183f688d95963235baedcdfabb53ea1956b,30.221365,-97.840948,DoubleDave's Arbor Trails,1.0,3.9,78749
"5555 N. Lamar Blvd J107, Austin, TX 78751, United States",eeb2c9a5ad2d04b0321a1b95465c7a5384aca7ae,30.3232855,-97.725977,Mr. Delivery,0.0,1.0,78751
"5610b N Lamar Blvd, Austin, TX 78751, USA",c8dd7c19f86c78499e765a7ff0ee5881ea39c8a6,30.3252924,-97.72728529999999,DK Sushi,2.0,4.5,78751
"901 E Koenig Ln, Austin, TX 78751, USA",827b61833e183f5dd182d1224bc4ac05fc6d238d,30.320523,-97.7098206,IHOP,1.0,3.6,78751
"5804 N Interstate 35 Frontage Rd, Austin, TX 78751, USA",ff2733af71330ab10f835a023edc0144bd617fa5,30.3193208,-97.70814829999999,Amaya's Taco Village,1.0,4.2,78751
"5001 Airport Blvd, Austin, TX 78751, USA",c5243e7fcfc5193669e32b6c6373b38881ac3c90,30.3111976,-97.715063,Bun Belly,1.0,4.4,78751
"5501 N Lamar Blvd # C101, Austin, TX 78751, USA",e411f9f845c5a666ba3c0be3554c9da9d3d99b1e,30.3235625,-97.7273894,Titaya's Thai Cuisine,1.0,4.5,78751
"5201 Airport Blvd, Austin, TX 78751, USA",64c9c95ff0cdce0f77df54a990a1a1baca9663f4,30.313105,-97.7147533,Sala and Betty,2.0,4.5,78751
"5700 N Interstate 35 Frontage Rd, Austin, TX 78751, USA",7d1e43bedb62d5c910744fe33fa003092ef2f846,30.3177458,-97.7080366,Capt. Benny's Seafood,2.0,4.0,78751
"5312 Airport Blvd, Austin, TX 78751, USA",47889a74dc423966b4d0c584abcb12ff01b77128,30.3148734,-97.7152874,East Side Pies,2.0,4.5,78751
"4616 Triangle Ave, Austin, TX 78751, USA",5bfae75c788d127ea587017086b6eda0ac04a573,30.3151081,-97.7336547,Snap Kitchen,1.0,4.0,78751
"4807 Airport Blvd, Austin, TX 78751, USA",d5fde7eb0552df5befd637447475c10458c6d538,30.3087425,-97.71533660000001,BULLFIGHT,3.0,4.1,78751
"4700 W Guadalupe St #12, Austin, TX 78751, USA",84bebc4a656483a66c1dc7edae693c71b88b77b7,30.315953,-97.733542,Mandola's Italian,2.0,4.3,78751
"4631 Airport Blvd Ste 130, Austin, TX 78751, USA",618bd520c1929c96f8aac111d2f37bb16b23a29e,30.3066098,-97.7150913,Domino's Pizza,1.0,3.6,78751
"5610 N Lamar Blvd, Austin, TX 78751, USA",d17ca20180863ef343abae181cbe3a4e4929c912,30.3251523,-97.72740639999999,El Caribe Mexican Restaurant,2.0,4.0,78751
"1000 E 41st St #940, Austin, TX 78751, USA",37356ccd5d2b42958ef695e805b71ed10f7ed973,30.30114979999999,-97.72129389999999,Jason's Deli,2.0,4.0,78751
"4600 West Guadalupe Street, Suite B5, Austin, TX 78751, United States",6c1b4cadd063127270b8049a47237aba63ff8b76,30.3148301,-97.7331076,Maudie's Triangle,0.0,3.9,78751
"4616 Triangle Ave, Austin, TX 78751, USA",15eaaf99beff5f23838ee5b8a0e24354443fb158,30.315293,-97.73393809999999,Galaxy Cafe,2.0,4.2,78751
"408 E 43rd St C, Austin, TX 78751, USA",6d21b2735b1477ed83aa6d151362ea81663b021e,30.3048805,-97.72617799999999,ASTI Trattoria,2.0,4.1,78751
"5607 N Lamar Blvd, Austin, TX 78751, USA",642d8ebcbc28735dbdfbddbf30b6a32a65e37509,30.3245686,-97.7267071,KFC,1.0,3.3,78751
"4631 Airport Blvd #131a, Austin, TX 78751, USA",978b2c930ff5774f8e2905a433d598ef2ff533a2,30.306682,-97.71548,The Omelettry,2.0,4.2,78751
"4515 Airport Blvd, Austin, TX 78751, USA",925f2f47f55cacdd404fd8cdd1f17121b585a69a,30.304276,-97.715448,In-N-Out Burger,1.0,4.2,78751
"5602 N Lamar Blvd, Austin, TX 78751, USA",e1387f2e6aee704a6d025e08daf567a115d1702f,30.3249269,-97.7273972,Dan's Hamburgers,1.0,4.5,78751
"5900 N Lamar Blvd, Austin, TX 78751, USA",ff0b4893fe0e2df3582e1779edd753133c0b26e1,30.328219,-97.7250803,P. Terry's Burger Stand,0.0,4.4,78751
"1000 E 41st St Unit K, Austin, TX 78751, USA",e9a63fa8fcbfa8d9cee6e08457d2401b99a277e3,30.2990732,-97.7201499,Jack In The Box,1.0,2.8,78751
"4206 Duval St, Austin, TX 78751, USA",3cc4658d8ffe74b4a0a248b093638a76562af64f,30.3042035,-97.72666629999999,Hyde Park Bar & Grill,0.0,4.2,78751
"4631 Airport Blvd #130, Austin, TX 78751, USA",a51625e3ee27128c6ffd0ed96861490878f49861,30.3066565,-97.715215,Soup Peddler Real Food & Juice Bar,1.0,4.7,78751
"4215 Duval St, Austin, TX 78751, USA",26cb4bef79175e236fbdcec2f2f3670955cdef2f,30.30433,-97.725968,Mother's Cafe,2.0,4.4,78751
"5301 Airport Blvd #100, Austin, TX 78751, USA",d5335c668ab25107ae6d2137c1ac621bbecd4fe3,30.314087,-97.714468,Komé,3.0,4.6,78751
"5621 Airport Blvd, Austin, TX 78751, USA",856ee9c822a5cf411421edc5ba3609c526574580,30.318313,-97.712265,Quality Seafood Market,2.0,4.3,78751
"4700 W Guadalupe St #9, Austin, TX 78751, USA",624cb69dc62898d583f6397e211e36d79c50f603,30.3157174,-97.7334996,MezzeMe Mediterranean Kitchen,1.0,4.7,78751
"4230 Duval St, Austin, TX 78751, USA",25ccd8234ca6166c1b25672b3e28ea841d2a5c36,30.3045299,-97.7263704,Julio's Cafe,2.0,4.3,78751
"1000 E 41st St Ste. 260, Austin, TX 78751, USA",f40ecc5340d7c8dd1a27dc6d164905f24856c661,30.299576,-97.72131700000001,Freebirds World Burrito,2.0,4.1,78751
"5242 N Lamar Blvd, Austin, TX 78751, USA",443f7b9cff46eaaf489c57e6646bc0e6fb6c5327,30.32105859999999,-97.72986879999999,Taco Cabana,1.0,3.7,78751
"4615 N Lamar Blvd #307, Austin, TX 78751, USA",82ddc92176dd6c9beb6742692cc8ea6cec5bf970,30.3150704,-97.7344067,Hopdoddy Burger Bar,2.0,4.5,78751
"201 E 53rd St, Austin, TX 78751, USA",091be443d9f93d5f322e19cff3018f3785a2baf5,30.3174479,-97.7210457,Van’s Banh Mi,0.0,4.9,78751
"306 E 53rd St, Austin, TX 78751, USA",5dae93aab51d9cd8ea5f7d2cf8eac620665f2ef4,30.3170749,-97.71954099999999,Foreign & Domestic,2.0,4.1,78751
"9710 N Lamar Blvd, Austin, TX 78753, USA",aa02bc0fc1de3a33f9c1d2464764d48ca3ec4407,30.3674741,-97.6952714,Thomas Buffet,2.0,3.6,78753
"5800 Burnet Rd, Austin, TX 78756, USA",0b7075f4bf826f3506e85d9c6e9fc5dec806b781,30.3335111,-97.7409048,Sap's Fine Thai Cuisine,2.0,4.4,78756
"3800 N Lamar Blvd #120, Austin, TX 78756, USA",2f5ad79ce96295efa31195f59fd5b7132f9da741,30.3056191,-97.7433834,Snooze an A.M. Eatery,2.0,4.5,78756
"4420 N Lamar Blvd, Austin, TX 78756, USA",a83a7405f0b79cc47aa420b49a98c7f65ee0c22b,30.3133207,-97.7383558,Chili's Grill & Bar,1.0,3.9,78756
"4729 Burnet Rd, Austin, TX 78756, USA",d5279dff456f07881254b98c838f8c5416ad00be,30.3187536,-97.7390544,Pinthouse Pizza,0.0,4.7,78756
"5408 Burnet Rd, Austin, TX 78756, USA",6517228e326cc10d97a434c2782835a7232dbf4c,30.32870419999999,-97.7401802,Lucy's Fried Chicken,1.0,4.2,78756
"5343 Burnet Rd, Austin, TX 78756, USA",4d29c771abb150d5ca2871c45dbc1bdfece3ab12,30.3274303,-97.73942740000001,Papa John's Pizza,2.0,3.8,78756
"4400 N Lamar Blvd #102, Austin, TX 78756, USA",4708856e7d3c2ef92990cda6d5189f5d425e45e7,30.3125993,-97.7386983,The Steeping Room,1.0,4.6,78756
"4002 N Lamar Blvd, Austin, TX 78756, USA",6e3215fd77d45e486af0b0f7d24ad90fa0fdb9c9,30.3082222,-97.7415773,Taco Shack,1.0,3.8,78756
"2320 Hancock Dr, Austin, TX 78756, USA",56dbae598b9957445f45639f6f38452e427f5260,30.3248643,-97.74326470000001,Poke-Poke,1.0,4.6,78756
"4412 Medical Pkwy, Austin, TX 78756, USA",7e522b4d252ea90c148124cd9134fddbac79c441,30.3145249,-97.74203519999999,Taco Shack,1.0,3.8,78756
"4200 N Lamar Blvd, Austin, TX 78756, USA",fed87216a48761907c02d0d88ac9d78924ea267c,30.310528,-97.740117,Tacodeli,1.0,4.6,78756
"5222 Burnet Rd, Austin, TX 78756, USA",b1c7cb728a1f49ca1d23eb2f073c1ea42c1933d4,30.324598,-97.7402194,Chi'Lantro,1.0,4.4,78756
"5011 Burnet Rd, Austin, TX 78756, USA",a05729ae468c39be8d5a145c39cd5a6e89274bb5,30.3216582,-97.7389801,Citizen Eatery,1.0,4.4,78756
"5520 Burnet Rd #100, Austin, TX 78756, USA",22bdbfb2327e1d40b27409d51d29734eb032ddac,30.330704,-97.74027,The Peached Tortilla,2.0,4.5,78756
"4636 Burnet Rd, Austin, TX 78756, USA",474e4a9a83c12e8583d29e7242f03fdd08ae43a0,30.31789199999999,-97.74029900000001,Maru Japanese Restaurant,2.0,4.5,78756
"4800 Burnet Rd, Austin, TX 78756, USA",0ea0e05788c7c5d2d9f3c356829229029b622de3,30.3182858,-97.73996199999999,Gusto,2.0,4.2,78756
"4516 Burnet Rd, Austin, TX 78756, USA",d936078430bce3ac738a594672807882c4affff9,30.3160709,-97.7414323,La Cocina de Consuelo,2.0,4.4,78756
"5222 Burnet Rd #500, Austin, TX 78756, USA",aede5538f77884367e476806af9f490797768d7e,30.3245602,-97.7401488,Sarah's Mediterranean,1.0,4.5,78756
"4200 N Lamar Blvd, Austin, TX 78756, USA",8e53946a2105f3076d4084df49521dce28d3e215,30.3108262,-97.7399628,Uchiko,3.0,4.7,78756
"5000 Burnet Rd, Austin, TX 78756, USA",212bf93b4c88cef23b2f461cb71c2d77d84f020a,30.3211689,-97.73950549999999,The Big Kahuna,1.0,4.8,78756
"4800 Burnet Rd C300, Austin, TX 78756, USA",f6581d5233965ea18e53b33883d551dff96cdcfa,30.3186208,-97.7397818,Blue Star,2.0,4.0,78756
"2203 Hancock Dr, Austin, TX 78756, USA",d52d0204f0db08e8753ef420ad3e6e9d750faaf1,30.32249,-97.74085099999999,La Mancha,0.0,4.2,78756
"2307 Hancock Dr, Austin, TX 78756, USA",da676b2216c6e1d0cbe7477520bec371c94d9137,30.3245151,-97.74367559999999,epicerie,2.0,4.4,78756
"2330 W N Loop Blvd, Austin, TX 78756, USA",93d5854ff5c1b3793361185f80e49d8f56cfaade,30.3255617,-97.7433643,Fonda San Miguel,3.0,4.4,78756
"4400 N Lamar Blvd, Austin, TX 78756, USA",a5d70276f3b9c04c3d48d4c622a76d83fa0496b9,30.312549,-97.73853799999999,Get Sum,0.0,3.7,78756
"4400 N Lamar Blvd, Austin, TX 78756, USA",286b502fc103cdef82986a24cfc397eeba28c06a,30.3126014,-97.7385913,Panda Express,1.0,2.5,78756
"7329 Burnet Rd, Austin, TX 78757, USA",9ff268c505061f2fddb01402aafbae6e346a0593,30.349197,-97.73463199999999,Pizza Land,2.0,2.0,78757
"911 W Anderson Ln, Austin, TX 78757, USA",65eff5145ba76d3aca8117d40523c1447afa10bd,30.348159,-97.714844,Misung 888,0.0,3.9,78757
"2700 W Anderson Ln, Austin, TX 78757, USA",534fb1b1da982898ad19785125c16cf246cf14a7,30.3585281,-97.7345295,Shabu,0.0,4.3,78757
"3401 Esperanza Crossing #106, Austin, TX 78758, USA",ab3670e3f61d529386bd613a0201c58ecc2cb93b,30.40043,-97.72726499999999,Xian Noodles,0.0,4.7,78758
"9828 Great Hills Trail #100, Austin, TX 78759, USA",a26e1820bc719f9ba615da74e31ac240db46707c,30.395256,-97.749377,Fire Bowl Cafe,2.0,3.9,78759
"10515 N. Mopac Espressway A-155, Austin, TX 78759, USA",1786a6a2102ed7b58660d60bcb38d6fb3176b41a,30.3889124,-97.73278739999999,Masala Wok,2.0,4.0,78759
"922 Congress Ave, Austin, TX 78701, USA",03d4a7de4587a7dea4594208f1d8973759484f7e,30.2717264,-97.7417699,Quiznos,1.0,3.7,78701
