Address,ID(Google),Latitude,Longitude,Name,Price_Level(Google),Rating(Google),Zip
"4607, 919 W Hildebrand Ave, San Antonio, TX 78201, United States",7b32fdb0b80aca606c86c19da42e7ec0e9c2c1d0,29.4666634,-98.5086321,Rolando's Super Tacos,1.0,4.1,78201
"4263 NW Loop 410 #100, San Antonio, TX 78229, USA",e21d1b869b78e043ce915f0fa78f16d1fae09788,29.49022919999999,-98.56790629999999,Wapo Taco,0.0,4.4,78229
"6307 San Pedro Ave, San Antonio, TX 78216, USA",6eeb4b16f3d8de5175f3708c249f9e78889df670,29.4946286,-98.4995308,Taco House,0.0,4.4,78216
"145 E Hildebrand Ave, San Antonio, TX 78212, USA",b99fd09c569da004df1af5f5e42ebca42348bdf1,29.4666521,-98.49226259999999,Taco Taco Cafe,1.0,3.2,78212
"203 S General McMullen Dr, San Antonio, TX 78237, USA",67efb77558e4240019d4c0812f0992cecf5e8ef1,29.4290106,-98.55463750000001,Mexico Taco Mexican Restaurant,0.0,4.4,78237
"9502 I-10, San Antonio, TX 78230, USA",cf5cec74a5049c7530cbf42951f4cb863ceafda6,29.528356,-98.560514,Taco Tote San Antonio,2.0,4.0,78230
"1032 S Presa St, San Antonio, TX 78210, USA",225934a7e371028b9dc2b9618a0f3f661658c708,29.409972,-98.486688,Taco Haven,1.0,3.7,78210
"1816 Thompson Pl, San Antonio, TX 78226, United States",30f2337159bd7539d4e7e693f4017656d134ae0f,29.3964803,-98.5592891,Fajita Taco Place,0.0,4.1,78226
"4205 Fredericksburg Rd, San Antonio, TX 78201, USA",bd85b0d634ae3ef216f0d6a0d240b4b7712734cc,29.48585049999999,-98.5478045,Taco Cabana,1.0,3.8,78201
"999 E Basse Rd #183, San Antonio, TX 78209, USA",7029e07c21f42a9d73d9676a6fa411c7321ae630,29.4975892,-98.47054,Torchy's Tacos,1.0,4.4,78209
"3310 San Pedro Ave, San Antonio, TX 78212, USA",50758bd1b3b9e0c507846647c34e7cf0cbd4a16d,29.4661798,-98.499112,Taco Cabana,1.0,3.5,78212
"6030 Bandera Rd, San Antonio, TX 78238, USA",5b2d7540b80d476db6c3ae3a7830bc55d143f8ab,29.4835269,-98.6046539,Henry's Puffy Tacos,0.0,4.2,78238
"8315 McCullough Ave, San Antonio, TX 78216, USA",d012ae6428da926513f2d12e6e2feb9ba0889dee,29.5145016,-98.4921573,Fajita Taco Place,0.0,4.4,78216
"4503 De Zavala Rd, San Antonio, TX 78249, USA",9e6d8e71f84e6a77815fd328542e23df639c93e4,29.5708514,-98.57482639999999,Fajita Taco Place,0.0,4.0,78249
"2818 West Ave, San Antonio, TX 78201, USA",167bf7373346d3395232a43081f3cc7b2ad6c6a4,29.4863681,-98.52564199999999,Taquitos West Avenue,0.0,4.5,78201
"12820 Jones Maltsberger Rd, San Antonio, TX 78247, USA",2baeef7d9b8987fd7add34d037d1c30d917cdfe3,29.5579332,-98.4620094,Pepe's Tacos N Salsa,0.0,4.4,78247
"19202 Stone Oak Pkwy #103, San Antonio, TX 78258, USA",db65471bd96d495d03015bcf697496e3ebf70ae2,29.62747689999999,-98.494458,L Taco Stone Oak,0.0,3.9,78258
"12715 Nacogdoches Rd, San Antonio, TX 78217, USA",566d18c9c6f76e385493a39132357fd62fe2f438,29.5560042,-98.4008704,Erick's Tacos,2.0,4.3,78217
"615 San Pedro Ave, San Antonio, TX 78212, USA",c53f9f7a58e496fe533ed183a262454289954dfd,29.4394453,-98.49879999999999,Taco Bell,1.0,4.1,78212
"3202 W Woodlawn Ave, San Antonio, TX 78228, USA",2a3c080af49fca1354a083a4a5c852e23bc7a401,29.4566763,-98.5563153,Henry's Puffy Tacos Express,0.0,4.3,78228
"402 W Cevallos St, San Antonio, TX 78204, USA",925b12e74b5c2dcfcea5c102e5aabead42c8dc82,29.4106115,-98.50587069999999,Eddie's Taco House,0.0,4.3,78204
"1510 McCullough Ave, San Antonio, TX 78212, USA",5426d751fd554b1265b59a0abc1a8bedc97b68f6,29.4431516,-98.4916619,Little Taco Factory,2.0,4.4,78212
"606 West Ave, San Antonio, TX 78201, USA",ad221873d25b80db38eaf78db8314b1d96325fde,29.468196,-98.5257465,Jacala Mexican Restaurant,2.0,4.0,78201
"1002 NE Interstate 410 Loop, San Antonio, TX 78209, USA",7be9b7fc507db50d540469479905bd0102c2169c,29.51557,-98.45934400000002,Taco Palenque Loop 410,2.0,4.2,78209
"226 W Bitters Rd #118, San Antonio, TX 78216, USA",110b3e432fc8516c87736fffad227835233118b9,29.565941,-98.48627599999999,Los Balito's Taco Shop,1.0,4.2,78216
"4223 Blanco Rd, San Antonio, TX 78212, USA",af350d09030d04538e193e2c21b74d7c99a551cd,29.4858652,-98.5082371,Los Barrios Mexican Restaurant,2.0,4.2,78212
"1808 West Ave, San Antonio, TX 78201, USA",a13245dc6f7ba530e5d60839e8f2d47d9bc504ff,29.4780712,-98.5258357,Sukie's Taco House,0.0,4.5,78201
"San Antonio, TX 78201, USA",0ecc7d9342c7c5a81afccb7c6e227afce3e9c1d6,29.4456841,-98.5335667,Mario's Tacos,0.0,4.6,78201
"3534 Fredericksburg Rd #31, San Antonio, TX 78201, USA",0aed30e8ebe0223d926d05c0517df05c18b4a39b,29.4771393,-98.53817269999999,Gloria's Taco House,0.0,4.2,78201
"1503 Nogalitos St, San Antonio, TX 78204, USA",34e66b664fe27da4c59de5717131ecd8f35a3070,29.3992166,-98.5132536,Tony's Tacos To Go,0.0,4.3,78204
"3755 Thousand Oaks, San Antonio, TX 78247, USA",f7ebe4a2c69a29bc3b1e9386bd81e0705e8be321,29.5627463,-98.4229514,Eddie's Taco House,2.0,4.1,78247
"5123 North Loop 1604 W, San Antonio, TX 78249, USA",c5c5a8ffd37ad2ba51971bb460d22f9e7f67c32a,29.59298,-98.586434,Tacos n’ Salsa Mexican Cafe,0.0,4.6,78249
"1322 Culebra Rd, San Antonio, TX 78201, USA",7fb94d049a55cfe1d158a22b6047996942dac6ef,29.4453951,-98.53068119999999,Tacos El Mexicano,0.0,4.6,78201
"2627 NW Loop 410, San Antonio, TX 78230, USA",b34051ce078495961839ac237d522bf4828bc06d,29.5121649,-98.5359907,Taco Cabana,1.0,3.6,78230
"705 Barrett Pl, San Antonio, TX 78225, USA",5761a15440bee8e0d95ceeabd02f3ee9df7c99f6,29.395135,-98.5316048,Oscar's Taco House,0.0,4.2,78225
"502 Brooklyn Ave, San Antonio, TX 78215, USA",8895fa2cedcc37555a23e6270fec5a491e988ab8,29.4328294,-98.4843494,Pete's Tako House,2.0,4.5,78215
"4723 W Commerce St, San Antonio, TX 78237, USA",f888219a205899f454f6edbdc86571756e461823,29.431256,-98.5561309,Taco Cabana,1.0,2.6,78237
"93 Shasta Ave, San Antonio, TX 78221, USA",c5e9c2f06e29d045bc9c86a65ea56aeab9be584a,29.355202,-98.50304,Rolando's Super Taco,1.0,4.5,78221
"7009 San Pedro Ave, San Antonio, TX 78216, USA",2025840896129747c96823b1999a1dd5b5b3f1ba,29.5084406,-98.49969349999999,Taco Bell,1.0,3.7,78216
"2908 Broadway St, San Antonio, TX 78209, USA",d1df73eb7acd59257771e754686a0bca9c944e37,29.4537163,-98.4716672,Taco Cabana,1.0,3.6,78209
"1805 N Pine St, San Antonio, TX 78208, USA",d4e87e7a1dc637509064a21bbe1f238d64939334,29.441671,-98.4703502,Taco La Gardenia,0.0,4.4,78208
"842 Fredericksburg Rd, San Antonio, TX 78201, USA",46fdc7f66ae3145e5b1a51e8c25c92087b7aec63,29.4517268,-98.51331669999999,Garcia's Mexican Food To Go,2.0,4.6,78201
"923 Bandera Rd, San Antonio, TX 78228, USA",73faa305d3f78a838b2085d74a4c24cb44657530,29.4574653,-98.55574519999999,Taco Bell,1.0,3.9,78228
"18360 Blanco Rd #116, San Antonio, TX 78258, USA",1eb8deeb33b3c2642fe250753ecbb3fbe9dcb5bd,29.6107769,-98.50675989999999,Que Taco,1.0,3.5,78258
"8054 Midcrown Dr, San Antonio, TX 78218, USA",71bfc850052a10827a683979e67c40778bb0bfe8,29.5093889,-98.3800667,Cristan's Tacos,0.0,4.7,78218
"7215, 6624 San Pedro Ave, San Antonio, TX 78216, United States",cabe190d911e24b63674af9e76cce479fa0b2a41,29.4994313,-98.4986665,Taco Riendo,0.0,4.1,78216
"2422 S Hackberry St, San Antonio, TX 78210, USA",4bf38d23bb50b70d7aff3eff6c7e22147b3b360a,29.3922846,-98.47314519999999,Patty's Taco House,2.0,4.3,78210
"7339 San Pedro Ave, San Antonio, TX 78216, USA",ed7c986db37f8061711ca064c8b01f6a6afe52e9,29.5165783,-98.4996218,Taco Cabana,1.0,3.8,78216
"8516 Fredericksburg Rd, San Antonio, TX 78229, USA",307729cb848dbca2dcae4a1373c09528a783acd6,29.5197608,-98.5727335,Taco Cabana,1.0,3.6,78229
"4706 Seguin Rd, San Antonio, TX 78219, USA",271e00d28e1a05cb7c078cbaf1f90e9c24d11bef,29.4626001,-98.39914879999999,Little Taco Factory,0.0,4.1,78219
"2204 S WW White Rd, San Antonio, TX 78222, USA",8851d92177d3f5b6cc232dbb3d46681cb5c10ab0,29.39144899999999,-98.404038,Teodora's Mini Taco,0.0,4.4,78222
"6446 NW Loop 410, San Antonio, TX 78238, USA",13e326bc5ef895eff04c669d067fcc4b8cbcfc21,29.467777,-98.61615499999999,Los Balito's Taco Shop,1.0,4.0,78238
"1516, 14530 Roadrunner Way, San Antonio, TX 78249, United States",d40945825d776e0e9df0cdbab110e56d0374152a,29.5758832,-98.62471500000001,Chela's Tacos,0.0,4.0,78249
"5418 W Military Dr, San Antonio, TX 78242, USA",8cbf8b09cf93e2bed181309557c0e65ff1c2956a,29.374586,-98.610404,Yorky's Taco House,0.0,4.4,78242
"1721 Nogalitos St, San Antonio, TX 78225, USA",c7202a11812eb6dde513f34a8fd4a76ac237acd0,29.3970795,-98.5152964,Rosa's Tacos To Go,0.0,4.1,78225
"3111 TPC Pkwy #101, San Antonio, TX 78259, USA",adf8d14a08b1ec8178a6068a9c862d681376b43f,29.66097019999999,-98.43757459999999,Los Balito's Taco Shop,0.0,3.8,78259
"1302 Cupples Rd, San Antonio, TX 78226, USA",62aa3b536149dcd1987a0bf61e49c39fbba41867,29.3950046,-98.5492816,Rocky's Taco House,2.0,3.6,78226
"246 W Old US Hwy 90, San Antonio, TX 78237, USA",0b08d2e33632aa4f55e5c4b957452081ea063072,29.4299464,-98.5645261,Roy's Taco Hut,0.0,4.3,78237
"1901 Cincinnati Ave, San Antonio, TX 78228, USA",8bb75f9de914130f0f2f98afd6a59bdfe072bef8,29.4511331,-98.5398716,Mimi's Barbacoa Tacos Tamales Y Mas,0.0,3.9,78228
"920 SE Military Dr, San Antonio, TX 78214, USA",45f30d7f3026365c5e38dc741b4cfb362e85f65e,29.3563669,-98.48555119999999,Taco Cabana,1.0,3.0,78214
"722 Seguin St, San Antonio, TX 78208, USA",29223a8aff94109ab31d0f87edfe544afc1130d9,29.4380464,-98.4517826,Taco Bell,1.0,4.0,78208
"375 Hawthorne St, San Antonio, TX 78214, USA",2dbc2111ae6687a1774e72dc1105089e7495f023,29.385156,-98.511788,Brothers Taco House,0.0,4.3,78214
"2347 E Southcross, San Antonio, TX 78223, USA",df2c4ae060b96bb9e89cc23e5ab35adb4ae1fd62,29.3756636,-98.45716259999999,Taco Cabana,1.0,3.6,78223
"4622 Rittiman Rd, San Antonio, TX 78218, USA",c7d942b53f860a0c3059bbf102f806d944acd253,29.4837657,-98.40062549999999,Taco Cabana,1.0,3.3,78218
"3601 N PanAm Expy, San Antonio, TX 78219, USA",df134ac6da72bc24f1c263591484212170501b20,29.4480929,-98.4282758,Lil' Jonnys Taco House,0.0,4.1,78219
"6867 W US Hwy 90, San Antonio, TX 78227, USA",9cf804f681be576c2f047ef03b2f3a61711b7d97,29.4033394,-98.6281166,Taco Cabana,1.0,3.6,78227
"5630 W Loop 1604 N #116, San Antonio, TX 78251, USA",469b4ab7cf805e28e54129d84f443f312505fd9e,29.488486,-98.70596530000002,Los Balito's Taco Shop,0.0,4.4,78251
"849 E Commerce St, San Antonio, TX 78205, USA",b7e9f5a11889cf6dbf308b0ae20c51ea293ddc1d,29.4237577,-98.4844177,Taco Bell,1.0,3.3,78205
"1255 NE Interstate 410 Loop, San Antonio, TX 78209, USA",79d29f82bded6afc34ec2b8a41c2b27fa289e7f6,29.5167863,-98.4493407,Taco Cabana,1.0,3.8,78209
"8105 Fourwinds Dr, San Antonio, TX 78239, USA",41096bc07bcb6cc06162e90f0619712f26de6105,29.510924,-98.3954509,Taco Cabana,1.0,3.7,78239
"20323 Huebner Rd #111, San Antonio, TX 78258, USA",95d69c39453c110994737622436ce836d0955da0,29.6277951,-98.4934133,Guero's Taco Diner,0.0,4.6,78258
"2218 Broadway St, San Antonio, TX 78215, USA",d356150b475fdde134ad0c920aab2935e6930c50,29.446787,-98.475145,Carmelitas Mexican Restaurant,0.0,3.8,78215
"12311 Nacogdoches Rd #104, San Antonio, TX 78217, USA",f1acceb74c1d644a8f11a607652892e1a0ec8cc0,29.5528309,-98.40530539999999,L Taco Nacogdoches Rd.,0.0,4.0,78217
"11707 TX-1604 Loop, San Antonio, TX 78254, USA",eab690e71152b40a38cfe2889e5b162508365b41,29.5528788,-98.66945779999999,Taco Cabana,1.0,3.4,78254
"5211 De Zavala Rd, San Antonio, TX 78249, USA",6b0dda1a626bcbe65b2f9c4b85bcaa24ea9f0542,29.5646761,-98.5878177,Taco Bell,1.0,2.2,78249
"1439 Roosevelt Ave, San Antonio, TX 78210, USA",928da9481cd7b45c7c71ac63c1a2dfc9be521be2,29.389128,-98.4863128,Benny's Tacos,0.0,4.2,78210
"1502 E Commerce St, San Antonio, TX 78205, USA",1a15fdb45347b09c9ff4d89b26ba041e97d61072,29.420245,-98.473092,Amaya's Cocina,0.0,4.7,78205
"543 W Malone Ave, San Antonio, TX 78214, USA",55f26e49845326283f1f6d3d4c9bd64b007e522b,29.3876907,-98.5112601,Taco Cabana,1.0,3.6,78214
"1938 Dollarhide Ave, San Antonio, TX 78223, USA",a7be3882717c0148b754a587567b10658a46bc14,29.3677757,-98.43818689999999,Rocky's Taco House,2.0,3.7,78223
"2110 Goliad Rd, San Antonio, TX 78223, USA",26f71a1422382f5eec8586727aa656a26d320f57,29.3646137,-98.4398234,Taco Bell,1.0,2.6,78223
"5115 Rigsby Ave, San Antonio, TX 78222, USA",e8fd073be235f347a70b8ffe84bc81706e6e64f8,29.3986644,-98.39096289999999,Taco Cabana,1.0,3.4,78222
"5315 Rigsby Ave, San Antonio, TX 78222, USA",1b05daf184af9d2eebf6924f697a982bef3c1c8a,29.3988051,-98.3862939,Taco Bell,1.0,2.9,78222
"955 S Alamo St, San Antonio, TX 78205, USA",15e49b24be5b0dcb5ae590ba3a008cdcb784344b,29.4141415,-98.4909832,Tito's Mexican Restaurant,1.0,4.1,78205
"414 SW Military Dr, San Antonio, TX 78221, USA",650fce4c3be3fee07479387bab907ef40ec3ff23,29.3562769,-98.4978845,Taco Bell,1.0,4.2,78221
"1770 S General McMullen Dr, San Antonio, TX 78237, USA",0c94ef2df309b258099ed8d18deaecf695f00d04,29.399179,-98.55730349999999,Taco Bell,1.0,3.9,78237
"3006 SW Military Dr, San Antonio, TX 78224, USA",8c60202362cd54ed182699846ecd3fef09a92ac7,29.3566898,-98.54668960000001,Taco Bell,1.0,4.1,78224
"4714 Rittiman Rd, San Antonio, TX 78218, USA",c34a024f8c152f2d26d611bdd2eda1be965568e3,29.483677,-98.3993847,Taco Bell,1.0,3.8,78218
"9300 Wurzbach Rd, San Antonio, TX 78240, USA",c76d48bc128afd4cf1781e96223589fd70ac9073,29.5284793,-98.56439139999999,Taco Bell,1.0,3.5,78240
"905 Dolorosa, San Antonio, TX 78207, USA",243a2470e07f912df0492715022afe3664359d27,29.4246627,-98.4993879,Viva Villa Taqueria,1.0,4.1,78207
"12050 Blanco Rd, San Antonio, TX 78216, USA",eb1625c4e075cde3a0eb26d56f0609d11802ff72,29.55107,-98.511682,Taco Bell,1.0,2.9,78216
"6808 NW Loop 410, San Antonio, TX 78238, USA",7a3d6649b3cf3d0419ee1f5bf448de90de52bc8a,29.4618395,-98.6217704,Taco Bell,1.0,3.7,78238
"2501 Babcock Rd, San Antonio, TX 78229, USA",27a41c43b28b73556497bb715c603686f9648e22,29.5067318,-98.5862683,Taco Bell,1.0,3.3,78229
"1430 E César E. Chávez Blvd, San Antonio, TX 78210, USA",27380479857dbc73303c8de902a693266b7b6f89,29.4090234,-98.47346999999999,Taqueria Vallarta #2,0.0,4.1,78210
"8030 Culebra Rd, San Antonio, TX 78251, USA",3ddd6e8c4bb1737cb68604372c451028875479f2,29.4648769,-98.6457554,Taco Cabana,1.0,3.3,78251
"14076 Nacogdoches Rd, San Antonio, TX 78247, USA",d64ff4496eb01ca3d56191ddb645bdf8c07950d9,29.5694574,-98.38280309999999,Taco Bell,1.0,3.4,78247
"6815 Bandera Rd, San Antonio, TX 78238, USA",50cb3aa8f30ec25a32552b87b369c28632711891,29.4977159,-98.6210873,Taco Bell,1.0,3.6,78238
"8288 Marbach Rd, San Antonio, TX 78227, USA",aa5fde6ea487b171afead1c24250e94b37c5c934,29.4174467,-98.6537929,Taco Bell,1.0,3.9,78227
"319 Valley Hi Dr, San Antonio, TX 78227, USA",a79b14b4d9a77228e022b8daa6d3b93b3e69ec4b,29.3818797,-98.63922129999999,Taco Bell,1.0,3.9,78227
"5231 Broadway St #117, Alamo Heights, TX 78209, USA",36fbab5cbb6b4e87968029f80e8401bc2f5abb87,29.4758404,-98.4631924,Chela's Tacos Mexican Restaurant,0.0,4.5,78209
"2125 S Flores St, San Antonio, TX 78204, USA",87fa0623595b82424a9dc733adf6f61acf8bff70,29.4031765,-98.50353160000002,My Little Taco House,0.0,4.1,78204
"2600 S Flores St, San Antonio, TX 78204, USA",20f8d74f332ffbbb0e6aec870e9e7472b5e15858,29.3984283,-98.50429249999999,Taco House,0.0,0.0,78204
"1205 Nogalitos St, San Antonio, TX 78204, USA",4aa55cd0f60abaa961e82a7d7e3e1ddc74ed7941,29.4014668,-98.5112182,Tommy's Restaurant,2.0,4.2,78204
"1105 Nogalitos St, San Antonio, TX 78204, USA",bda1fe4421def70dbf68c9160c8cfc7f78f0bbf0,29.402266,-98.510358,Maria's Cafe,0.0,4.7,78204
"107 S Flores St, San Antonio, TX 78204, USA",97042250f180cc359e7285b6a2a75001958dc8d4,29.4236313,-98.4949395,Tommy's Restaurant,0.0,3.9,78204
"1312 S Laredo St, San Antonio, TX 78204, USA",56ce68e273d9f4d1afb5f4bbf84019ef8104a339,29.412281,-98.506051,Piedras Negras De Noche,2.0,4.2,78204
"8823 Wurzbach Rd, San Antonio, TX 78240, USA",58d1e51c6126848f9f9ab36249650534143b0a13,29.5250543,-98.5686156,Tommy's Restaurant,2.0,4.4,78240
"1422 Nogalitos St, San Antonio, TX 78204, USA",b880f5380402689a2c108719cea1d24a49a53029,29.3992021,-98.5125358,Viva Vegeria,1.0,4.5,78204
"13719 I-10, San Antonio, TX 78249, USA",c2df8004eea2fdca960c723668dac22a0fbb8085,29.5767156,-98.5939633,Taco Palenque UTSA,0.0,4.2,78249
"9735 N IH 35, Ste 2, San Antonio, TX 78233, United States",b45183ca20b9d2a80338e56ec5a98dcf363da5c0,29.5280264,-98.39348389999999,Saint City Tacos,0.0,3.9,78233
"910 S Alamo St, San Antonio, TX 78205, USA",fa522301a0eaa31b1186056d3d787f5936750ff9,29.4154031,-98.4895912,Rosario's,1.0,4.3,78205
"822 SW 19th St, San Antonio, TX 78207, USA",514d50000c9092f38b6d3c53997da4a07dfdec02,29.4208509,-98.5369527,Ray's Drive Inn,2.0,4.2,78207
"419 N St Mary's St, San Antonio, TX 78205, USA",bddb18acb9418e35d9f58def1f5fef0897a1f834,29.4280691,-98.4914402,The Original Blanco Cafe,1.0,4.3,78205
"528 River Walk St, San Antonio, TX 78205, USA",1c5a53a7001ba8c77ab35035d5428061d4ffb002,29.42424189999999,-98.4883842,The Original Mexican Restaurant,2.0,3.1,78205
"146 E Houston St, San Antonio, TX 78205, USA",2789f5d147839e937d2f78ef8abfda25ddf3622a,29.426328,-98.491845,Acenar Mexican Restaurant,2.0,4.1,78205
"130 Main Plaza, San Antonio, TX 78205, USA",c02020149bb1d91eace6cb72a2a0a93ebd0e50cc,29.4239975,-98.49311569999999,La Jalisco,0.0,4.2,78205
"245 E Commerce St, San Antonio, TX 78205, USA",12017f0a9a7d9183031789bf781b0f8125943c4f,29.4248376,-98.4900795,Rita's On the River,2.0,3.1,78205
"110 Soledad St, San Antonio, TX 78205, USA",841b9eb0cb703f39cee09320c4b51e1d12e127e8,29.425334,-98.492729,Mexican Manhattan,0.0,3.9,78205
"430 E Commerce St, San Antonio, TX 78205, USA",258aa47fcd85c619703b5a21b297fcbdcea809e7,29.42363,-98.48815700000002,Casa Rio,2.0,3.9,78205
"115 E Travis St #104, San Antonio, TX 78205, USA",0aff6b1c6bae8176e1ee087985010782b7c32494,29.4275906,-98.4931639,Lula's Mexican Cafe,2.0,4.8,78205
"1000 S St Mary's St, San Antonio, TX 78205, USA",93424bb9ed6e7853aa585db9061027477f409964,29.4145029,-98.48885279999999,Cascabel Mexican Patio,1.0,4.4,78205
"342 W Houston St, San Antonio, TX 78205, USA",75e7e8c70da30d29a941001a4d3d91d89879a3fc,29.4262915,-98.49717369999999,Cafe Alameda,0.0,4.3,78205
"849 E Commerce St, San Antonio, TX 78205, USA",feb8e54ef71f325986826ad238d53a57f0fd0ea0,29.4233841,-98.48407499999999,Maria Mia Mexican Bistro,0.0,3.2,78205
"301 S Alamo St, San Antonio, TX 78205, USA",981b4721d40a27622ae5de7f5015732e45d1c8b6,29.4216129,-98.488192,Guadalajara Grill,2.0,3.2,78205
"215 Losoya St, San Antonio, TX 78205, USA",11f96f63bb5c87ccb57d21b44e82d367064e6cc9,29.4247287,-98.4880944,La Paloma Riverwalk,2.0,2.3,78205
"849 E Commerce St, San Antonio, TX 78205, USA",8b736ea12672764a0ecf52b50ce04d8e864c12d9,29.42361859999999,-98.4849832,Margaritaville Restaurant San Antonio,0.0,3.4,78205
"3119 S Gevers St, San Antonio, TX 78210, USA",785eece42e8c58065c0f2449f0b457bba5d2f6ba,29.388338,-98.45704699999999,Taco Haven,1.0,4.2,78210
"175 E Houston St #115, San Antonio, TX 78205, USA",3011e77d51af39c0d683615d129b9a05ada5b33e,29.4265697,-98.4919441,Zocalo Mio,0.0,4.6,78205
"1001 NW Loop 410, San Antonio, TX 78213, USA",a9dba9b8493c8fd3fb9e5a450653b8c9c8c4c866,29.521116,-98.5070954,Guajillo's,1.0,4.2,78213
"inside Radius Building, 106 Auditorium Cir, San Antonio, TX 78205, United States",8b7a51f61a03a245aa3492bdc50e755fbf5dd5f0,29.42953199999999,-98.4880998,Pharm Table,2.0,4.5,78205
"8099 Culebra Rd, San Antonio, TX 78251, USA",9627dc2537529c95e02b2288e09616fee20d58a0,29.466555,-98.64636399999999,Taco Jalisco Authentic Mexican Restaurant Jalisco Style,1.0,3.9,78251
"115 S Main Plaza, San Antonio, TX 78205, USA",6ebca778ae77065f39daab2dff22a3255e56a9e4,29.4241963,-98.4942363,Poblanos On Main,0.0,4.4,78205
"1327 Austin Hwy, San Antonio, TX 78209, USA",2cecd2678e36f4f08272eae55017b04ebd9a4edf,29.4908394,-98.4409024,Taco Bell,1.0,3.9,78209
"1007 Rittiman Rd, San Antonio, TX 78218, USA",843e6adbd789079438e638332450014a4c86ac65,29.4853541,-98.4285689,Teka Molino,0.0,4.4,78218
"7231 San Pedro Ave, San Antonio, TX 78216, USA",abe29a64913ac12b43c47379b236aa6105c390d9,29.5146591,-98.4997217,Teka Molino,2.0,4.4,78216
"120 Produce Row, San Antonio, TX 78207, USA",1107ca0108b3d6e150dc04bd77b8ec0a5f4549f2,29.4249476,-98.49906949999999,La Margarita Mexican Restaurant & Oyster Bar,2.0,3.9,78207
"1603 W Commerce St #100, San Antonio, TX 78207, USA",318cf15e6d600a9878e5260141af93905b1fdf54,29.427098,-98.512389,Las Delicias Tacos #1,2.0,4.4,78207
"1927 W Martin St, San Antonio, TX 78207, USA",61711082aa8cc0a5df5178d49eddb190e7f66110,29.430899,-98.5127131,Speedy Tacos,0.0,4.5,78207
"1901 W Commerce St, San Antonio, TX 78207, USA",d3abc0ca9032488660c1eb145f9e770329139e1a,29.427321,-98.515716,Las Delicias Tacos #2,0.0,4.2,78207
"1502 N Zarzamora, San Antonio, TX 78207, USA",7b477a1bffa6193818d99d8ac0f4f31904b44db2,29.4430073,-98.5249764,Fajita Taco Place,0.0,0.0,78207
"502 S Zarzamora St, San Antonio, TX 78207, USA",39aed8b9e22155baa9a6ff05ff0e8b21463ca743,29.4237122,-98.52728289999999,Yatzil Mexican Restaurant,0.0,4.3,78207
"1705 S Zarzamora St, San Antonio, TX 78207, USA",e9fe84efb7732485c158f49d207c6766f9ef9c1a,29.408804,-98.52966909999999,Panchito's Restaurants,2.0,4.1,78207
"218 Produce Row, San Antonio, TX 78207, USA",778b0b53409214adc2a82dc12e148f0d3c51f021,29.4250579,-98.5001578,Mi Tierra Cafe y Panaderia,2.0,4.2,78207
"111 S Leona St, San Antonio, TX 78207, USA",3d6bc52ab556b53eb713081145563ea67c11e043,29.4254208,-98.5029273,Pico de Gallo,2.0,4.0,78207
"1325 S Zarzamora St, San Antonio, TX 78207, USA",eb5b66812de7becd1c50f55dc4b992e361cd0735,29.4415648,-98.52554459999999,Nick's Taco's And Catering,0.0,4.4,78207
"1424 Guadalupe St, San Antonio, TX 78207, USA",b320ffe8cc8a435d66b909996db124e02372469c,29.4184009,-98.51652,Linda's Mexican Restaurant,0.0,4.2,78207
"3831 W Commerce St, San Antonio, TX 78207, USA",5f4f10bc2ea53580c3aa284a40709c351e9adac3,29.429678,-98.54095,El Siete Mares Seafood Restaurant,1.0,4.1,78207
"2118 Interstate 35 Frontage Rd, San Antonio, TX 78208, USA",6dc3510cd25c237be0f344275527a118cb220eab,29.4376395,-98.4623445,Big Poppas Tacos,0.0,4.0,78208
"1808 N New Braunfels Ave, San Antonio, TX 78208, USA",14094c839dfa6ada5589bc3e2e31a36a7511db88,29.4406314,-98.46079909999999,Taqueria Chapala Jalisco,0.0,4.0,78208
"1253 Austin Hwy, San Antonio, TX 78209, USA",5ee19c9d269caba0c923b362455099cb639ef8d1,29.4893427,-98.4439392,Taco Cabana,1.0,4.1,78209
"1363 Austin Hwy, San Antonio, TX 78209, USA",53e5d0c298c7bbabc46a892ce776bfed932778a3,29.4912748,-98.4399763,Chapala Taco House,0.0,4.4,78209
"8403 Broadway St, San Antonio, TX 78209, USA",8677db4a7b5652afabfb0dc8c81d6c6633efd7f1,29.5152762,-98.46560009999999,Taco Garage,2.0,4.1,78209
"8234 Broadway St, San Antonio, TX 78209, USA",28e12a6bd2f11c99a9868c30eaac32e8dd77bdc6,29.5127291,-98.4658335,Taqueria Vallarta,0.0,4.2,78209
"5723 San Pedro Ave, San Antonio, TX 78212, USA",8705c6a2e73b5b64c69a49a700ef9161a5aa5120,29.4872,-98.49954629999999,El Taco Grill,0.0,4.2,78212
"303 Rilla Vista Dr, San Antonio, TX 78216, USA",73e01c1a6f044578437cc6510a34af9805604fdc,29.4972304,-98.4890628,L taco,0.0,1.5,78216
"521 E Woodlawn Ave, San Antonio, TX 78212, USA",444c882df6727d5cebd290fa94a5e18684bffeb0,29.452672,-98.485089,El Milagrito Cafe,2.0,4.4,78212
"2726 N St Mary's St, San Antonio, TX 78212, USA",09c308e0ff4cf0a4338739398563ec287ba53729,29.4509061,-98.48611149999999,Tacos El Regio,0.0,4.5,78212
"1624 S New Braunfels Ave, San Antonio, TX 78210, USA",8bc35ec1b31ecd637a6242b2f3893f66123349de,29.4031124,-98.4610558,El Gordo Tacos,0.0,4.3,78210
"1125 S Mittman St, San Antonio, TX 78210, USA",594518dc4aba7f33a7c502d5d7f0cf48313a3e28,29.408143,-98.45471309999999,Mittman Fine Foods,2.0,4.4,78210
"1506 S St Mary's St, San Antonio, TX 78210, USA",5ce5a40487df5425482ed23af01f92f3bcbea4c6,29.40676599999999,-98.486335,Las Tapatias De Jalisco,0.0,4.0,78210
"3610 S Presa St, San Antonio, TX 78210, USA",36a957c485d67903a2533c6730afc6c57b45c5d8,29.3879718,-98.4792688,Arturo's Cafe,0.0,4.6,78210
"7335 S Zarzamora St, San Antonio, TX 78224, USA",a8b4177079a9278da3a25405624bf46d445b0527,29.353744,-98.53459439999999,Mama Margie's Mexican Restaurant,1.0,4.0,78224
"1633 SW Military Dr, San Antonio, TX 78221, USA",114d1112a567b0852be18a4bc41d81d99b162fa4,29.35700289999999,-98.51931569999999,Taco Cabana,1.0,3.4,78221
"9719 Poteet Jourdanton Fwy Ste 104, San Antonio, TX 78211, USA",5ea9d1d5f715087abd4abe394cd44c01032c6589,29.3218249,-98.5534898,Taco Cabana,1.0,3.3,78211
"2501 Nogalitos St, San Antonio, TX 78225, USA",61d5e1d3a49a04ae7cb684ad572ef8fa24357bc2,29.390093,-98.520921,El Itacate Tacos,0.0,4.5,78225
"2423 Pleasanton Rd, San Antonio, TX 78221, USA",50ef646586ce16f89cc8957b6e9551b8182e061f,29.3547981,-98.5041291,Rocky's Taco House,2.0,3.6,78221
"2000 Cupples Rd, San Antonio, TX 78226, USA",c01f4aa4a45fb1ade1071182044d9412875f40f9,29.388084,-98.55006499999999,SA Taco Express,0.0,5.0,78226
"1759 Palo Alto Rd, San Antonio, TX 78211, USA",e99e1bc0a9abcacc0bd3fd95604c6a2cdd3d7625,29.33276279999999,-98.55260129999999,Taco Amanda's Mexican Restaurant,0.0,4.4,78211
"3211 Pleasanton Rd, San Antonio, TX 78221, USA",041bcd6b726a35ca5e7affa7a15cd9d4fc959401,29.3471787,-98.5041487,Rossy's Tacos,0.0,4.6,78221
"5034 W Commerce St, San Antonio, TX 78237, USA",628d578a4838a958b0bfafa92e0a199fffe8a6f9,29.4310755,-98.560169,Tacos Martinez,2.0,4.2,78237
"1821 Castroville Rd, San Antonio, TX 78237, USA",29c0ca01cb048d72639f9337a20563f36376dc07,29.41415199999999,-98.565688,Tacos El Rey,0.0,4.2,78237
"3407 Nogalitos St, San Antonio, TX 78225, USA",0c8f1588a54851fd2970955149dbca27295e8094,29.3822041,-98.5279102,Tila's Tacos & Tortas,0.0,4.4,78225
"4100 McCullough Ave, San Antonio, TX 78212, USA",2056ca8845871639842c21e5f4b29578f742880f,29.4683192,-98.4916252,Panchito's Restaurant,2.0,4.2,78212
"1706 McCullough Ave #2, San Antonio, TX 78212, USA",c4fa997dfd38253f57020e9f7a2d8a6c4741be73,29.4453255,-98.49161389999999,Regio Cafe,0.0,4.3,78212
"4814 West Ave, San Antonio, TX 78213, USA",1d1c6714579ba699d297b8d59507f50aec23f7c1,29.5095885,-98.5256143,Tacos Chago,0.0,4.7,78213
"7553 McCullough Ave, San Antonio, TX 78216, USA",1b10f59172fa8d58d0eb00fbcafa8de3530d3cb7,29.5039837,-98.4921131,El Taco Riendo,0.0,4.3,78216
"11423 West Ave, San Antonio, TX 78213, USA",064f9bba38cfc71453a12eecc88877a719e1c90e,29.5441953,-98.51151999999999,Ruthie's Mexican Restaurant,2.0,4.4,78213
"11825 West Ave #100, San Antonio, TX 78216, USA",181d527e971e91eb4a42d91473b59b03d61947c6,29.549373,-98.50616699999999,Taco Rey Taqueria,0.0,4.2,78216
"4407 Vance Jackson Rd, San Antonio, TX 78230, USA",80b2d649319704bb22ff85f77d7094a9373bf758,29.5153571,-98.5355386,El Taco De Jalisco,0.0,4.5,78230
"11701 Blanco Rd, San Antonio, TX 78216, USA",12bee00de536c70e1ddb5f9c0bb5dec7b5def484,29.546537,-98.5095472,Taco Cabana,1.0,3.3,78216
"10918 Wurzbach Rd # 134, San Antonio, TX 78230, USA",f52268ab30bbd50add0b489bc64cb110358255a5,29.5410032,-98.55154440000001,Mimi's Barbacoa Tacos Tamales,2.0,4.2,78230
"15104 San Pedro Ave, San Antonio, TX 78232, USA",eb67a427446032c001c2c0ec33519289bfe92e36,29.5791658,-98.47570270000001,Taco-Tex,0.0,4.4,78232
"1305 Pleasanton Rd, San Antonio, TX 78214, USA",d4309ab96ec20784be7370f5edc3dd8fd6c34223,29.3711807,-98.50446799999999,Claudia's Tacos Restaurant,0.0,4.5,78214
"100 E Grayson St, San Antonio, TX 78215, USA",6103202eec75d0cd41d283093f663fb55344a17e,29.4442691,-98.4811904,La Gloria,2.0,3.8,78215
"210 McCullough Ave, San Antonio, TX 78215, USA",522bda5a2e03b1a27d76874682af115230854dd3,29.4293561,-98.48371189999999,Oasis Mexican Cafe,0.0,4.1,78215
"1639 Broadway St, San Antonio, TX 78215, USA",60aa2192db93ef1ed01fb8e6fb9c5f640809f224,29.441634,-98.477773,Earl Abel's,2.0,3.5,78215
"312 Pearl Pkwy, San Antonio, TX 78215, USA",9aa54bb8db158af132921b3e3f5b486728b7ec47,29.443191,-98.480256,Nao,3.0,4.2,78215
"312 Pearl Pkwy, Bldg. 3, San Antonio, TX 78215, United States",7c3bf1540e2b87758be6ded51f1eb0bb0528a6d4,29.44267809999999,-98.4804973,Boiler House Texas Grill & Wine Garden,2.0,4.1,78215
"1605 N St Mary's St, San Antonio, TX 78215, USA",d53bb2593de65dee738c0a56c9ac107f3aeef82e,29.4391843,-98.4849397,El Nogal Mexican Restaurant,0.0,4.5,78215
"303 E Grayson St, San Antonio, TX 78215, USA",667e0327200050c91c61224081f5597149fd74ec,29.44412819999999,-98.47821630000001,Down On Grayson,2.0,4.2,78215
"521 E Grayson St, San Antonio, TX 78215, USA",a5a1bd513b63e379eb59a8b959f1218e624888f7,29.4434453,-98.47463379999999,Grayze,1.0,4.2,78215
"1915 Broadway St, San Antonio, TX 78215, USA",8cba17742780b4bb3c7ee783a32db73bbb9f4595,29.444352,-98.47658899999999,TNT / Tacos and Tequila,0.0,4.1,78215
"180 W Bitters Rd, San Antonio, TX 78216, USA",08bf654169687ed43cf6419b95e2c6584e05b82b,29.5660361,-98.4843509,Taco Cabana,1.0,3.6,78216
"15925 San Pedro Ave, San Antonio, TX 78232, USA",891e1a898fcfead55f782c823923b3afa218126c,29.5876759,-98.4752439,Taco Cabana,1.0,3.5,78232
"3003 Thousand Oaks, San Antonio, TX 78247, USA",07ee015fa6dad534cfc0a5387fb3b57c1059aab3,29.5760427,-98.43997019999999,Taco Cabana,1.0,3.6,78247
"12403 West Ave, San Antonio, TX 78216, USA",15705860261800c8f89671e5bc15b9820344d4aa,29.55337,-98.50223400000002,Tilo Mexican Restaurant,0.0,3.5,78216
"19231 Stone Oak Pkwy, San Antonio, TX 78258, USA",b112609e704e865f8e7baa0a8ae06b86e7b7a4d3,29.6281802,-98.49567549999999,Taco Cabana,1.0,3.5,78258
"741 Isom Rd, San Antonio, TX 78216, USA",2ac54ddcbb3f39d4b02214beb9ac2d610ad5b3fa,29.5313049,-98.4904803,My Little Taco House,0.0,4.1,78216
"2907 Thousand Oaks, San Antonio, TX 78247, USA",6802a1226dde2b8629cdf78e5a32f1783a9bf3db,29.5780866,-98.44100519999999,Taco Bell,1.0,3.2,78247
"13444 West Ave #100, San Antonio, TX 78216, USA",177e51835761e11c9330bc592af3becc1c2593dd,29.5651278,-98.4895147,Losoya's Mexican Restaurant,0.0,4.6,78216
"4963 Stahl Rd, San Antonio, TX 78217, USA",15b943dfb9da167befeafcfb4b3d83ebbd59e9e5,29.5794645,-98.39313489999999,Taco Express,0.0,4.5,78217
"12030 Perrin Beitel Rd, San Antonio, TX 78217, USA",56888a31b956eec2a3c80e08710457572fa1309a,29.5500278,-98.4072767,Taco Cabana,1.0,3.2,78217
"8727 Perrin Beitel Rd, San Antonio, TX 78217, USA",3923359957859e053d7afe85d7d87523d7253b5d,29.5191251,-98.41140039999999,Taco Bell,1.0,2.8,78217
"11722 N Interstate 35 Frontage Rd, San Antonio, TX 78233, USA",f78497820cb5c15b96543468f5214f1673d8d1ff,29.546195,-98.3663133,Taco Cabana,1.0,3.8,78233
"5050 Walzem Rd, San Antonio, TX 78218, USA",089e1d811c452609b1764e931c9063092431a540,29.5098416,-98.39152209999999,Benny's Tacos,1.0,4.1,78218
"11031 Wye St, San Antonio, TX 78217, USA",90b096caa4e11eae75a93f705a59ae7838edacd4,29.540594,-98.41381799999999,Mr. Meximum - it's more than just a taco,1.0,0.0,78217
"12734 Nacogdoches Rd, San Antonio, TX 78217, USA",f01769cbf9fce2c1e5ed475c5ad32437fe3fc196,29.5561123,-98.3993137,Taquitos Y Panaderia West Avenue,0.0,4.4,78217
"10929 Nacogdoches Rd, San Antonio, TX 78217, USA",6f3f7dd7509d409580539d84e30b24f889ff1ed6,29.5395657,-98.4228095,Fidelo's Mexican Restaurant,0.0,4.5,78217
"17822 Bulverde Rd, San Antonio, TX 78259, USA",49e54475e538049cec219880ccdf3cdf0e78944b,29.6033834,-98.4182524,Taco Bell,1.0,3.6,78259
"5929 Rittiman Rd, San Antonio, TX 78218, USA",1d388cb178c74a486c2e59282aec7e6914e8f666,29.4844378,-98.3725061,Salsa's Mexican Restaurant,2.0,4.1,78218
"4838 Rittiman Rd, San Antonio, TX 78218, USA",1bdd0e845c863243a296e288f88ff73124ea5620,29.4836933,-98.3966933,Taco Guadalajara Mexican Restaurant,0.0,4.0,78218
"6019 Rittiman Plaza, San Antonio, TX 78218, USA",567c41257e5f38950bc72d215861a8cce5c5a0c4,29.4833894,-98.4068861,DOS MEÑOS TACOS RESTAURANT AND MOLINO,0.0,5.0,78218
"5318 W Walzem Rd, San Antonio, TX 78218, USA",ada37c1c5129ca00bff1628d9e29d909e7816c61,29.5098422,-98.3869854,Taco Bell,1.0,3.9,78218
"6531 W Farm to Market Rd 78, San Antonio, TX 78244, USA",8201677d221996962836949e4d7edc0bb3f7c32d,29.4817483,-98.3595027,Taco Guadalajara Mexican Restaurant,0.0,3.9,78244
"927 Rittiman Rd, San Antonio, TX 78209, USA",485b4fdf4a47e0b5d4980230a152814970ac8183,29.484933,-98.430949,Taqueria Cazadores Mexican Food & Seafood,2.0,4.4,78209
"4455 Walzem Rd, San Antonio, TX 78218, USA",2dee39f0ec7da657188328b444c8efb4c3e26933,29.5106271,-98.4054924,El San Luis Mexican Restaurant,1.0,3.5,78218
"4802 Goldfield, San Antonio, TX 78218, USA",cd767b85fefa254ff6d0c84a64068eb053b7143c,29.4839798,-98.397409,Mi taco Guadalajara,0.0,5.0,78218
"5318, 78218, Windcrest Dr, TX 78239, United States",f80b9fd6242038564cf0abe8608684da19835e5e,29.5177283,-98.3899843,Taco Bell,0.0,1.0,78239
"225 S WW White Rd, San Antonio, TX 78219, USA",b5d5408985048d66eb0ef1ed3ee4e396f14cb73a,29.4265013,-98.4057567,El TACO SUAVE,0.0,5.0,78219
"6635 Seguin Rd, San Antonio, TX 78219, USA",426d8ae8890537676946523da4f0fc6454f1b168,29.4823839,-98.3579189,Taco Bell,1.0,3.5,78219
"4950 W Farm to Market Rd 78, San Antonio, TX 78219, USA",7b5bb9abaa39d6b9230be3976d35945bcc74f7bc,29.46588,-98.393993,Lupita's Mexican Cafe Bar & Grill,1.0,3.5,78219
"4403 E Houston St, San Antonio, TX 78220, USA",03a7249057d27e947be28dead959b83bccf5fc12,29.4247958,-98.40894499999999,Teran's Cafe (Mexican Food Specialists),0.0,4.4,78220
"166 S WW White Rd, San Antonio, TX 78219, USA",9ca8db133568d00d4e4dac4222f0a00d54bbb3a6,29.4289823,-98.4052069,Lazarita's Mexican Restaurant,0.0,4.3,78219
"301 N Ww White Rd, San Antonio, TX 78219, USA",889ee1181d44973c51174d7d40664125c8439fbc,29.4359297,-98.40594870000001,Frijoles Mexican Restaurant,0.0,4.0,78219
"1310 S WW White Rd, San Antonio, TX 78220, USA",8870c0c36ae9c8ed60ee906af355f02d55efeb30,29.409718,-98.405124,Las Carnitas Mexican Restaurant,0.0,4.2,78220
"536 S WW White Rd, San Antonio, TX 78220, USA",f3a116b85019e46de9c8974e565fd8173bdde7a7,29.42268,-98.4052205,Lydia's Mexican Restaurant,0.0,4.2,78220
"4038 E Houston St, San Antonio, TX 78220, USA",0a3ddf299e06a225445150a86c1f3f746ea68ca5,29.4241362,-98.41917079999999,Laredo Taco Company,0.0,3.8,78220
"7803 FM 1346, San Antonio, TX 78263, USA",1e4dbf5967472a031dea5ca854cd702f761633c1,29.419037,-98.33623,Henry's Mexican Restaurant,0.0,4.2,78263
"319 S. W. W. White Road, 4223, San Antonio, TX 78219, United States",7eeaa80d52807361d45d8c937cdf4084ed486649,29.4256961,-98.40605479999999,El Rodeo Mexican Grill #1 & #5,0.0,4.1,78219
"1555 S WW White Rd, San Antonio, TX 78220, USA",3e7c57cce2149ea16eba03be809b1410f7899c39,29.4053934,-98.4058759,Little Fish Factory,0.0,4.4,78220
"922 S WW White Rd, San Antonio, TX 78220, USA",d18db498c655432d2d63378bf4b7e59a6396a958,29.4160857,-98.40499919999999,Mi Hacienda La Cocina,0.0,3.5,78220
"3211 Pleasanton Rd, San Antonio, TX 78221, USA",59649d7dc4cd66a17a7727255df8ce1125afa6f2,29.347375,-98.504161,Lisa's Tacos,0.0,4.5,78221
"3202 Commercial Ave, San Antonio, TX 78221, USA",b8ee498d499ad5135a7e592af03e4b3551851c5d,29.3454233,-98.51584849999999,Don Tony's Tacos Burgers y mas!!!,0.0,3.7,78221
"20110 US-281, San Antonio, TX 78221, USA",95d0e294fe41b5eee9dd2b3bacc5fbf2f91e250a,29.2218449,-98.47677689999999,AV's Food to Go,0.0,4.3,78221
"1602 N Loop 1604 E, San Antonio, TX 78232, USA",4bf9ee1316f5d7ab41346f84502e506679f7152f,29.6086036,-98.4702799,Taco Bell,1.0,3.0,78232
"1526 SW Military Dr, San Antonio, TX 78221, USA",21810680ca5f1a4d1832c619d9894e79a2c0b0ec,29.3562323,-98.51728229999999,Don Pedro Mexican Restaurant,2.0,4.1,78221
"920 SW Military Dr, San Antonio, TX 78221, USA",ec1a830bddb3e44cee629b361b4905000af83b94,29.3566053,-98.5066059,Taco Cabana,1.0,0.0,78221
"5510 Roosevelt Ave, San Antonio, TX 78214, USA",1f952f8688e585619789a804e307b4dfd85cc942,29.3205558,-98.4770667,Judy's Food To Go,0.0,4.2,78214
"21118 N. US Hwy 281, San Antonio, TX 78259, United States",9405c1ca57801b7a5de58ca22bac8e2c74d150d0,29.6396869,-98.45384159999999,Taco Bell,1.0,3.5,78259
"18600 Pleasanton Rd, San Antonio, TX 78221, USA",0f5b8e764e23ce0dfd847a5a4a2449b148e86b04,29.240382,-98.496411,Everybody Loves Raymond's Tacos,0.0,4.1,78221
"19902 Pleasanton Rd, San Antonio, TX 78221, USA",007517478ef7c9dfd1a007320f4aac064c6c1dcf,29.224209,-98.499668,Nando's Taco House,0.0,5.0,78221
"1818 Goliad Rd, San Antonio, TX 78223, USA",0df9fda6b34ca62c5cc7136fbabad8ee6ad1032a,29.3683472,-98.44295129999999,Patty's Taco House II,0.0,4.5,78223
"2511 SE Military Dr, San Antonio, TX 78223, USA",679a29c9cc241350cd98555d7b0eec9d0609ff62,29.3529328,-98.4529235,Tink-A-Tako (City Base),0.0,3.6,78223
"3719 SE Military Dr, San Antonio, TX 78223, USA",e1048ad1e5e0e74d6dfc620710512eba7fda58bc,29.3545514,-98.4230505,Rancho Grande Mexican Restaurant,2.0,3.6,78223
"10350 Bandera Rd #310, San Antonio, TX 78250, USA",b290e72bcc0c9d2d21ef87b826c80f93858f37ef,29.540501,-98.651606,Metro Taco Stop,0.0,4.3,78250
"8315 Bandera Rd, San Antonio, TX 78250, USA",4f22ecadee1f5cdbe63196b19dda0b3a00b1d570,29.5200343,-98.63810269999999,Taco Cabana,1.0,3.8,78250
"7310 W Hausman Rd, San Antonio, TX 78249, USA",27e6d906c5131b8d2a9b17d97f983f0e658b617f,29.5719088,-98.6321452,Ricky's Tacos,0.0,4.8,78249
"2000 Cupples Rd, San Antonio, TX 78226, USA",aeaf422a264dcd2941ed8d912a395de99ef4cb81,29.388084,-98.55006499999999,REGIOS Tacos A Vapor,0.0,4.7,78226
"1401 Cupples Rd, San Antonio, TX 78226, USA",f63bad243aad84269a473fd4be29333cfbe4b74c,29.3941655,-98.5499407,Maria's Cafe,0.0,4.3,78226
"2110 Cupples Rd, San Antonio, TX 78226, USA",23e98bf9d482f7e7b64da7fcf2603265dead2a0a,29.386717,-98.5501759,Blanquita Mexican Restaurant,0.0,4.3,78226
"8213 Marbach Rd, San Antonio, TX 78227, USA",ea31950cf779cc804bab24032e3d8eb407c8d366,29.4181559,-98.6524298,Taco Cabana,1.0,3.6,78227
"6807 W Military Dr, San Antonio, TX 78227, USA",3533a01dc6182c9d6175f75c356a79d42a24c097,29.4036982,-98.6292296,Taco Bell,1.0,3.8,78227
"7627 Culebra Rd #105, San Antonio, TX 78251, USA",9dbe2d4ff13237c4e60dbb8011193f9b879f70ac,29.4604674,-98.63912859999999,Tacos Y Burritos Metro Basilica 2,0.0,4.6,78251
"1615 Meadow Way, San Antonio, TX 78227, United States",f8c95d9adf6682c434ed872856876d062a8a9dda,29.41887139999999,-98.64557819999999,Apetitos Mexican Restaurant,2.0,4.2,78227
"6040 Bandera Rd, San Antonio, TX 78238, USA",7fcd69f74c139e3b2251af199d6de2c49d340c73,29.4837574,-98.6048276,Taco Cabana,1.0,3.7,78238
"6322 Old Pearsall Rd, San Antonio, TX 78242, USA",e263984ef09a3c396dc6e56d2f06e180be7bdd87,29.3403628,-98.621515,Taco Bell,0.0,3.8,78242
"8723 TX-151, San Antonio, TX 78245, USA",d1e88d06fe4e240f3133f53d6cea531ad4553a6b,29.440402,-98.659587,Grand Tequila Restaurant & Cantina,0.0,4.1,78245
"3707 Culebra Rd, San Antonio, TX 78228, USA",49afafdc5ee211040e6d72a0bda3bb09e096471d,29.450497,-98.5765443,Tacos Betos,0.0,4.5,78228
"815 Bandera Rd, San Antonio, TX 78228, USA",3068f4f03ebffd4db7b0aff4438637ad08c0828b,29.456134,-98.55422899999999,Lisa's Mexican Restaurant,1.0,3.9,78228
"612 Bandera Rd, San Antonio, TX 78228, USA",523be9561baeea8eefc9e14093d292ccbfb764f4,29.45337749999999,-98.54939170000002,Rita's Fiesta Cafe LLC,0.0,4.2,78228
"5282 Medical Dr Ste 115, San Antonio, TX 78229, USA",f31bf4f821c1cce8a0ada61a82f350b535e05dbb,29.5091691,-98.588043,Los Tacos Hermanos (Papa Nono's),0.0,4.7,78229
"4063 Medical Dr, San Antonio, TX 78229, USA",5d9587788255705a94e068a0df7b93d66ff85b12,29.5183086,-98.5627523,Taqueria Datapoint,2.0,4.4,78229
"7934 Fredericksburg Rd, San Antonio, TX 78229, USA",9b924a7b16a38c46392f6fa43d46362267b38268,29.51225939999999,-98.5677048,Original Blanco Cafe,2.0,4.2,78229
"15606 Chase Hill Blvd, San Antonio, TX 78256, USA",c47d9be3bb7ff95c16386c2f6dee774c6d1fb799,29.5894572,-98.6232818,Taco Cabana,1.0,3.7,78256
"12731 I-10, San Antonio, TX 78230, USA",2bdddf604bc2ef59ee026b6f7de7573e553685c0,29.5614852,-98.58952289999999,Taco Cabana,1.0,3.7,78230
"9950 Interstate 10 W, San Antonio, TX 78230, United States",1e0d223c47631a7e898c81abeea049a87b5188b6,29.532048,-98.564263,Mama Margies Mexican Restaurant/IH-10,1.0,4.1,78230
"1130 North Loop 1604 W Ste105, San Antonio, TX 78248, USA",ce174cddc4e8f277d80f7eb375f6433a120fb2ca,29.6077439,-98.5097213,Taco Cabana,1.0,4.0,78248
"16075 Henderson Pass, San Antonio, TX 78232, USA",93ca361e205269b326e6a85c7a77b5e988a7c3d3,29.588208,-98.450587,Camila's Mexican Restaurant,0.0,4.3,78232
"20720 Us Hwy N 281, San Antonio, TX 78258, United States",102c54482e8dbba410eabee1a0d0106c3a825683,29.6345231,-98.4566226,Taco Cabana,1.0,3.6,78258
"1615 Access Route 1604, San Antonio, TX 78232, USA",d124f9fb56645c8f832c1cb546e8a788ce15c8e4,29.6102902,-98.4694822,Las Palapas,2.0,4.1,78232
"19211 Huebner Rd., Suite #2, San Antonio, TX 78258, United States",fd41934fa028688234f7466875b62fe166d8a6c5,29.622461,-98.512631,El Taco Grill,0.0,4.6,78258
"6826 N Loop 1604 E, Bldg 2, San Antonio, TX 78247, United States",df8f342060e7c4556898539c0c67295f3f4ca2e0,29.5936931,-98.35452490000002,Taco Cabana,1.0,3.5,78247
"8040 Pat Booker Rd, Live Oak, TX 78233, USA",0f3234c7d180d745efdca6cecd420574af713488,29.5611983,-98.3305956,Taco Bell,1.0,3.6,78233
"8141 Pat Booker Rd, Live Oak, TX 78233, USA",21a85e71184664daff3a97d26849b83ab0c2ea0c,29.5604454,-98.32950609999999,Flaco's Burgers & Tacos,1.0,4.2,78233
"1387 Williams Rd, San Antonio, TX 78234, USA",69090c36439f05da8aa9217122506d11b11af9b3,29.4625238,-98.4350116,Taco Bell,1.0,1.0,78234
"2351 Harry Wurzbach Rd, San Antonio, TX 78209, USA",9ac05e4e4a6df81b661a0272c70313ba166a2b01,29.4836183,-98.4311149,Charro Mexican Grill,0.0,4.6,78209
"Williams Rd, San Antonio, TX 78234, USA",745083f9e83213943b7d50d191984cec66d18ca2,29.46250139999999,-98.4349764,Mini-mall Food Court,0.0,3.3,78234
"3210 Broadway St, San Antonio, TX 78209, USA",b4537c4b259ea290edcc0b4a8b1ff6a8ea2876b3,29.4562177,-98.46996999999999,Tomatillos Cafe Y Cantina,2.0,3.9,78209
"3928 Broadway St, San Antonio, TX 78209, USA",1632f6dfa24d36ae14e15ef04aee8e72f7bad123,29.462416,-98.465565,Chipotle Mexican Grill,1.0,4.2,78209
"6938 W Military Dr, San Antonio, TX 78227, USA",af4d5da579857c79293f9ef685769af24144eadb,29.4070695,-98.62865560000002,Garibaldi Mexican Restaurant,0.0,3.7,78227
"6881 W Military Dr, San Antonio, TX 78227, USA",2fb6dabbc7d6f4c1fdc2be94b1eb49039a1b54c7,29.4051412,-98.6295773,Taqueria Vallarta,0.0,3.9,78227
"5132 W Military Dr, San Antonio, TX 78242, USA",d1f36e31e7a96cc0e6e2f09a97b215f41b724702,29.3697782,-98.6023539,The Mexico Taqueria,0.0,3.9,78242
"6333 Old Pearsall Rd, San Antonio, TX 78242, USA",28c5ffbf9de399a0e361d49a78d9156fa6a34963,29.34067039999999,-98.62265790000001,"Taqueria Mexico, Inc. Old Pearsall Rd.",0.0,3.9,78242
"7167 Somerset Rd, San Antonio, TX 78211, USA",ebd9abbe5dc7eef679f78438f4e5cda31915fad6,29.355525,-98.551152,Taqueria Mexico Inc,1.0,4.3,78211
"2623 Rockgate Dr, San Antonio, TX 78227, USA",a0825de4357491ce336d6570fb75eac4612aedb9,29.40327349999999,-98.6301632,La Michelada Grill,0.0,4.3,78227
"1451 Stewart Road 7025, Lackland AFB, TX 78236, United States",2a3e33a59833b4fc36c4462e24389a7b37975253,29.38159409999999,-98.6257742,Taco John's,1.0,3.6,78236
"3299 Wurzbach Rd, San Antonio, TX 78238, USA",118ce715cf94c22e3c4eaded1c115c54a24ce993,29.4673534,-98.62387110000002,Tink-A-Tako,0.0,3.8,78238
"6820 Huebner Rd, Leon Valley, TX 78238, USA",e97ad80379538975bcf1906cc3d0e6be183e9ca6,29.498197,-98.62339899999999,Tia's Taco Hut,0.0,4.2,78238
"6757 Poss Rd, San Antonio, TX 78238, USA",430d08ac7288674b0c284b85daac908c1b7710fa,29.4959003,-98.62078369999999,Chacho's,1.0,3.8,78238
"6810 NW Loop 410, San Antonio, TX 78238, USA",2e4eaac5d232234cf6e048171fe671ca3472606c,29.4610961,-98.6221877,Vallarta Grill,0.0,4.2,78238
"5251 Timberhill # 206, San Antonio, TX 78238, USA",892ac164455ef22c84b261d66851b251b2da37e9,29.4830484,-98.63022000000001,Elizabeth's Mexican Restaurant,0.0,4.4,78238
"7530 Bandera Rd #135, San Antonio, TX 78238, USA",91da9f9cb066af68e69c37ce8eda761d524e2d77,29.508325,-98.6283211,3 Amigos Mexican Restaurant,0.0,4.0,78238
"7531 Bandera Rd #101, San Antonio, TX 78238, USA",500785ec5c80ad8942913ac5f412dfdd9470e6c4,29.5073839,-98.629863,El Taco Grill,0.0,5.0,78238
"5730 Babcock Rd, San Antonio, TX 78240, USA",1de0a791a4e49c879c121eaed1090ea3c80401ae,29.5227082,-98.5996261,Tia's Taco Hut,0.0,4.1,78240
"8025 Bandera Rd, San Antonio, TX 78250, USA",ca83175e15826265b6f5fc8bd5dd8620e666687f,29.5158449,-98.63537060000002,Tacos Ricos,0.0,4.1,78250
"5895 Babcock Rd, San Antonio, TX 78240, USA",8658cf0dc9ee1ac35d47b3b7fdef9a38b3f6a23b,29.5263496,-98.6006685,Tink-A-Tako,0.0,3.3,78240
"6565 Babcock Rd, San Antonio, TX 78249, USA",f5e2d272eb4ccba1405bd11a479b16e283aa2806,29.5561047,-98.6144762,Andrea's Barbacoa & Tacos,0.0,4.8,78249
"5738 W Loop 1604 N, San Antonio, TX 78251, USA",3171ce4e85f5fbf03a2a86aed90b1e4bd7b3484d,29.4902288,-98.705378,Taco Cabana,1.0,3.2,78251
"15118 Potranco Rd #14, San Antonio, TX 78245, USA",c756c783fba5ca4278ab9226dbeab33dd6a9c833,29.4263587,-98.79609549999999,El Mucho Taco Plus,0.0,3.7,78245
"12060 Potranco Rd, San Antonio, TX 78253, USA",5b3748a780d35358472d47232df63c77039f3e21,29.4300255,-98.7328302,Sandra's Mexican Food,0.0,3.7,78253
"11238 Potranco Rd, San Antonio, TX 78253, USA",b96dc5247ebffeef92761da2e9d9ec9589801764,29.4342849,-98.71573219999999,Taco Bell,1.0,3.6,78253
"602 W Loop 1604 N, San Antonio, TX 78251, USA",9f83d7c4b3ec4b134556318f47c55050114f7ddc,29.4382233,-98.7100852,Taco Cabana,1.0,3.6,78251
"11797 Marbach Rd, San Antonio, TX 78245, USA",18a17a3cd6a04386d5dc6bc529e551cc983a70e6,29.4055025,-98.7029646,Taco Loco,0.0,4.9,78245
"9055 Marbach Rd #103, San Antonio, TX 78245, USA",fb907f5bd647d29e2770a2b5a795757385553b79,29.41867509999999,-98.6624262,Speedy's Tacos To Go,0.0,2.5,78245
"8802 Potranco Rd Suite 101, San Antonio, TX 78251, USA",243e70b1aa886edaa03aa441155cd364ae5266f1,29.4442329,-98.6593413,Tacos El Rodeo De Jalisco,0.0,4.2,78251
"11461 Perrin Beitel Rd, San Antonio, TX 78217, USA",7011e69c40077ce1170b1aaa2b0a9c7d178468d9,29.5434156,-98.4115145,Taco Bell,1.0,3.9,78217
"11888 Starcrest Dr, San Antonio, TX 78247, USA",ebb64699419c386a35b40c203bb9fa152325a4e7,29.548179,-98.461145,Brendas Mexican restaurant,0.0,4.5,78247
"16535 Huebner Rd, San Antonio, TX 78248, USA",b39ffccea44edeb44c1bf2c557565465f2cff807,29.592456,-98.5292248,Tacos El Gallito Food Truck,0.0,4.0,78248
"7323 North Loop 1604 W, San Antonio, TX 78249, USA",1e75cd221bfed014444234dcffaa41e121fcb2d3,29.5879519,-98.6327567,Taco Bell,1.0,3.9,78249
"7280 UTSA Boulevard Ste 101, San Antonio, TX 78249, USA",d84a44746fdc88280bcb27cc7721183a9ff33927,29.5765675,-98.6321653,Fuzzy's Taco Shop,0.0,4.1,78249
"12844 I-10, San Antonio, TX 78249, USA",7c3def7ea0ff27b9ba8c41e03a491b0e281cb2bd,29.56686699999999,-98.59342699999999,Matamoros Restaurante Y Cantina,2.0,4.0,78249
"5999 De Zavala Rd #136, San Antonio, TX 78249, USA",db21118b3d8efa6c88b80060a59dae9898fff70b,29.5638835,-98.6009132,Checo's Mexican & American Grill,0.0,4.2,78249
"9080 Guilbeau Rd, San Antonio, TX 78250, USA",37ee323583d65899ff1323cf7ca9cb0c7dc0133b,29.5187613,-98.6615721,Jalisco's Breakfast Tacos and Mexican Food,0.0,4.4,78250
"9160 Grissom Rd, San Antonio, TX 78251, USA",5c237fdbc4f21a556bd60e89700b117258afae8a,29.4836261,-98.66554950000001,Taco Bell,1.0,3.2,78251
"6614 W Loop 1604 N, San Antonio, TX 78254, USA",4bafe48be68f32eb54765a534ec4386266be056f,29.4982659,-98.7015559,Taco Palenque Culebra,0.0,4.2,78254
"8181 Tezel Rd, San Antonio, TX 78250, USA",aa311e1617c96e51a732f673d2c7bbf82fd2d4a3,29.5176935,-98.66405639999999,Tink-A-Tako (Tezel Rd.),2.0,4.0,78250
"11215 Culebra Rd, San Antonio, TX 78254, USA",53a4076224260c9e862534d5e22996023a6fca98,29.4975665,-98.7124613,Taco Bell,1.0,3.6,78254
"10927 W Fm 471, San Antonio, TX 78253, USA",87adcb9ff87098c382b0481ee15ead4ca4cda1a7,29.496136,-98.708443,Mama Margies Mexican Restaurant-Culebra,0.0,4.1,78253
"7350 Tezel Rd, San Antonio, TX 78250, USA",71e55327ab1c031e94eae4b3131bbb13ae005039,29.50458799999999,-98.661554,Chaparritas Mexican Restaurant & Catering,0.0,4.5,78250
"7616 Culebra Rd #109, San Antonio, TX 78251, USA",45c9e991c57b9b95d74e89aa8a074f9cf4a9055c,29.4594663,-98.64008989999999,Los Ajos Mexican Grill,0.0,4.4,78251
"12030 TX-1604 Loop, San Antonio, TX 78252, USA",206228bbf585bf584c176e8aa76101e458ca6773,29.3042794,-98.67209109999999,Sandra's Mexican Food,0.0,3.6,78252
"12790 W Loop 1604 S, San Antonio, TX 78252, USA",83b7cfd2e218b6a6c596a759b0017e4b43fade49,29.2968476,-98.6689292,AGUASCALIENTES TAQUERIA,0.0,4.6,78252
"12030 TX-1604 Loop, San Antonio, TX 78252, USA",f3209a81f71ab6585da33e61579cb4273921db73,29.3043792,-98.6720703,Tink-A-Tako,0.0,0.0,78252
"6719 Wt Montgomery, San Antonio, TX 78252, USA",4589e56b78c36a4fa47800de41eda7b92725dcd6,29.3650762,-98.73894639999999,Maribel's Kitchen,0.0,3.4,78252
"14343-, 14429 Interstate 35 Access Rd, Von Ormy, TX 78073, United States",659f2df45e7c3758337101ac774b4e79c699d603,29.28042629999999,-98.6662492,Tacos EL Trailero 137,0.0,4.0,78073
"19565 IH 35 S, Lytle, TX 78052, United States",18d75e6245018bbc72b3544de14f58c899a19582,29.2290869,-98.7894725,Taco Bell,1.0,3.2,78052
"8510 Steubing Rd, San Antonio, TX 78254, USA",cb496b35f3255cdbd2547fbb636b55c38373bd00,29.5240958,-98.71715909999999,Tacos El Forastero,0.0,4.6,78254
"25103 IH-10 W, San Antonio, TX 78257, USA",5f31a8d845819c488daae62a2a5e18e02e6fa202,29.6296362,-98.61333359999999,Taco Cabana,1.0,3.8,78257
"15900 La Cantera Pkwy, San Antonio, TX 78256, USA",136bb5cef6ef235f15220f57eba738b41184ef3a,29.5924019,-98.61130039999999,Palenque Grill La Cantera,2.0,4.3,78256
"23725 Interstate 10 Frontage Rd, San Antonio, TX 78257, USA",b22c2735b5ad9d190da1655a3e4753cda4e98de1,29.6626476,-98.63099869999999,Las Palapas,2.0,3.8,78257
"17711 Frontage Rd, San Antonio, TX 78257, USA",e6913ed611818bcf826a77cbfb7d02ab26b97140,29.609716,-98.59999889999999,Tiagos Cabo Grille,2.0,4.2,78257
"17122 West Interstate 10, San Antonio, TX 78257, United States",76b6493d33ff23c690c0550f8409df9f6dc08e7d,29.6032125,-98.5996583,54th Street Restaurant & Drafthouse,0.0,4.2,78257
"18730 Tuscany Stone, San Antonio, TX 78258, USA",52664e7d56a1f51fff174920c8a9ea52a79aa024,29.612253,-98.492589,Marioli,2.0,4.4,78258
"1662 Encino Rio, San Antonio, TX 78259, USA",c46d0e432528c04dc364dcc1dffcc2ea2f8d67c1,29.6298365,-98.45835939999999,Tink-A-Tako #13 / Sandra's Mexican Food,0.0,2.7,78259
"18747 Redland Rd, San Antonio, TX 78259, USA",dc47b582a924d6414f28a307c33567b380bac111,29.6144423,-98.4479178,La Hacienda de Los Barrios,2.0,4.0,78259
"25020 Blanco Rd # 200, San Antonio, TX 78260, USA",66dd2bfafab975b0f5569f72f96fc7cd624dca64,29.6747305,-98.5218364,Aguas Calientes Taqueria,0.0,4.4,78260
"22250 Bulverde Rd #114, San Antonio, TX 78261, USA",346e9e8be252875ad83d189615a90bca12845ca7,29.648914,-98.42501399999999,Vida Mia Mexican Cuisine,2.0,4.4,78261
"19141 Stone Oak Pkwy #803, San Antonio, TX 78258, USA",5c85844ed432511d8ccbe0a99332438cc7441c55,29.6251266,-98.49574009999999,Vida Mia Mexican Cuisine - Stone Oak @ Huebner,2.0,4.3,78258
"23808 Resort Pkwy, San Antonio, TX 78261, USA",bff6bda44dc6c84f3fc7e9a6e4676d934c32667e,29.6666957,-98.4007137,Cibolo Moon,0.0,4.1,78261
"22106 Bulverde Rd #101, San Antonio, TX 78259, USA",7be69b20fba754389850a0ad2121ab59e054dd3b,29.646681,-98.424454,Los Arcos Mexican Grill Bulverde Location,0.0,4.5,78259
"21103 US-281, San Antonio, TX 78258, USA",f755c1d61a22a315f0f9feae4f3d4f564af4d733,29.643064,-98.45438899999999,Lupe Tortilla,2.0,4.3,78258
"434 North Loop 1604 W #2101, San Antonio, TX 78232, USA",1fd470ad0ef38297997a94bda32284b2311ecd21,29.607445,-98.501328,Costa Pacifica,0.0,4.2,78232
"14250 San Pedro Ave, San Antonio, TX 78232, USA",7513451687ec8fa4f8f35a7ae20dda89799d7d61,29.5713507,-98.4788538,Alamo Cafe,2.0,4.2,78232
"20275 Interstate Hwy 37, San Antonio, TX 78264, USA",819464d5af848bbb7e152602fca3a83785db4284,29.2172825,-98.41388839999999,Frank's Tacos,0.0,4.7,78264
"24185 US-281, San Antonio, TX 78264, USA",4b25911d7a536bdc818bf3ada0b390f1bd393ca7,29.1655882,-98.4826697,A & G Kocina,0.0,3.9,78264
"505 S Loop 1604 E, San Antonio, TX 78264, USA",e704f4d5b347cf77ab9f8266c7abe4eb9c8f8cd8,29.2167188,-98.49218189999999,Alondras De Jalisco,0.0,3.4,78264
"23425 US-281, San Antonio, TX 78264, USA",7f686ddfcef5292263e647732142c7f21a63e34a,29.1760682,-98.48204840000001,La Cabana Mexican Restaurant,0.0,3.9,78264
"1881 FM2252, San Antonio, TX 78266, USA",9e9c79edd8184dd9ec10ae0cae3d06e406fc8189,29.6158476,-98.3156231,Grumpy's Mexican Cafe,2.0,4.4,78266
"11711 O'Connor Rd, San Antonio, TX 78233, USA",e719c64bf0c4918a9ab36ed0a62106ccf8e1537d,29.5470537,-98.37048139999999,Taco Bell,0.0,4.4,78233
"8630 FM 78, Converse, TX 78109, United States",2f21a95a3901efb50fc322f6e0b029cbfb4f72ac,29.4989268,-98.3181218,Taco Bell,1.0,3.4,78109
"1533 Pat Booker Rd, Universal City, TX 78148, USA",9800bcca6385da6f1cc66defd74d2797df7edbd6,29.5516147,-98.304276,Taco Cabana,1.0,3.4,78148
"17397 N Interstate 35 Frontage Rd, Schertz, TX 78154, USA",3041ccab7f68b5dc8fc241bc6bd79a918ebc46f4,29.5990635,-98.28017609999999,Taco Bell,1.0,3.0,78154
"10060 W IH 10, San Antonio, TX 78230, USA",e6f4b4239c283bcca4b3f149cefb6540de497c09,29.5339676,-98.5662782,Alamo Cafe,2.0,4.1,78230
"10501 Frontage Rd, San Antonio, TX 78230, USA",3c1c3f8bb9ef7ad8753fd1fa942bb55ef3cda19f,29.53917,-98.569178,Pappasito's Cantina,2.0,4.2,78230
"4942 Woodstone Dr, San Antonio, TX 78230, USA",3294a6254b4aaccb748a2694bd93f17eb7af73b8,29.5524387,-98.5794095,Anthony's Tex Mex To Go,0.0,4.5,78230
