Address,ID(Google),Latitude,Longitude,Name,Price_Level(Google),Rating(Google),Zip
"3632 S Congress Ave, Austin, TX 78704, USA",ab9bdcd4f5d35546b5544971d764f3fd947921c5,30.226596,-97.7622626,Papalote Taco House,,4.5,78704
"628 E Oltorf St, Austin, TX 78704, USA",d92f221f754d58eefb290a7b525e59a266594a02,30.2370862,-97.7488236,Con Madre Kitchen,,4.6,78704
"4327 S 1st St # 102, Austin, TX 78745, USA",53a21e576416b0efdd07b611bcb9dacdda024196,30.2215108,-97.77228219999999,Casa Maria,2.0,4.1,78745
"1412 S Congress Ave, Austin, TX 78704, USA",2ef50c890ebf9d82ba6e15b2c617caf2c6668029,30.2490609,-97.7500476,Güero's,2.0,3.9,78704
"201 E Oltorf St, Austin, TX 78704, USA",e291a676724da9f53b5c8bac6b9d743a160fd90f,30.2377552,-97.7525201,Taco Bell,1.0,3.5,78704
"2803 S Lamar Blvd, Austin, TX 78704, USA",aa54b5be00d522eeb927155b244dc1f4ac340c93,30.2435326,-97.78189789999999,Papalote Taco House,1.0,4.6,78704
"2809 S 1st St, Austin, TX 78704, USA",e240059ca7156f2842a541e4e98d9bc9c1047cb7,30.2367541,-97.76280109999999,Torchy's Tacos,1.0,4.5,78704
"1822 S Congress Ave, Austin, TX 78704, USA",276fea78ec169bd56156bf58d92dd18b3b79178f,30.245432,-97.75151969999999,Torchy's Tacos,,4.5,78704
"1311 S 1st St, Austin, TX 78704, USA",3877209567fb381f47f38b914bfe6aaf5ebbcb49,30.2509257,-97.75423359999999,Torchy's Tacos,1.0,4.6,78704
"3005 S Lamar Blvd, Austin, TX 78704, USA",f8c4e24524d9c5ffceb359a5f75dbc49d403ee3c,30.2415377,-97.7842878,Torchy's Tacos,1.0,4.5,78704
"2801 Guadalupe St, St 5-b, Austin, TX 78705, United States",26a94f51b9a606d570a1702904ae1fd9cbd23f21,30.29371,-97.74172809999999,Torchy's Tacos,1.0,4.4,78705
"5804 N Interstate 35 Frontage Rd, Austin, TX 78751, USA",ff2733af71330ab10f835a023edc0144bd617fa5,30.3193208,-97.70814829999999,Amaya's Taco Village,1.0,4.2,78751
"1503 S 1st St, Austin, TX 78704, USA",f4adb623edff30d8a5e8358b2a03335c2b68593b,30.2493689,-97.7549435,Mellizoz Tacos,1.0,4.2,78704
"1704 E Cesar Chavez St, Austin, TX 78702, USA",38a35377555768adf392e30e780c19cf3a919d82,30.2579332,-97.7259275,Veracruz All Natural Food Truck,1.0,4.7,78702
"5033 W US Hwy 290 Service Rd, Austin, TX 78746, USA",c5878b9a2fff0f065fd418ea209ec919134cc293,30.2334998,-97.82435749999999,Taco Ranch,1.0,3.4,78746
"5119 Burnet Rd, Austin, TX 78756, USA",5e5d926dcc37172e412ae89df552ea7b46b164ce,30.3233694,-97.7392014,Torchy's Tacos,1.0,4.6,78756
"500 E 4th St, Austin, TX 78701, USA",ecc22bc448a419d258eb4c9cec84fa8007aea959,30.2651646,-97.7380912,Austin Taco Project,2.0,3.9,78701
"402 Brazos St, Austin, TX 78701, USA",b782d0c20d51ddfba0dcbcc30c563a6f7183499d,30.2660138,-97.7422624,Taco Shack,1.0,3.7,78701
"Little Woodrow's, 520 W 6th St, Austin, TX 78701, USA",81cd894609830b6584d6b7932ae769d79e489ec9,30.269853,-97.748172,OneTaco,2.0,4.2,78701
"96 Rainey St, Austin, TX 78701, USA",861424e9edd87981f09b7f86c9f80b110f699882,30.2608476,-97.7382623,Taco Baby,,4.5,78701
"75 Rainey St, Austin, TX 78701, USA",46ac24b89afb07fc1d3357f5b7888131a07de82f,30.2583972,-97.7385941,Art of Tacos,,4.1,78701
"1500 Spyglass Dr, Austin, TX 78746, USA",ba980e571ec98744ea99ee3889a13004bb9e44fd,30.258426,-97.78760500000001,Tacodeli,1.0,4.6,78746
"2807 San Jacinto Blvd, Austin, TX 78712, USA",638a3aa9b1a59631dcf58b4d9e10e4a0b3e0d1ce,30.2915386,-97.73497160000001,Taco Joint,,4.6,78712
"4200 N Lamar Blvd, Austin, TX 78756, USA",fed87216a48761907c02d0d88ac9d78924ea267c,30.310528,-97.740117,Tacodeli,1.0,4.6,78756
"2529 S Lamar Blvd, Austin, TX 78704, USA",c4c4d61c9ffd7c6a10f3f400a2c92bb385db4465,30.2457662,-97.7781976,Maria's Taco Xpress,1.0,4.2,78704
"134 E Riverside Dr, Austin, TX 78704, USA",f0e011a1f86600e29a11db2ffb4cfd6c2c1fd5fc,30.2563678,-97.74551919999999,Taco Joint,,4.6,78704
"4412 Medical Pkwy, Austin, TX 78756, USA",7e522b4d252ea90c148124cd9134fddbac79c441,30.3145249,-97.74203519999999,Taco Shack,1.0,3.8,78756
"2611 Manor Rd, Austin, TX 78722, USA",0b698b6525c95ac610851d0ffe0c926a09f27ea5,30.2846468,-97.71485799999999,Taco Mex,1.0,4.4,78722
"502 Brushy St, Austin, TX 78702, USA",5f2dbea51f0a57669a16134f515d2db53ff1882c,30.2648575,-97.73395090000001,Pueblo Viejo,2.0,4.7,78702
"7301 Burnet Rd, Austin, TX 78757, USA",8380abf79073bfe827d25853072157a36454d96e,30.3487666,-97.7350354,Tacodeli,1.0,4.6,78757
"12001 Burnet Rd, Austin, TX 78758, USA",6186933e90e5b87787833cb5fcf00a70cb63254c,30.4077015,-97.7132858,Tacodeli,1.0,4.6,78758
"600 W Martin Luther King Jr Blvd, Austin, TX 78705, USA",3e881ac5c57adee809000a687b9e7454ab1c0a71,30.2826758,-97.7444573,Kesos Taco House,,4.3,78705
"4002 N Lamar Blvd, Austin, TX 78756, USA",6e3215fd77d45e486af0b0f7d24ad90fa0fdb9c9,30.3082222,-97.7415773,Taco Shack,1.0,3.8,78756
"1207 E 11th St, Austin, TX 78702, USA",9ec260fd320a658c9bd91dda5c631af430bef51a,30.2681683,-97.72715459999999,Juana Taco,,3.8,78702
"2000 Guadalupe St, Austin, TX 78705, USA",0dd72d30a9bddbd4229928f7a2002b1c4b0f3261,30.2828199,-97.74233280000001,Taco Bell,1.0,3.8,78705
"2201 Speedway, Austin, TX 78712, USA",5d31993cec674267aea91ea51c2836d374289f62,30.2851512,-97.73593869999999,Taco Cabana,1.0,2.9,78712
"2201 Manor Rd, Austin, TX 78722, USA",7d10111b984312df90d9d490313855bfbca6c7de,30.2841367,-97.71892799999999,Mi Madre's Restaurant,2.0,4.2,78722
"9900 S Interstate 35 Frontage Rd. #100, Austin, TX 78748, USA",d42a1e765dcd63817fc0b5009971239b93fc4c6b,30.15406219999999,-97.7937185,Amaya's Taco Village,1.0,4.0,78748
"500 Comal St, Austin, TX 78702, USA",7953007e9fc39f997bfeba2e761eeae8e755a001,30.2625646,-97.7270104,Bomb Tacos,,3.2,78702
"1210 E Cesar Chavez St, Austin, TX 78702, USA",35042a8c29122389ed96992904e057d4e83fccf3,30.2597228,-97.7316329,Las Trancas Taco Stand,,4.7,78702
"701 South Capital of Texas Highway #e590, Austin, TX 78746, United States",d3856d91f2eebd1dbd891205f381b48b3278acbf,30.29042639999999,-97.82615899999999,Tacodeli,1.0,4.5,78746
"2323 S Lamar Blvd, Austin, TX 78704, USA",eb68f544f3e903406d56a6269b1dd6b7dd3641a1,30.2467273,-97.7770359,Capital TACO,,4.3,78704
"2308 E Riverside Dr, Austin, TX 78741, USA",b07c2328a7f4fa6f4277f6fb7306de813c8c5ed9,30.2381503,-97.7252769,Taco Bell,1.0,3.7,78741
"2507 E Riverside Dr, Austin, TX 78741, USA",e3525494e36f4ae58a869b63ef2d58ad9c9558a3,30.2337434,-97.7242577,Taco Cabana,1.0,3.0,78741
"2825 Guadalupe St, Austin, TX 78705, USA",70a41d3993cc8f6cc0f2b0e747035ebd965c1a46,30.2951184,-97.7425561,Taco Shack,1.0,4.0,78705
"1925 Airport Blvd, Austin, TX 78722, USA",26a2bbbdab8c7dce5887a307e1e2e042e23bda74,30.2832883,-97.7039166,Taco Bell,1.0,3.5,78722
"4905 Airport Blvd, Austin, TX 78751, USA",6ef664636711115acd09b7db2e78346b65d02fbd,30.30964,-97.715239,Tyson's Tacos,,4.5,78751
"507 Pressler St, Austin, TX 78703, USA",a522576d0abce0195adecb5413b16fd246f8c4c1,30.2728079,-97.7606053,TNT Tacos and Tequila,,4.0,78703
"121 Pickle Rd, Austin, TX 78704, USA",603e6b0c9db981bd2480b4807ccb65628d163317,30.2269355,-97.7625097,Pueblo Viejo Taco Truck,,4.8,78704
"E 7th St & Trinity St, Austin, TX 78701, USA",bf2edd8615bfb64ba39d25fcc879e350a840d559,30.2678169,-97.7389177,Mama V's Quezzadillaville,,3.1,78701
"5520 Burnet Rd #101, Austin, TX 78756, USA",35ef6c737be6926b44434bf3257a60722fc81497,30.3308986,-97.7402558,Taco Flats,1.0,4.5,78756
"1801 E. 51st St, Bldg D, Austin, TX 78723, United States",bd7893c9aaecb948c8a12bb5fbbed858d6f682eb,30.303292,-97.6988397,Torchy's Tacos,1.0,4.5,78723
"3901 Spicewood Springs Rd, Austin, TX 78759, USA",43d9228a4ac9bacd9a7c55e9a71b70a063e2d2fa,30.3654022,-97.7502645,Taco Shack,1.0,4.2,78759
"7010 Easy Wind Dr #100, Austin, TX 78752, USA",ff61ffe966497f81f0c0d0d8bec04d330e9a5fa9,30.339014,-97.71856299999999,Fuzzy's Taco Shop,,4.0,78752
"5242 N Lamar Blvd, Austin, TX 78751, USA",443f7b9cff46eaaf489c57e6646bc0e6fb6c5327,30.32105859999999,-97.72986879999999,Taco Cabana,1.0,3.7,78751
"7793 Burnet Rd, Austin, TX 78757, USA",f0696fcbd0650acf39541ea7f3c832b726cee29d,30.3544777,-97.73137220000001,Taco Bell,1.0,3.3,78757
"1940 W William Cannon Dr, Austin, TX 78745, USA",4b6f241dcd5eb4c2542c6a59e8bb8ed305f9e7ee,30.2032081,-97.8057257,Jalapeños,,4.1,78745
"9414 Parkfield Dr, Austin, TX 78758, USA",c4f91903d64384b29f360906b8034e2ce3c5a4d1,30.3679414,-97.7063285,Taco More,1.0,4.1,78758
"2117 W Ben White Blvd, Austin, TX 78704, USA",1026f1e8f4fdb28a4ed19578a39b1c50487c0c16,30.23059169999999,-97.79142569999999,Taco Cabana,1.0,3.5,78704
"2015 E Riverside Dr., Austin, TX 78741, USA",f91ae20a45cfb0cac64111e501d9829c601f437f,30.2402406,-97.7280992,Taco More,1.0,4.1,78741
"2300 E Cesar Chavez St, Austin, TX 78702, USA",f5f88a804e4077e1963f7e01c3858b4028556638,30.25535369999999,-97.71906580000001,Juan in a Million,2.0,4.4,78702
"3201 Bee Caves Rd Ste 180, Austin, TX 78746, USA",a0a9664727a150661d781743ce08148ae18b0f8d,30.2738252,-97.800299,Taco Bell,1.0,3.4,78746
"4619 S Congress Ave, Austin, TX 78745, USA",e127eafee8ceba580503fdb3bc43744b9e3f0836,30.2152954,-97.7679052,San Juanita's Tacos,,4.3,78745
"12439 Metric Blvd, Austin, TX 78758, USA",2e31254e2ccdf2a84908ff2ba8b9895f6011b815,30.4121165,-97.6906594,Taco Shack,1.0,3.7,78758
"901 Tillery St, Austin, TX 78702, USA",90c5577649eaddbcdc56175211ce8834514c5411,30.2625731,-97.7035926,Marcelino Pan y Vino,,4.7,78702
"1411 E 7th St, Austin, TX 78702, USA",d7f2901695579285a0193d399eb1785db6b9b137,30.264114,-97.727381,Takoba,2.0,4.1,78702
"1511 E 6th St, Austin, TX 78702, USA",17db488ab724a353b367575e512f549bc0632775,30.262967,-97.726744,Cisco's Restaurant,1.0,4.3,78702
"1707 E 6th St, Austin, TX 78702, USA",5f66f6db203efb04dcdebb047ad64ee35df5b2d8,30.2615165,-97.7243676,Tamale House East,2.0,4.3,78702
"1623 E 7th St, Austin, TX 78702, USA",2fc12de8a97ddaf5f815d811cb693a006245b1ba,30.2630528,-97.72441889999999,El Chilito,1.0,4.0,78702
"3518 E 7th St, Austin, TX 78702, USA",343b4bf08e0841aafabaa034b5ddc1c2025c6abe,30.256849,-97.70234099999999,Beto's Restaurants,,4.4,78702
"917 Springdale Rd, Austin, TX 78702, USA",2c1981280b74a3d10187c28d67f08ceda7542c00,30.26097,-97.698172,Papa Joe's Tex-Mex,,4.7,78702
"1401 E 7th St, Austin, TX 78702, USA",b9e4f611a38a8bcc58d771df4409c2a3030680dd,30.2643675,-97.72796969999999,Granny's Tacos,,4.9,78702
"96 N Pleasant Valley Rd, Austin, TX 78702, USA",8ce386287d2e952b7a416987149051d8615d9b30,30.2526965,-97.7131211,Tacos Guerrero,,4.9,78702
"2101 E Cesar Chavez St, Austin, TX 78702, USA",d4f8c333a97904df55936528d3130cdbe32d9592,30.25608,-97.72190979999999,Taqueria Chapala,2.0,4.2,78702
"1816 E 6th St, Austin, TX 78702, USA",bac84e31c06a4811bf8fc7877bf744b3094494c7,30.2619301,-97.72280029999999,6th Street Tacos y Mas,,4.0,78702
"1501 E 6th St, Austin, TX 78702, USA",59613fb6186781a2cef7423c8228721170195ae7,30.263168,-97.7272016,Little Plaza Taco Truck,,5.0,78702
"2324 E Cesar Chavez St, Austin, TX 78702, USA",4b7641c2254bcec0ae2b27c04ff51f11609e652f,30.2551624,-97.7182167,The Vegan Nom,,4.6,78702
"2305 E 7th St, Austin, TX 78702, USA",0d1fa2c5ffdab31b3f76266d3b2d5dfb3ee3a1eb,30.2611771,-97.7166604,Joe’s Bakery & Coffee Shop,1.0,4.5,78702
"1628 E Cesar Chavez St, Austin, TX 78702, USA",d0ebc9a5a31cd9ccee60126961a70bc0e10bd49d,30.2582944,-97.7275536,Los Huaraches,,3.9,78702
"2410 E 7th St, Austin, TX 78702, USA",51299551830f9c8f87e2d333d72883f7e2aacf65,30.2612628,-97.71402119999999,Tacos Y Mariscos,,4.7,78702
"1701 E Cesar Chavez St, Austin, TX 78702, USA",6361b29aa1d9c903065777c598c7b044f85dade9,30.2576792,-97.7265645,Las Cazuelas Mexican Restaurant,2.0,3.7,78702
"2012 E 7th St, Austin, TX 78702, USA",3814eec746889171329e4b90a20febb7ff290755,30.2621233,-97.719369,Tacos Doña rosita,,5.0,78702
"1307 E 7th St, Austin, TX 78702, USA",235c3488d708c3499dead8c703b8deaf3f53bdfb,30.2644574,-97.7287259,Angie's,,3.9,78702
"2421 Webberville Rd, Austin, TX 78702, USA",19dd2d25788d01463f2d138e28646988e9a0ce7e,30.26267,-97.71439699999999,Chico Jr's Deluxe Taco Emporium,,4.6,78702
"1614 E 7th St, Austin, TX 78702, USA",0475c5441687456729158386ec78bf7c55f0ddbd,30.2637556,-97.724835,Nasha,1.0,4.0,78702
"2500 E 6th Street B, Austin, TX 78702, United States",cd51fdcebb6b04dc2ecaeaad65d1a3ae6ceda004,30.2590196,-97.7144697,Taco Flats Airstream,,,78702
"1106 E 11th St, Austin, TX 78702, USA",4ae0f3dcbc6c752a746035c9ea71312317b3803d,30.269129,-97.72844699999999,Cosmic Taco,,5.0,78702
"1306 E 6th St, Austin, TX 78702, USA",d3cff0b328d9f54c2f1fe56ddb66409e89e5eb63,30.264089,-97.7287918,Licha's Cantina,2.0,4.5,78702
"1701 E 6th St, Austin, TX 78702, USA",18c3eaff8436280f8136f2490e9a577220c0e796,30.2620502,-97.7245612,Hot Mess,,5.0,78702
"517 N Interstate Hwy 35, Austin, TX 78702, USA",7a7c49e1e75018fead3ce6b9b4d94ad15ce47141,30.2652908,-97.73408119999999,Savor De Moi,,5.0,78702
"2730 E Cesar Chavez St, Austin, TX 78702, USA",0e0c3e0e2523b3ba5194379fc51ef20429adc27e,30.253308,-97.712918,Taqueria San Luis,,4.8,78702
"1410 E 6th St, Austin, TX 78702, USA",4db4b763eb6fd1f5eabe22d42044ede45096bac8,30.26376119999999,-97.7276995,Revelry Kitchen + Bar,2.0,4.5,78702
"2121 E 6th St, Austin, TX 78702, USA",6059adc6a8960d64a5c3c0ce27a4dca441027ec8,30.26017,-97.71892439999999,Hi Hat Public House,,4.6,78702
"750 Airport Blvd, Austin, TX 78702, USA",3eec7238a504c0d5686b692a40f0466557a3f5e0,30.254307,-97.6927566,Taco Stand,,,78702
"844 Airport Blvd, Austin, TX 78702, USA",f07736099ad8713b10058a834e7d9bf1e5beb0a1,30.258395,-97.6938267,Dan's Hamburgers,,4.5,78702
"3223 E 7th St, Austin, TX 78702, USA",3ccdd3909c061a37c30eb3d32afc984c4ca9d3e9,30.2577225,-97.7048949,Chu-Mikal's Cafe,,4.4,78702
"105 Tillery St, Austin, TX 78702, USA",b51f70ae72c96364d40b9845b25b1ea0a63959c9,30.2521629,-97.708226,Grizzelda's,2.0,4.2,78702
"1618 E 6th St, Austin, TX 78702, USA",2fedcef6681a82d471293be6d5f70c0968491dd8,30.262704,-97.7250799,East Side King,2.0,4.4,78702
"1914 E 6th St, Austin, TX 78702, USA",97807f8fea8d5fc87a0ca0b656210f03d8260725,30.2617057,-97.7216278,Counter Cafe,2.0,4.5,78702
"2721 E Cesar Chavez St, Austin, TX 78702, USA",3731b49acdd9e57ba3b61766bc75f1675d11bb0c,30.2528716,-97.71315039999999,Yo lands,,5.0,78702
"1901 E Martin Luther King Jr Blvd, Austin, TX 78702, USA",ddb127571848e73f3f9cac11d629cd956c19f342,30.2796372,-97.7207385,Shopper's Food Mart Eatery,1.0,3.0,78702
"2219 Manor Rd, Austin, TX 78722, USA",c7993d0301c3fd19c8eda6c116ff157f610bee44,30.2841499,-97.71837719999999,El Chilito,1.0,4.1,78722
"2401 E Cesar Chavez St, Austin, TX 78702, USA",71e5c21f464f949ac3e0b1f989816be344e9bdf4,30.2545032,-97.71761110000001,Mongers,2.0,4.5,78702
"1501 E 6th St, Austin, TX 78702, USA",550acd92e17ebde0ee40e4d27c4b10effd08ce50,30.2629957,-97.72702969999999,Rollin Smoke BBQ,,4.5,78702
"1818 E 12th St, Austin, TX 78702, USA",60ef5a420dad1662aea679989df470f690cc1228,30.2738494,-97.72008009999999,Pakal Autochthonous Mexican Cookery,,5.0,78702
"1309 Rosewood Ave, Austin, TX 78702, USA",4e2cf1c0660598089c021e36362a24835fb33617,30.268562,-97.72513599999999,Micklethwait Craft Meats,1.0,4.7,78702
"1917 E 7th St, Austin, TX 78702, USA",4ab43a07f01e8d98d9cac3f561755eab102137ef,30.2620848,-97.7214364,La Michoacana Meat Market,,3.8,78702
"5011 E Cesar Chavez St, Austin, TX 78702, USA",1bc6104f83491d6b411af7289f2adb9f841187ee,30.251255,-97.6993028,La Taqueria Chilanga,,5.0,78702
"1208 E 11th St, Austin, TX 78702, USA",3ac1c6e5bcb24a8f0d593c7dbf19253e4974b7f5,30.268694,-97.727243,Quickie Pickie,1.0,4.4,78702
"2136 E 7th St, Austin, TX 78702, USA",c574e4e999f8d0f1dfd591cb350a0a46dafd8302,30.2618563,-97.71828180000001,Los Comales,2.0,4.0,78702
"1901 E Cesar Chavez St, Austin, TX 78702, USA",4cc4a2832c1a52f8d23a5ba223afe3ae157500ab,30.256821,-97.724519,Mr. Natural,2.0,4.3,78702
"1900 E Martin Luther King Jr Blvd B, Austin, TX 78702, USA",9a7096e662d9221d3cac2607c40462d6975c0b17,30.28022039999999,-97.72110149999999,Austin Daily Press,,4.6,78702
"817 Airport Blvd, Austin, TX 78702, USA",e1ff3b5c34cda64a3e9c910e2168b438ef564825,30.2562059,-97.6926276,El Secreto De La Abuela,,4.3,78702
"3209, 500 Comal St, Austin, TX 78702, United States",071c8eb152f160bdb888d6f7ec7cc58a1f814fb0,30.2625474,-97.727003,Baton Creole,,4.3,78702
"1902 E 6th St, Austin, TX 78702, USA",f48a88c93f89f2ac4210f11215d7e39d5e46052d,30.2617385,-97.722008,Lazarus Brewing Co.,2.0,4.7,78702
"1512 Holly St B, Austin, TX 78702, USA",80e528b44d33f5bbf7bc5c58f6c3842ce657fa22,30.2553137,-97.7305659,Porfirio's Tacos,1.0,3.8,78702
"1624 W 5th St, Austin, TX 78703, USA",5463e62622f8625946cd4bc1ce01ad75ada409c8,30.2749658,-97.76460200000001,El Arroyo,2.0,3.8,78703
"915 N Lamar Blvd, Austin, TX 78703, USA",2c9851e2e5a3c072bf454f29813d56682f7a05b2,30.2744739,-97.7522235,Fresa's - 9th & Lamar,1.0,4.1,78703
"2608 W 7th St, Austin, TX 78703, USA",5cbbcd9851f7021c65f23e10800f07d4e91e6d1a,30.2828118,-97.77566790000002,Maudie's Cafe,2.0,4.0,78703
"3825 Lake Austin Blvd, Austin, TX 78703, USA",089c479b0873d939fccceb07479af54e6816e7b6,30.2946928,-97.7844186,Hula Hut,2.0,4.1,78703
"1000 W Lynn St, Austin, TX 78703, USA",62b83987eb0f7dd7b728188a2998d7b11db72cbd,30.2793876,-97.7600875,Galaxy Cafe,1.0,4.3,78703
"2304 Lake Austin Blvd, Austin, TX 78703, USA",e20cd08b659050cfe07943b4792422483730c3e3,30.2780074,-97.7716588,Magnolia Cafe,2.0,4.3,78703
"1110 W 6th St, Austin, TX 78703, USA",34ff2538385f0def97a86cf4f1d8643dc5b9fac2,30.2726058,-97.7560511,Z'Tejas,,4.0,78703
"626 N Lamar Blvd, Austin, TX 78703, USA",b493e30ecf74b8e2e27cfbed0893f9c5fd776b80,30.2725823,-97.7536696,Counter Cafe,2.0,4.4,78703
"1701 W Ben White Blvd, Austin, TX 78704, USA",cc532867926fa858ef9e0925b1cb82443aa9fa0c,30.22774,-97.78527989999999,Taco Bell,1.0,2.8,78704
"2004 S 1st St, Austin, TX 78704, USA",c742f1debf2ee5b22f843d3d150a6486e24fca06,30.2453122,-97.75742699999999,Polvos,2.0,4.1,78704
"501 W Oltorf St, Austin, TX 78704, USA",364276767e15c1574d16762d7bc2aece3ae04335,30.2412181,-97.7582295,Habanero Cafe,1.0,4.4,78704
"1210 Barton Springs Rd, Austin, TX 78704, USA",17ed778501b83f1ac5ecb07ed4472ae276bcbfbd,30.26101049999999,-97.75756510000001,Tacos El Quetzal,,3.4,78704
"1815 W Ben White Blvd, Austin, TX 78704, USA",afbd2b957b4e4255e9918cb9be0ae271f9891c2e,30.2286031,-97.78713049999999,Taqueria Los Jaliscienses,,3.9,78704
"500 E Ben White Blvd D-100, Austin, TX 78704, USA",71484156dd46b690d12328c0e9aab1ad7ae49e4a,30.2210017,-97.75701939999999,Cabo Bob's,2.0,4.6,78704
"4205 Manchaca Rd, Austin, TX 78704, USA",86e1d07421a8e5558390842af4e1f6402de5905b,30.2311179,-97.7871806,Trippy tacos,,4.8,78704
"4208 Manchaca Rd, Austin, TX 78704, USA",51a9aee9397cfc7cfb14242b7140e27db21863dd,30.2313819,-97.7878533,Veracruz All Natural,,4.7,78704
"2316 S 1st St, Austin, TX 78704, USA",acfaa5926a3e8b20c7a5a2b70f39a6228bddb134,30.2424196,-97.7595987,El Tacorrido,,4.2,78704
"2613 S Lamar Blvd, Austin, TX 78704, USA",5e18e12466311be436a914d97bd0838bfc804bd8,30.245118,-97.779281,Matt's El Rancho,2.0,4.1,78704
"2011 S 1st St, Austin, TX 78704, USA",b5274851c550aa75db19acfa3e5c9cdbd73e9a4a,30.2448208,-97.7573481,El Primo,,4.9,78704
"6430 S IH 35 Frontage Rd, Austin, TX 78745, USA",7c34076ba5a83536cebb91981448c19dab7e84a6,30.1913107,-97.770955,Taco Cabana,1.0,3.6,78745
"343 S Congress Ave, Austin, TX 78704, USA",efe30d51115e4d0888706d3daaf545d0f9b5e833,30.2570446,-97.7464569,Don Gume's Tacos,,5.0,78704
"4301 W. William Cannon Dr, G-400, Austin, TX 78749, United States",ab3dde3cc3aa1cbfbfffd57a9b97bde129d629c8,30.2223221,-97.8404295,Torchy's Tacos,1.0,4.4,78749
"4329 S Congress Ave, Austin, TX 78745, USA",ede44fe8281160ddd5ae7a539fa9fb9bc37cfd58,30.218606,-97.76579,Kesos Taco House - Taco Truck,,5.0,78745
"1917 E Riverside Dr, Austin, TX 78741, USA",e7ea7f43416ec3a70ad7920d73d0fda25f4cc6e5,30.2415221,-97.7296738,Tacos Al Pastor,,4.6,78741
"3023 Guadalupe St, Austin, TX 78705, USA",bbaac81858569e1201fb00b60782ff24a46f5798,30.2970408,-97.7414333,Changos Taqueria,1.0,4.1,78705
"2402 Guadalupe St, Austin, TX 78705, USA",69712dfd5486610142631e21b3e733df0e3c8ec4,30.2878674,-97.74196030000002,QDOBA Mexican Eats,1.0,3.9,78705
"3704 I-35, Austin, TX 78705, USA",c71e3535efe77cd62b397783a914aaeca10f7122,30.2942198,-97.72050379999999,Cafe Hornitos,1.0,4.5,78705
"3815, 2809 San Jacinto Blvd, Austin, TX 78705, United States",71bc6843818a2b9f53bcc241b5279f41dd1709a8,30.291573,-97.735008,Sao Paulo's Restaurant,2.0,4.3,78705
"411 W 23rd St, Austin, TX 78705, USA",8164b16f0626d507ec259527cd17c13f807f2d48,30.2863895,-97.74248229999999,Taqueria Jefe's,,3.6,78705
"409 W 30th St, Austin, TX 78705, USA",54b10ddb5fed75046d3bb340c44f99477a2865d6,30.2957486,-97.74104899999999,Trudy's Texas Star,2.0,4.2,78705
"2908 Fruth St, Austin, TX 78705, USA",05d028256ead6e15eb816b81212e906b3b5a800b,30.2955044,-97.74175849999999,Cool Beans,,4.7,78705
"916 W 32nd St, Austin, TX 78705, USA",dcacab82437adf90b10077372a1fcd73a57288ea,30.3015198,-97.7453184,Taqueria Anyeli,,5.0,78705
"2025 Guadalupe St # 244, Austin, TX 78705, USA",c6072feb8c502b51085aef17641bbfc0de8f6771,30.2833824,-97.7413818,Burrito Factory,2.0,4.8,78705
"9605 Research Blvd, Austin, TX 78759, USA",cea6320863ae5a98116233a8614d9831dc5da80d,30.3882872,-97.7429839,Taco Cabana,1.0,3.5,78759
"9705 Manchaca Rd, Austin, TX 78748, USA",067a027f131115a864cd321ca3b56e880730c7ee,30.1751592,-97.8222624,Taco Cabana,1.0,3.2,78748
"4211 Spicewood Springs Rd, Austin, TX 78759, USA",6f04906d771c81ccc7f04d39f96af68d3d0687f1,30.3706872,-97.7562774,Torchy's Tacos,1.0,4.4,78759
"5604 Cameron Rd, Austin, TX 78723, USA",df5248b22c0d791a7827bcad21dd8847bad880bc,30.3141238,-97.704066,Taco Bell,1.0,3.2,78723
"2938 Guadalupe St, Austin, TX 78705, USA",694195965af701d5a5d4b146ce820bee0c9277ec,30.296705,-97.742257,El Patio Restaurant,2.0,4.1,78705
"13219 Research Blvd #100, Austin, TX 78750, USA",3e5512140b3e6dde6ac3042cd9eec6ac208272e8,30.4433424,-97.78428919999999,Papalote Taco House,1.0,4.4,78750
"9408 Dessau Rd, Austin, TX 78754, USA",1a6391e20e8b44ced99517b0d4094aeb675da06b,30.351655,-97.67594179999999,Ken's Tacos,2.0,4.5,78754
"9320 N Lamar Blvd, Austin, TX 78753, USA",c9235d709b3783618b5e4eb0b521261afb5e9915,30.3629022,-97.6975599,El Tacorrido,2.0,4.2,78753
"915 E Braker Ln, Austin, TX 78753, USA",87153127f943ceb9fc75457d79631c7e476e23dc,30.3753537,-97.672887,Vazquez Restaurant,1.0,4.2,78753
"1016 E Anderson Ln, Austin, TX 78752, USA",8b4f88df0bd56c027412c57bf8db909930e6dd15,30.3371125,-97.69432019999999,Taco Bell,1.0,3.6,78752
"9504 N Lamar Blvd, Austin, TX 78753, USA",2ff03a575b91eec50e12a6af5e2194acdde7506c,30.364794,-97.69667120000001,Taco Bell,1.0,3.6,78753
"1548 E Parmer Ln, Austin, TX 78754, USA",99eaa0a86ecd7020a8bc1ff1616a96dd969a59b2,30.3890653,-97.6507615,Taco Bell,1.0,3.1,78754
"8620 Burnet Rd, Austin, TX 78757, USA",641d50dbcc64ad0b6670ab1e46c2b5b33a9c034e,30.3689854,-97.7279748,Taco Cabana,1.0,3.4,78757
"8415 Research Blvd, Austin, TX 78758, USA",65d5c095fa91422e56064e79756ad91d990c9270,30.358677,-97.71564,Taco Cabana,1.0,3.5,78758
"2600 W Braker Ln, Austin, TX 78758, USA",45a317a7335da8b85040bb2226fa228f7f182903,30.3912441,-97.7201321,Taco Bell,1.0,3.7,78758
"1825 W Parmer Ln, Austin, TX 78727, USA",c06ef1bc0fe48a244c04ed3bc1cda005b7ab172e,30.4136964,-97.6927981,Taco Bell,1.0,3.3,78727
"4811 W Braker Ln, Austin, TX 78759, USA",2cb7c037d53161f7358d91fbeaa976731f1da096,30.4002252,-97.7472787,Taco Bell,1.0,3.1,78759
"3501 Wells Branch Pkwy, Austin, TX 78728, USA",99db8092289289cc4835ed2cb15d9d58f3bbed2a,30.4393467,-97.6971121,Taco Bell,1.0,3.4,78728
"9063 Research Blvd, Austin, TX 78758, USA",65740470af920fcec9852cca8233c4135731d837,30.3744355,-97.7272845,Vazquez Restaurant,2.0,4.1,78758
"10205 N Lamar Blvd, Austin, TX 78753, USA",0d331d680707f09a3932ccdaa32ede509f7ecb36,30.37102999999999,-97.691385,Maudie's North Lamar,2.0,4.3,78753
"15002 FM1825, Pflugerville, TX 78660, USA",46933d7b29de92b72300f8464d60cc07885290b5,30.4425679,-97.6661771,Taco Cabana,1.0,3.4,78660
"102 W Powell Ln, Austin, TX 78753, USA",063b65562e01bcdcee1a7320e27b2ab4f755640b,30.3480225,-97.70331879999999,Ñoños Tacos,,4.6,78753
"2150 E Palm Valley Blvd Ste 100, Round Rock, TX 78665, USA",9d831d14b0ae72eaad2b06331e81d89d47c7854d,30.5191225,-97.6519129,Torchy's Tacos,,4.5,78665
"1011 Reinli St, Austin, TX 78723, USA",11cc20b8185f6a8bf6b24d1bca0f51b7f1574bae,30.3179072,-97.7066072,Taquerias Arandinas,,3.9,78723
"9616 N Lamar Blvd, Austin, TX 78753, USA",cc5824bb232ecae8e27f3a210a902873fad779fb,30.3656629,-97.69667919999999,Taquerias Arandinas,,3.5,78753
"201 E 24th St, Austin, TX 78712, USA",a7962441dba3625a2a2d4e22698fc37331d3fe1e,30.2868693,-97.736556,O's Campus Cafe,2.0,3.8,78712
"5207 Brodie Ln #125, Sunset Valley, TX 78745, USA",a987aad77521eac169187efddc11733a38ecf9ee,30.23083209999999,-97.8174033,Cruzteca Mexican Kitchen,,5.0,78745
"3300 Bee Caves Rd #670, Austin, TX 78747, USA",65f76b5b86292c798e091030c7695ecbebb70ed9,30.274712,-97.799273,Chipotle Mexican Grill,1.0,3.9,78747
"3421 W William Cannon Dr, Austin, TX 78745, USA",e0db6923a7a7a0689db06d0887597664b7f9bc40,30.2129296,-97.82951519999999,Taco Bell,1.0,3.1,78745
"3324 W Slaughter Ln, Austin, TX 78748, USA",592848c2b133d992d12792ab37fe645671397706,30.1825306,-97.8466469,Taco Bell,1.0,3.3,78748
"502 W William Cannon Dr, Austin, TX 78745, USA",533454dd71e8bc858651267e42f5b32e1ed42207,30.1966833,-97.78586399999999,Taco Bell,1.0,3.1,78745
"7515 N FM 620, Austin, TX 78726, USA",360ae8cf0761d29b5f089fa1b9fb7385a3a05cbd,30.4077514,-97.8510484,Taco Bell,1.0,3.0,78726
"6511 S IH 35 Frontage Rd, Austin, TX 78744, USA",cfb7797f04330629544c0a6eddabda2e23f88e3d,30.1908748,-97.76903449999999,Taco Bell,1.0,3.3,78744
"161 W Slaughter Ln, #C, Austin, TX 78748, United States",e847f1bc6cb59677d2badd152a80428f8bff0fc9,30.1660249,-97.7917055,Taco Bell,1.0,2.8,78748
"3201 Bee Caves Rd #122, Austin, TX 78746, USA",7f487a4e8706d4a4f4c1bdcb00397b770ab92eb9,30.2717777,-97.80013459999999,Las Palomas,2.0,4.1,78746
"11521 Rr 620 N. E-1000, Austin, TX 78726, United States",143bd5e23f6e04a21b2e78902f0b53501bfe1a63,30.4529644,-97.82757889999999,Torchy's Tacos,2.0,4.4,78726
"13770 N Highway 183, Austin, TX 78750, United States",5824c9a06b980bab5702e7558a2e052c11f16e0c,30.4616482,-97.7950707,Taco Bell,1.0,2.7,78750
"9900 Parmer Lane, Bldg C, Austin, TX 78717, United States",9c9c3f2e489ae80d21ce5fc8dbd4ef0a8b6928ef,30.4865693,-97.77010469999999,Taco Bell,1.0,3.4,78717
"13376 Research Blvd, Austin, TX 78750, USA",1ffb7972b3ec48540966ce8d0c4076ce22547486,30.4437769,-97.78730320000001,Taco Cabana,1.0,2.6,78750
"12518 Research Blvd # M, Austin, TX 78759, USA",a4447a95ce3b025da5c7a46f2ada14ad92f183b8,30.4285073,-97.760494,Yummi Tacos,,4.6,78759
"12525 N Mopac Expy, Austin, TX 78727, USA",a6036add04852490463c6b0686b290d0ecc59176,30.4206908,-97.7026909,Taco Cabana,1.0,3.2,78727
"13729 Research Blvd, Austin, TX 78750, USA",5241101ddb4c282707b52ea84a63f51543b82a7f,30.4585554,-97.79189629999999,Vazquez Restaurant,2.0,4.0,78750
"1921 Cedar Bend Dr, Austin, TX 78757, USA",fe1ee997f48a1485c4adeed18e363ba076c9eed3,30.4080678,-97.69765179999999,Jr's Tacos,,4.6,78757
"12200 Research Blvd #400, Austin, TX 78759, USA",7afc34b528243d488d742c7e27a468fe78ad1a4f,30.42559799999999,-97.753773,OneTaco - an urban taqueria,,4.4,78759
"7007 Village Center Dr, Austin, TX 78731, USA",7c892c1c503c8645b10911fa4fbb1aff6b6f53dd,30.3519868,-97.75653129999999,Tacos Ivan,,4.7,78731
"11501 Rock Rose Ave Suite 160, Austin, TX 78758, USA",ddd030ebbdc136e4f501b990feed465a5ac7e43b,30.4006723,-97.72272869999999,Velvet Taco,2.0,4.4,78758
"10304 N Lamar Blvd, Austin, TX 78753, USA",b89e1c1ec60208ac1a7648cc9988a30f6e7e0c5d,30.3726117,-97.6920146,Tacos Matamoros,,4.4,78753
"8503 Hillmoore Dr, Austin, TX 78719, USA",f5506b3a88ef39b9514d693c0e8279086ca961ad,30.1708185,-97.69081419999999,El Taco Ton- FT,,5.0,78719
"3600 Presidential Blvd, Austin, TX 78719, USA",f40674f73f6cfda9cca1443c4febb98809298e8f,30.201817,-97.6678979,Salt Lick,2.0,4.0,78719
"3600 Presidential Blvd, Austin, TX 78719, USA",22ff50fad7f9a8a65b24c1aa867a8ccb63e41c33,30.2020456,-97.6679293,Maudie's,,1.7,78719
"10050 S Hwy 183, Austin, TX 78719, USA",70b7eafb83cca3b1945152bd1092b99716c24699,30.0939887,-97.6944298,La Bonita Mexican Restaurant,,3.8,78719
"6453-6481 S Hwy 183, Austin, TX 78719, USA",772467cdaa51f5b1797373ed407561f8ce438220,30.1646736,-97.69179059999999,Antojitos Mexicanos La Guera,,4.4,78719
"7709 E Ben White Blvd, Austin, TX 78744, USA",2bfb6e102610f54aead3b89fb344fe69960edcda,30.217777,-97.68970499999999,Javi's Best Of Tex Mex,,4.2,78744
"13820 Farm to Market Road 812, Del Valle, TX 78617, USA",d58ca38ee7f803114c23afa312bdf103d03857f7,30.1215657,-97.6359057,Meches Tacos,,4.6,78617
"2463 E State Hwy 71 Service Rd, Del Valle, TX 78617, USA",9dc8cd444db5fdacc9efdf593379f02e6797f65c,30.2137386,-97.6591768,Jasmine's Restaurant,,4.5,78617
"13602 FM812 Unit B, Del Valle, TX 78617, USA",32bf85df3b4b86eabb6498f79a19df870f5f7dfc,30.1236538,-97.63822180000001,Meches Mexican Restaurant,,4.5,78617
"2110 E Riverside Dr, Austin, TX 78741, USA",267d5d4f3ccb2cea5d3adf95df500dd72b1aa6d2,30.2405782,-97.7265513,Taquerias Arandinas,2.0,4.0,78741
"1468 E Whitestone Blvd Ste 100, Cedar Park, TX 78613, USA",88619da41bee72377018338b91070ee0b5b961e1,30.5265751,-97.8090864,Torchy's Tacos,,4.4,78613
"3306 Oak Springs Dr, Austin, TX 78721, USA",7b632f2c00614bd6274c46060025cebbe10b47ed,30.273962,-97.697034,Beto's Restaurant #2,,3.9,78721
"1138 Gunter St, Austin, TX 78721, USA",04e8d8f18471dec1c238ce998681743fc17b8fdc,30.2703974,-97.6966121,Taqueria Don Emilio Austin,,4.5,78721
"1700 E 6th St, Austin, TX 78702, USA",9579cb3cd751356bf8404b4609c786a5fba6aeb8,30.2626612,-97.724149,Arlo's,,4.6,78702
"900 Red River, Austin, TX 78702, USA",c85df2747789149162c5ca113fd097a0bae5ec65,30.2695051,-97.73624310000001,Arlo's,1.0,4.7,78702
"1005 Springdale Rd, Austin, TX 78721, USA",3116119047882fd4f3063a06494742366bc9ea6b,30.2659903,-97.69544409999999,Taqueria La China,,3.0,78721
"3301 N Interstate 35 Frontage Rd, Austin, TX 78722, USA",0b76318f5913e1e27c714c7fdb1fff29cb6c3cab,30.2909428,-97.72167979999999,Taqueria Los Altos,,4.4,78722
"4209 Airport Blvd, Austin, TX 78722, USA",804f0d0b1e7e22154da079365f07b966c85921be,30.2964906,-97.7076556,Booty Loco's,,4.7,78722
"3101 Interstate 35 Frontage Rd, Austin, TX 78722, USA",43cfc6bacb82a700d8c414eff8b3639a088b8a99,30.2886185,-97.72309800000001,Star Seeds Cafe,2.0,4.2,78722
"1917 Manor Rd, Austin, TX 78722, USA",481d9d4e930ced6b81493046f56b17eb6147adbb,30.2838137,-97.72124009999999,Salty Sow,3.0,4.6,78722
"1304 E 51st St, Austin, TX 78723, USA",d18d7dad6b32fcff921c2fc6bd9b019f0dbe0d68,30.3074261,-97.705849,Paco's Tacos,2.0,4.5,78723
"5301 Manor Rd, Austin, TX 78723, USA",a1b24f00df9d4dd6361bbd9b34c305b8834ce122,30.2999967,-97.6854754,Taqueria Mi Trailita,,4.6,78723
"3124 Manor Rd, Austin, TX 78723, USA",0ea00bb9a6797795f0d526a3075b7619407d0e0d,30.286852,-97.7045887,La Fruta Feliz,,4.4,78723
"6500-6548 Point N Dr, Austin, TX 78724, USA",088ddba4e9d76a24252ab4f4cee390f5f368849f,30.3079262,-97.6428711,Tacos,,3.7,78724
"907 Montopolis Dr, Austin, TX 78741, USA",84ce73f268e618eea2f4b74e4a4bf4b497cfc792,30.2350783,-97.6966593,Alonzo's,,4.1,78741
"2525 W Anderson Ln #175, Austin, TX 78757, USA",337a623bacaac75f3181364298bca229bfc7d8ab,30.3568573,-97.73524909999999,Dos Batos,2.0,4.4,78757
"4927 Craigwood Dr, Austin, TX 78725, USA",883355d853ca06aa2f4bb221a6f223205a05b5af,30.2844115,-97.6593402,Pollos Asados El Norteño,,4.9,78725
"14010 FM 969, Austin, TX 78724, USA",5453782a14b56fcc39a977c90d7f54469831c1ab,30.2487752,-97.58543739999999,Welcome to alexandra,,4.9,78724
"413 Bastrop Hwy, Austin, TX 78741, USA",fd1e3c635ec97eaa6adb63be769a2ee1ecfd74e7,30.2388257,-97.6869297,Mama'S Tacos,,4.0,78741
"1201 Barbara Jordan Blvd #1300, Austin, TX 78723, USA",c4b32c0cb6597986466aa52cef756f3ad87dc359,30.3056551,-97.7079918,Chipotle,1.0,4.2,78723
"6513 N Interstate 35, Austin, TX 78752, USA",e3b839045c2e346e05b551fb576ca2813f68b4a8,30.326925,-97.704872,Pappasito's Cantina,,4.1,78752
"301 Brazos St #150, Austin, TX 78701, USA",f50b77e31a966d96b0ce60630913d0f4d22d20f9,30.2647999,-97.7416279,Uncle Julio's Mexican From Scratch,,4.0,78701
"6425 Burnet Rd, Austin, TX 78757, USA",36241bbf6b03b3b8204d2c4ab791d5a3d141c566,30.3399781,-97.7386743,El Chilito · Burnet,1.0,4.2,78757
"10910 N FM 620, Austin, TX 78726, USA",89eedea1838af64888719466bbd1ecd561578cfc,30.4484167,-97.8308215,Tacos Y Tortas Marus,,4.7,78726
"8300 N FM 620, Austin, TX 78726, USA",fc09e5a0f8b1a440f079ea1484a47bf035d24fed,30.421972,-97.846598,Flores Mexican Restaurant,,3.7,78726
"11228 Domain Dr, Austin, TX 78758, USA",9b3c7fdbaea2409769fc9321947ca2fd648b369e,30.3964164,-97.7273811,Rays World Taco,,3.5,78758
"1779 Wells Branch Pkwy # 108, Austin, TX 78728, USA",dcc677cc3b7fa592e0b970cdda07608e3014e4e5,30.4351992,-97.6743248,El Faro,1.0,4.5,78728
"1762 Colony Creek Dr, Austin, TX 78758, USA",41906e00990c5df2cdcfce2ae5f6b8a6e62d890b,30.36979299999999,-97.715203,Ñoños Tacos #2,,4.8,78758
"14611 MoPac Expy # 103, Austin, TX 78728, USA",b2b3077014d00f2e2cf6ca7be2ea0ca6ec1a10e9,30.4501272,-97.6947771,Ramos Restaurant III,1.0,4.5,78728
"14735 Bratton Ln, Austin, TX 78728, USA",772fd4186a3fa7a5ab552d54360219eb82037da3,30.446126,-97.685389,Polvos Mexican Restaurant,2.0,2.9,78728
"13450 US-183, Austin, TX 78729, USA",76688ec62fc1f72ebec7a263df7ac41974166326,30.4464837,-97.7903238,La Tapatia,1.0,3.9,78729
"13233 Pond Springs Rd #301, Austin, TX 78729, USA",e49e7b1b477710b37e77df710651234945ce4b4d,30.44639059999999,-97.7793339,Jardin Corona,1.0,4.3,78729
"8650 Spicewood Springs Rd, Austin, TX 78759, USA",2b9c97037e76dc229619553c7eaaf8c5ef0e6865,30.4325144,-97.7702023,Camino Real,2.0,3.9,78759
"6301 W Parmer Ln, Austin, TX 78729, USA",9791f1e9443e89bd18ebd63ffdf362bfd9d2f52b,30.4446529,-97.7443266,La Feria Mexican Restaurant,,4.2,78729
"9003 Waterford Centre Blvd Suite 180, Austin, TX 78758, USA",e27570ecae8e8b32168e996c6bfe361b35a96fbe,30.3753812,-97.7293911,Veracruz All Natural,1.0,4.6,78758
"2905 Pearce Rd, Austin, TX 78730, USA",132d3d6640cb382f0e61837f1bf81f55f643c977,30.3335655,-97.822921,Ski Shores Cafe,2.0,4.1,78730
"10601 Ranch to Market Road 2222, Austin, TX 78730, USA",d7cf839fd52f633e98774fa669c5cc2957f05806,30.3933865,-97.8455298,Salsas Mexican Cuisine & Cantina,,3.6,78730
"11404 Ranch Rd 2222 Suite 4, Austin, TX 78730, USA",d4c6ca39c89e68b3bc09cde017d539b467ace032,30.402647,-97.852115,Papa Murphy's Take 'N' Bake Pizza,1.0,4.4,78730
"12506 Shops Pkwy, Austin, TX 78738, USA",0919e5b08fe4baebc306d4a1ffef4c173d5b9753,30.3047144,-97.93737560000001,Maudie's Hill Country,2.0,3.9,78738
"5770 N Mopac Expy #500, Austin, TX 78731, USA",a7efc8afd52ffa869b07e44508f7ff0e3b7b871c,30.3392153,-97.75556619999999,ZuZu Handmade Mexican Food,2.0,4.1,78731
"3800 Dry Creek Dr, Austin, TX 78731, USA",289860f1cc04869b8876fdabbaf20da54822adf7,30.342768,-97.76361639999999,Wild Taco 2,,,78731
"3573 Far West Blvd, Austin, TX 78731, USA",3ee3217e5ecc71d2237fe53ddb05f544cae69e39,30.353284,-97.754926,Kneaded Pleasures Pizza Cafe,1.0,3.9,78731
"6516, 5204 Ranch Rd 2222, Austin, TX 78731, United States",b6cebf98e0487c859f5482b1c064e5be395c8ef0,30.357107,-97.7856212,County Line,2.0,4.3,78731
"6812 Ranch Rd 620 N, Austin, TX 78732, USA",dc94d95f64f00158331556e9c4186a9ee2272b3d,30.4017565,-97.855299,Tacos Don Chuy,,5.0,78732
"1703 Ranch Rd 620 S, Lakeway, TX 78734, USA",64481fac865ea0c832f1754a3774c9e57f397fd3,30.3458652,-97.9643995,Taco Bell,1.0,4.0,78734
"1945 Medical Dr Suite 100, Lakeway, TX 78734, USA",72efc62d5ec106420bf95f9f1c23e0e9d0db319d,30.3466849,-97.9674009,Torchy's Tacos,,4.5,78734
"11715 Bee Caves Rd, Austin, TX 78738, USA",2aa5b7c6c3f95e218e7c442163c422072f2a64a1,30.3080572,-97.919488,Los Pinos,,4.1,78738
"3801 N Capital of Texas Hwy, Austin, TX 78746, USA",ef158e597d3ac31ee121de07199b2ff0c63521c9,30.33691,-97.803367,Maudie's Milagro,2.0,4.2,78746
"5000 W Slaughter Ln, Austin, TX 78749, USA",25686fb5a0f440ed9184eab6445af745fef5f2ed,30.200622,-97.863998,Taco Bueno,1.0,3.9,78749
"2127 Lohmans Crossing Rd, Austin, TX 78734, USA",712916a3d0348c7be7b497a57cc66544b9eb5e7b,30.342407,-97.9691843,Flores Mexican Restaurant,2.0,3.9,78734
"6001 W William Cannon Dr # 301, Austin, TX 78749, USA",5cd3f438aef14347555c0c01037291d2f881d40a,30.2284462,-97.86329909999999,Hecho En Mexico,2.0,4.4,78749
"Building A., Unit #100, 6611 S MoPac Expy, Austin, TX 78749, United States",5f4bfe2a2fb492585b5f5da0da53512709821f97,30.2199603,-97.8353418,Taco Cabana,1.0,3.0,78749
"9911 Brodie Ln #900, Austin, TX 78748, USA",517ee052abed06e360f657eb16674bd81efef24e,30.183247,-97.8477305,Maudie's Hacienda,2.0,4.2,78748
"1700 Ranch Rd 620 N #110, Austin, TX 78734, USA",7d8301e6e9372a44c6695ffdba16d5d75a71ed5a,30.38147039999999,-97.94494139999999,Don Mario Mexican Restaurant,2.0,4.4,78734
"4919 Hudson Bend Rd, Austin, TX 78734, USA",5771ccbd72ab872cf30c6177d926db20e6d66a68,30.4119815,-97.92630369999999,Los Pinos Mexican Restaurant,2.0,4.0,78734
"1200 Lakeway Dr, Lakeway, TX 78734, USA",84cf4ad9108167ba655cdf5c4805c796d1acb59a,30.3639476,-97.98231609999999,Cafe Lago,2.0,4.3,78734
"6116 W US Hwy 290 Service Rd, Austin, TX 78735, USA",3658538b8afb8a4b37215c4e8ec1c829f1c12e22,30.2357979,-97.8553766,Taqueria Chapala 3,2.0,4.4,78735
"5030 W US Hwy 290 Service Rd, Austin, TX 78735, USA",b068962ef6b281e0a3b92649d4590e54d646a49b,30.236147,-97.821823,Serranos Cocina y Cantina - Mopac,2.0,4.3,78735
"5446 US-290, Austin, TX 78735, USA",f1c259903cfd7461c38c9b1039e7b0a073a4f0d4,30.23733489999999,-97.84020559999999,Donut Taco Palace I,2.0,4.4,78735
"7720 TX-71, Austin, TX 78735, USA",987448870b1321e83c201d092556ab3329af624a,30.2435375,-97.88276619999999,Jack Allen's Kitchen Oak Hill,2.0,4.6,78735
"6705 W US Hwy 290 Service Rd Ste 608, Austin, TX 78735, USA",7d43b094fc67fc35a4b8953476f671641e86c525,30.2333705,-97.8659431,Chinos Banditos,,4.7,78735
"1728 Barton Springs Rd, Austin, TX 78704, USA",66bbf61a9a69c5bc038ade813ca4d1f9b113aaa9,30.2638508,-97.76326809999999,Chuy's,2.0,4.2,78704
"11940 Manchaca Rd, Austin, TX 78748, USA",23313d4a89464c5e2f9241e4936230da1c91813d,30.1454798,-97.8332753,Texican Cafe - Manchaca,2.0,4.2,78748
"9201 US-290, Austin, TX 78736, USA",804c0283febaec07c57145413236046aebe430b9,30.2313894,-97.92700719999999,Taco Brother,,5.0,78736
"7001 Oak Meadow Dr, Austin, TX 78736, USA",20a694f87104ccd8a6fa6df8bedf53e126919f71,30.2325898,-97.8770543,Donn's Texas BBQ,2.0,4.1,78736
"12701 Nutty Brown Rd, Austin, TX 78737, USA",9b9779a4d691fc696c5378f5c77c1144d47771e9,30.199353,-97.971842,Tia's Kitchen,,4.9,78737
"10900 US-290, Austin, TX 78737, USA",2b5a1dcdec9ed436ee6d3eff61f70e1458e2ff7e,30.2220221,-97.9567323,Taqueria La Escondida 2,,3.6,78737
"Austin, TX 78737, USA",e9ef9cdb8870520006e1f02f85a230ff07ef116a,30.2086943,-97.9747388,Flores #2,,4.6,78737
"9601 US-290, Austin, TX 78737, USA",395932de9b488b40b8154de5bee8848320e06125,30.2300256,-97.93531209999999,Gordo's Tortas & BBQ,,4.5,78737
"13059 Four Star Blvd, Austin, TX 78737, USA",dfe5f97c74e8fe13adefebfeaea7552caf61227e,30.2044448,-97.98427810000001,Trudy's Four Star,2.0,3.7,78737
"12345 Pauls Valley Rd, Austin, TX 78737, USA",8632e8aa13c50e9ebc74f6f35cd225b929a1a0dd,30.236397,-98.009659,Gordos tacos trailer,,,78737
"16018 Hamilton Pool Rd, Austin, TX 78738, USA",642cff1b202f67a8afe4681916ee627f773abb36,30.2980919,-98.0075888,Verde's Mexican Parrilla,2.0,4.4,78738
"13908 TX-71, Austin, TX 78738, USA",93d2432c1f87577f8b15671a0a0bd5949be9319e,30.3095991,-97.9612324,Hill Country Food Mart - Mr.Taco King,2.0,4.0,78738
"12800 Hill Country Blvd. Suite G-115, Bee Cave, TX 78738, United States",fcd18068ed57d0341f64162d14dd095ca23310ff,30.3093628,-97.94013939999999,Cafe Blue at Hill Country Galleria,2.0,4.1,78738
"12532 Farm to Market 2244, Bee Cave, TX 78738, USA",69a9af9316fb519b492466fcd99b4a6bcbe5589e,30.3058413,-97.93579439999999,Schmidt Family Barbecue,2.0,4.0,78738
"13436 TX-71, Austin, TX 78738, USA",885c74bea270d34e2740ceaa48b0ec178da9cf45,30.308592,-97.949944,Rosie's Tamale House,2.0,4.1,78738
"12713 Galleria Cir, Bee Cave, TX 78738, USA",f1b9adf83ba98fe0d5bc2f3d30be9cda0a0b3869,30.3071922,-97.939336,Chili's Grill & Bar,1.0,4.0,78738
"12110 Manchaca Rd # 102, Austin, TX 78748, USA",eb89b7c3a7de81d4b091b901b4fded30afdb051f,30.1428091,-97.8340332,Macho Taco,1.0,4.6,78748
"9001 Brodie Ln, Austin, TX 78748, USA",0a2a19116ec3aac36374dc3bc1acdbfc3036f327,30.1937806,-97.8427001,Casa Arandinas,,4.2,78748
"2440 E Hwy 290, Dripping Springs, TX 78620, USA",32fc48e2cc2b1a0e229009965fda0f855c62c454,30.194246,-98.05049849999999,Flores Mexican Restaurant,2.0,3.9,78620
"580 Old San Antonio Rd, Buda, TX 78610, USA",b3707c8748e2ffed8f2fb3deb33b2f259f42949e,30.085445,-97.8225216,Taco Bell,1.0,3.7,78610
"1911 E Riverside Dr, Austin, TX 78741, USA",f924f7a845dea4ab8a2338a6b70ce38ea446ee1c,30.2421289,-97.7299819,Rosita's Al Pastor,2.0,4.2,78741
"1713 E Riverside Dr, Austin, TX 78741, USA",f153c80aac38ab5352b46a320da101f957495b68,30.243789,-97.7303747,El Taquito,2.0,4.1,78741
"2030 E Oltorf St, Austin, TX 78741, USA",caca93aab64955c9b268a46ba94593df00b8a36f,30.2307745,-97.7320737,El Jacalito,2.0,3.9,78741
"2433 S Pleasant Valley Rd, Austin, TX 78741, USA",78820436442d1ef255ef9bfed0fa7f3922cc62fb,30.2277448,-97.7272241,Tres Mayes,,5.0,78741
"2506 E Ben White Blvd, Austin, TX 78741, USA",1619c3c229a810a3cfc689c0b2e57c01d7e51fb0,30.2159812,-97.73558930000002,Don Juan,,4.0,78741
"700 W William Cannon Dr, Austin, TX 78745, USA",641df6aadb055312421c29ab682df13da711d8cb,30.197649,-97.7878446,Taquerias Arandinas,2.0,4.3,78745
"2001-2199 Woodland Ave, Austin, TX 78741, USA",5a0d9e5338fea4dc737eefa7d6a5bf23d37de15d,30.2360731,-97.729044,Tacos La Campechana,,,78741
"5808 Burleson Rd, Austin, TX 78744, USA",6f2801ebf622bfe32cffd3c6d5cd5847291169f2,30.2079126,-97.7209307,El Mesón,1.0,4.0,78744
"5310 S Pleasant Valley Rd, Austin, TX 78744, USA",04ab93dc8810340d29f05039e461c7d7b620f601,30.1945888,-97.7451895,La Placita,,4.2,78744
"4606 Burleson Rd, Austin, TX 78744, USA",229d2c9616449b9b1bcf6bd8e723a000c1b6fc56,30.21306809999999,-97.7316547,Casa Moreno's,,4.4,78744
"5303 Nuckols Crossing Rd, Austin, TX 78744, USA",9b21512b56b6eb807fdd02917ad90c992d189a55,30.1925973,-97.7386784,Taqueria Peloncitos,,4.3,78744
"7612 Old Lockhart Hwy, Austin, TX 78744, USA",51ecfd15e0a9df702050784536930cfb13bda7fa,30.1746416,-97.7694583,Secret Taco Stand,,4.0,78744
"Austin, TX 78744, USA",56ee95a6084377113db149bf8820f79061464919,30.1972658,-97.7438147,Tacos,,,78744
"512) 619-3798, 4914 Pepper Ln, Austin, TX 78744, USA",1d29a6c2679a96659e02dd3998b104fdc5d944aa,30.2024987,-97.7521809,Lopez Taco Truck,,4.9,78744
"6002 Burleson Rd, Austin, TX 78744, USA",e4f56f46ef8d54417007779114df370bfc5f4cd8,30.2065639,-97.71824529999999,Casa Vallarta,,4.1,78744
"8801 S IH 35 Frontage Rd, Austin, TX 78744, USA",17522651dcf2bcf905d04244da94d5469ae6dfb8,30.1698683,-97.7835724,Don Dario's Cantina,,4.0,78744
"5510 S IH 35 Frontage Rd, Austin, TX 78745, USA",16bd510d862084e5cc9b8893119e3ee420e3a4ef,30.2005599,-97.7634307,Mariana's Kitchen,,4.5,78745
"4415 S IH 35 Frontage Rd, Austin, TX 78744, USA",11f5619d001395ccabd5c53f46b258e87a401b76,30.2109152,-97.753298,The Limestone Kitchen Restaurant & Lounge,,3.2,78744
"3100 US-183, Austin, TX 78744, USA",fc5feac4dd0e67af8f652595551cfe0a85f0b83c,30.2048857,-97.68375069999999,Taqueria Morelos,,4.6,78744
"1615-1679 E William Cannon Dr, Austin, TX 78744, USA",89ed4ea5248f08973ee02bb68904d1270997a7b4,30.1885057,-97.76735110000001,Chanitas Tacos,,5.0,78744
"Austin, TX 78744, USA",c1af9a4a4e68beff6f1cfb8617ada03eff0df71d,30.1891267,-97.6861931,Veronica's Pupusas y Tacos,,4.7,78744
"6601 S Congress Ave, Austin, TX 78745, USA",2f12d340ea6e2f1995af2d57a631776e2c56fdea,30.1938732,-97.77763519999999,Jalisco's,2.0,4.1,78745
"6800 West Gate Blvd #143, Austin, TX 78745, USA",b1add66cb62807c39f2c83cb3cb9d13fade51ae0,30.208302,-97.81541700000001,La Posada,2.0,4.3,78745
"4811 S Congress Ave, Austin, TX 78745, USA",d743c7258f030a9fb6f0b0e1d3ebd8e708b64e0b,30.2122979,-97.77020979999999,Tacos Las Amazonas Estilo Jalisco,,4.8,78745
"1415 W William Cannon Dr, Austin, TX 78745, USA",92de2bb198f828b6de06943054c8faadef0c1a8f,30.2003403,-97.8000254,Taqueria Morales,,4.7,78745
"4128 S 1st St, Austin, TX 78745, USA",533e94d64409300761167cd8e2fec89b942a715f,30.2249456,-97.77070649999999,Jefes Tacos,,5.0,78745
"7200 Manchaca Rd, Austin, TX 78745, USA",a9374f9282ede0e604f845552b50ae834f29c1d0,30.199952,-97.807934,Mami's tacos,,4.9,78745
"2901 S Capital of Texas Hwy, Austin, TX 78746, USA",8af38af41909ac174c08c8463b95cb8be8a6a4c3,30.2575506,-97.8078192,Mabos Craft Tacos,,5.0,78746
"1801 S Capital of Texas Hwy, Austin, TX 78746, USA",c69832ed68954a599bb095d24a4209cb3d2aca9f,30.2712182,-97.8171258,Vaqueros Cafe & Cantina,,4.1,78746
"2712 Bee Caves Rd, Austin, TX 78746, USA",bdefc39e9e72060c0c3f8552220f8ea2ca60d20b,30.2718138,-97.78653829999999,Chinatown,2.0,4.1,78746
"701 S Capital of Texas Hwy E-550, Austin, TX 78746, USA",21498ed14a5f8ad9582f9c4e893a47c89bac2a55,30.2905199,-97.8260328,Izumi Sushi,2.0,4.0,78746
"12115 Manchaca Rd, Austin, TX 78748, USA",0bcc3f53a6481f38db6dd76e5ea8cef23ae4a6d0,30.1417485,-97.8326295,Taco Aranda Mexican Food,,4.2,78748
"10006 Manchaca Rd, Austin, TX 78748, USA",d9ced8a6131f3ed65b8167f385993977e154200a,30.1720664,-97.8253565,Panchita Taco Taco,,3.7,78748
"3601 W William Cannon Dr # 900, Austin, TX 78749, USA",62edcfdd43baa7f20b3d53f357934d5bb31ddd64,30.2151337,-97.8337257,La Familia Mexican Restaurant,2.0,3.9,78749
"4301 W William Cannon Dr, Austin, TX 78749, USA",f14e5d754c47399635bfa56310d2eeeee33b5e27,30.2177657,-97.8415066,Chuy's,,4.4,78749
"9600 Escarpment Blvd, Austin, TX 78749, USA",901153bbc3b4a2685fb88371965a61a3270ad1e4,30.2035199,-97.87899069999999,Waterloo Ice House Escarpment,2.0,4.0,78749
"12233 Ranch Rd 620 N, Austin, TX 78750, USA",47c7c8b8a22d09a581b449b09c656d8c00dc92aa,30.4623054,-97.8147877,Taco Shack,,3.8,78750
"12226 Ranch Rd 620 N, Austin, TX 78750, USA",05a9846d4f1b6b7ec85a7b8d15a0dbc515e537bf,30.4626684,-97.8156697,Taqueria Guadalajara,2.0,4.1,78750
"4230 Duval St, Austin, TX 78751, USA",25ccd8234ca6166c1b25672b3e28ea841d2a5c36,30.3045299,-97.7263704,Julio's Cafe,2.0,4.3,78751
"1000 E 41st St Ste. 260, Austin, TX 78751, USA",f40ecc5340d7c8dd1a27dc6d164905f24856c661,30.299576,-97.72131700000001,Freebirds World Burrito,2.0,4.1,78751
"4000-4010 Red River St, Austin, TX 78751, USA",e47419802a3f490101d3b5eab9db28b8d1daa699,30.2994026,-97.7225921,Chetos Tacos,,4.9,78751
"& e, Airport Blvd & E 51st St, Austin, TX 78751, United States",c5782d2d343c965174df5c32754abfb14e3aa96d,30.3121385,-97.71499460000001,Taqueria La Canaria,,4.4,78751
"5621 Airport Blvd, Austin, TX 78751, USA",856ee9c822a5cf411421edc5ba3609c526574580,30.318313,-97.712265,Quality Seafood Market,2.0,4.3,78751
"5602 N Lamar Blvd, Austin, TX 78751, USA",e1387f2e6aee704a6d025e08daf567a115d1702f,30.3249269,-97.7273972,Dan's Hamburgers,1.0,4.5,78751
"4011 Red River St, Austin, TX 78751, USA",468982f36eaea2f507656e33ab84901d6539ac57,30.2992272,-97.7221515,Victors Tacos,,,78751
"6801 Airport Blvd, Austin, TX 78752, USA",90f53c2e4190bb1f247a5a2f15cb0c5339cf3edf,30.3338256,-97.716262,Brazas Taco House,,4.6,78752
"6903 Airport Blvd, Austin, TX 78752, USA",a33cd2892b6e7cc4565a4e026b2d275de0c0354f,30.335887,-97.717603,Taqueria Los Jaliscienses,,4.1,78752
"720 N Lamar Blvd, Austin, TX 78752, USA",23fd26e13e8288d8fef9ded5736f03166af40ccb,30.3317135,-97.7221493,Jefes,,4.5,78752
"600 Canion St, Austin, TX 78752, USA",b152fe37d02fe1c0661dd107d53744c355eba4c3,30.3332089,-97.7176161,Taco Wagon on the corner,,,78752
"704 E St Johns Ave, Austin, TX 78752, USA",ba6ab24b9ab561b27cf81e9c1e35ed2466dcd317,30.3335154,-97.70495149999999,Tacos La Esmeralda,,5.0,78752
"6619 N Interstate Hwy 35, Austin, TX 78752, USA",2d297a39dfa2866eabc707f892c020c7a0b0e706,30.3278815,-97.7048525,Chili's Grill & Bar,1.0,3.8,78752
"7210 Cameron Rd, Austin, TX 78752, USA",5e9a34f97d15e3208a3bbf781b88e7085f134d32,30.3267966,-97.6924088,Aguileras Mexican Restaurant,,4.0,78752
"7600 N Lamar Blvd, Austin, TX 78752, USA",b091d50bdf3435da45742fb74abccd14d87ac06a,30.3445163,-97.7152181,Tex Mex Joe's,,4.5,78752
"6406 N Interstate Hwy 35, Austin, TX 78752, USA",5aa33f4ffe1e41e1aa386cfb91364b3f59d89a7a,30.3254429,-97.70849869999999,Vivo,2.0,4.3,78752
"7208 Cameron Rd, Austin, TX 78752, USA",975629965e68308995af4c5cb8598b00968d954f,30.3266284,-97.6925018,Taco-N-Share,,,78752
"7213 Cameron Rd, Austin, TX 78752, USA",a496093daed06331d406ea7c7537af21eadcc76f,30.3266397,-97.6915258,El Rinconcito Del Sabor,,4.4,78752
"Austin, TX 78752, USA",c21f0dd04df9377c2d47f4255e39e7682d34fe09,30.3351944,-97.7201905,Taqueria Los Gallitos,,,78752
"707 E Braker Ln #201, Austin, TX 78753, USA",726ed2515c89801264fbfd18236f8f887be8ce9e,30.3766482,-97.677488,La Montaña Tacos,,4.0,78753
"10810 N Lamar Blvd, Austin, TX 78753, USA",8f350f14c8c58c9691692256caacc2b3f51bfffc,30.3773523,-97.68928,Matamoros Tacos,,3.6,78753
"701-755 Provines Dr, Austin, TX 78753, USA",00beaf114db42bd5801743b052a1f9a43ded47fe,30.3765638,-97.6891969,El Chilango,,4.6,78753
"13000 N Interstate 35 Frontage Rd 12 #204, Austin, TX 78753, USA",1692c785ae428dd0da8325dd88721ce17f81c631,30.4114911,-97.67570769999999,Maria's Mexican Restaurant,,3.1,78753
"13609 I-35, Austin, TX 78753, USA",05569aa0046d639fc36a09b868c4a962b34f6162,30.423144,-97.67048899999999,Baby Acapulco,2.0,3.8,78753
"Beaver St, Austin, TX 78753, USA",e9dfce22e2121c919cfd29b97aedf3a3c835aee2,30.3542846,-97.703972,Martinez Tacos,,4.0,78753
"850 E Rundberg Ln, Austin, TX 78753, USA",a10f64691b0115cc94b541da8690b44710b6fc05,30.35712049999999,-97.6855472,Tortilleria La Sabrocita,,4.2,78753
"12601 Tech Ridge Blvd # 100, Austin, TX 78753, USA",a70978817d132045ef52b0fb88babc696e7363c8,30.4009252,-97.65767199999999,La Tapatia,2.0,3.7,78753
"11300 Pollyanna Ave, Austin, TX 78753, USA",760b0d99e6d93f8d8a04829b45e7c12483bf1f5e,30.3776202,-97.6770773,Taqueria Montenegro,,4.6,78753
"8624 N Lamar Blvd, Austin, TX 78753, USA",31a26e75a5aaf15c9e24f2abb41a6a9d4fbc3cae,30.355379,-97.703541,Taquerias Las Chivas Jalisco,1.0,3.8,78753
"Austin, TX 78753, USA",b244396fdb475175b0565ad9ad2b91f23740b613,30.3617881,-97.69799789999999,Tacos El Charly,,4.3,78753
"9207 N Lamar Blvd, Austin, TX 78753, USA",9a8b43f7246b44224a942d703600aef4e1c300ae,30.36122009999999,-97.6974821,Taqueria Guadalajara,1.0,4.1,78753
"2900 W Anderson Ln suite k, Austin, TX 78757, USA",9e99c76a2868cb31119070901f66a49b52aa57a5,30.359813,-97.736744,OneTaco - an urban taqueria,,4.6,78757
"4516 Burnet Rd, Austin, TX 78756, USA",d936078430bce3ac738a594672807882c4affff9,30.3160709,-97.7414323,La Cocina de Consuelo,2.0,4.4,78756
"2330 W N Loop Blvd, Austin, TX 78756, USA",93d5854ff5c1b3793361185f80e49d8f56cfaade,30.3255617,-97.7433643,Fonda San Miguel,3.0,4.4,78756
"5520 Burnet Rd #100, Austin, TX 78756, USA",22bdbfb2327e1d40b27409d51d29734eb032ddac,30.330704,-97.74027,The Peached Tortilla,2.0,4.5,78756
"1304 W Koenig Ln, Austin, TX 78756, USA",2c335eb0ceb270c25923cd1ddb6d2aba73cdc9b1,30.3308938,-97.7308286,Chekos,2.0,4.3,78756
"4400 N Lamar Blvd, Austin, TX 78756, USA",1c0ca4ce870a27fc23adb012c996fb5d499f88d2,30.312482,-97.73864499999999,Chipotle Mexican Grill,1.0,4.2,78756
"2203 Hancock Dr, Austin, TX 78756, USA",d52d0204f0db08e8753ef420ad3e6e9d750faaf1,30.32249,-97.74085099999999,La Mancha,,4.2,78756
"5000 Burnet Rd, Austin, TX 78756, USA",212bf93b4c88cef23b2f461cb71c2d77d84f020a,30.3211689,-97.73950549999999,The Big Kahuna,1.0,4.8,78756
"4420 N Lamar Blvd, Austin, TX 78756, USA",a83a7405f0b79cc47aa420b49a98c7f65ee0c22b,30.3133207,-97.7383558,Chili's Grill & Bar,1.0,3.9,78756
"3800 N Lamar Blvd #120, Austin, TX 78756, USA",2f5ad79ce96295efa31195f59fd5b7132f9da741,30.3056191,-97.7433834,Snooze an A.M. Eatery,2.0,4.5,78756
"1112 W Koenig Ln, Austin, TX 78756, USA",16a06a5a95f24d9cb06f92fb4cec6df6ebcf16db,30.3299632,-97.7290398,Taqueria Torres,,5.0,78756
"1519 W Anderson Ln, Austin, TX 78757, USA",01696809ac69850d9d538610a7e2f3818582a8fb,30.3517287,-97.72241939999999,Casita Guanajuato,2.0,4.3,78757
"7414 Burnet Rd, Austin, TX 78757, USA",58131e2ba7dec2cac24e701b7e9bbfc9f78eec0f,30.350286,-97.735164,El Mercado Restaurant,2.0,4.2,78757
"911 W Anderson Ln, Austin, TX 78757, USA",3131bab44c05af1c2d5529a79705eeda04aa025d,30.348007,-97.71470099999999,El Nuevo Mexico,2.0,4.1,78757
"8820 Burnet Rd, Austin, TX 78757, USA",cfc1abf19d598cd6981502024dd16fdf06941ea4,30.3706045,-97.7275391,Trudy's North Star,2.0,4.0,78757
"1725 Ohlen Rd, Austin, TX 78757, USA",432b9d17a5d50093ac6cbec990d48a0816fb79fc,30.3626253,-97.7185666,Pollo Regio,1.0,4.2,78757
"1911 W Anderson Ln, Austin, TX 78757, USA",55ff0421984c994d8f20bc48624d51f7525dbb31,30.3539849,-97.72690999999999,Enchiladas Y Mas,2.0,4.3,78757
"6534 Burnet Rd, Austin, TX 78757, USA",c589b637e0f097abc83273322a0a8ad8a1c32251,30.3415668,-97.73916299999999,Taqueria Guadalajara Arandas,2.0,4.1,78757
"3300 W Anderson Ln #303, Austin, TX 78757, USA",4c12d0958cbe4537a016b790682c49c17b4e8b32,30.3622041,-97.74235259999999,Eldorado Cafe,2.0,4.6,78757
"7310 Burnet Rd, Austin, TX 78757, USA",23a9839b0e1b31ba5279a78175f495896fdc13bf,30.3492178,-97.7358826,Ichiban Restaurant,3.0,4.5,78757
"2700 W Anderson Ln #204, Austin, TX 78757, USA",b37a66d7146122e1c1e54cbc67392ea0bf93785c,30.3585523,-97.7347398,Chipotle Mexican Grill,1.0,4.1,78757
"6801 Burnet Rd, Austin, TX 78757, USA",74d41446b8ee42daedb7269a22c2c0db2df5a9dc,30.343898,-97.7379892,The Frisco Shop,2.0,4.2,78757
"2900 W Anderson Ln #250, Austin, TX 78757, USA",e029b732171080eb35ffbd1c2b75546bb8ff9105,30.3602519,-97.7372383,Zen Japanese Food Fast,2.0,4.1,78757
"7329 Burnet Rd, Austin, TX 78757, USA",9ff268c505061f2fddb01402aafbae6e346a0593,30.349197,-97.73463199999999,Pizza Land,2.0,2.0,78757
"10025 Burnet Rd, Austin, TX 78758, USA",75b3011e0e079beaa825a0cb849f4d441e74161e,30.3842965,-97.723295,Gringa's Street Tacos,,4.4,78758
"9041 Research Blvd #100, Austin, TX 78758, USA",3c1ec33c4ad5c62c4b5056b72bdc253ad748b732,30.373693,-97.725293,Casa Chapala,2.0,4.1,78758
"1200 Kramer Ln, Austin, TX 78758, USA",4b575375f75cd7567d68d9168dcef08046cd6c01,30.3830731,-97.694389,Tacos Luna,,4.3,78758
"8538 Research Blvd, Austin, TX 78758, USA",94e508c1ddafb794b0e41076c65b78feebbd556f,30.360009,-97.71701809999999,Texican Tacos,,5.0,78758
"11200 Research Blvd, Austin, TX 78759, USA",b72123241a10cd93f24975c3f52d33a12f2c3775,30.4083933,-97.7458869,Top Taco,,4.7,78759
"8127 Mesa Dr, Austin, TX 78759, USA",e7327ad13df5c3e358bcfbc72779dd03e3910273,30.3728363,-97.75556449999999,Molcas Mexican Restaurant,2.0,3.9,78759
"8663-8667 Spicewood Springs Rd, Austin, TX 78759, USA",0888ffb4ea534d4b46c58b86885502e14366501d,30.4338996,-97.7711887,El Amigo Taco,,5.0,78759
"9505 Stonelake Blvd, Austin, TX 78759, USA",d4603179e2e53f51e3cd56cdb9c64ce35dc990c6,30.386681,-97.73769500000002,Baby Acapulco Restaurant,2.0,3.7,78759
"7522 N Interstate Hwy 35, Austin, TX 78752, USA",9360fc9162d531e19b209207ae6e241f0bb05ee9,30.337057,-97.7022622,Ojos Locos Sports Cantina - Austin,,3.9,78752
"4211 S Lamar Blvd A2, Austin, TX 78704, USA",b8e6e80250603808fcf9c81669f59133f3c802fe,30.233698,-97.7922,Azul Tequila,2.0,3.9,78704
"3815 Dry Creek Dr, Austin, TX 78731, USA",b0845448484d8014f625cc6df438384134ccf0e7,30.342748,-97.764071,Azul Tequila,2.0,4.1,78731
"606 Trinity St, Austin, TX 78701, USA",0e30205f8859ea791c2023a6a50cf30dd677a777,30.267395,-97.73945379999999,Iron Cactus Mexican Restaurant and Margarita Bar,,3.8,78701
"310 Congress Ave, Austin, TX 78701, USA",d0b7d4d7480ff15be7869c971789854cd87bda08,30.265828,-97.743923,Manuel's Downtown Mexican Restaurant,2.0,3.9,78701
"1302 S 1st St, Austin, TX 78704, USA",d7e14571d9565fdf6fa10d0314fb1fc4c205cd78,30.2513081,-97.7545633,El Mercado,2.0,4.0,78704
